{"type": "FeatureCollection", "name": "aoi_carreteras_leoncio_prado", "crs": {"type": "name", "properties": {"name": "urn:ogc:def:crs:OGC:1.3:CRS84"}}, "metadata": {"fuente": "OpenStreetMap, consultado vía Overpass API", "fecha_descarga": "2026-09-11", "licencia": "OpenStreetMap contributors, ODbL", "tolerancia_simplificacion": 0.0006, "incluye_caminos_rurales": false, "tramos": 259}, "features": [{"type": "Feature", "properties": {"codigo": "PE-18A", "nombre": "Avenida Tito Jaime", "categoria": "trunk", "tipo": "concrete", "fuente": "OpenStreetMap (Overpass API)"}, "geometry": {"type": "LineString", "coordinates": [[-76.0034636, -9.3015401], [-75.9978208, -9.2922349]]}}, {"type": "Feature", "properties": {"codigo": "PE-14A", "nombre": "PE-14A", "categoria": "primary", "tipo": "primary", "fuente": "OpenStreetMap (Overpass API)"}, "geometry": {"type": "LineString", "coordinates": [[-76.0068722, -9.3014313], [-76.0068126, -9.3015038]]}}, {"type": "Feature", "properties": {"codigo": "SIN-REF", "nombre": "Jirón Julio Burga", "categoria": "tertiary", "tipo": "tertiary", "fuente": "OpenStreetMap (Overpass API)"}, "geometry": {"type": "LineString", "coordinates": [[-75.9951707, -9.2938778], [-75.9978208, -9.2922349]]}}, {"type": "Feature", "properties": {"codigo": "SIN-REF", "nombre": "Avenida 28 de Julio", "categoria": "tertiary", "tipo": "tertiary", "fuente": "OpenStreetMap (Overpass API)"}, "geometry": {"type": "LineString", "coordinates": [[-76.0031846, -9.3049666], [-76.0007641, -9.3029784]]}}, {"type": "Feature", "properties": {"codigo": "SIN-REF", "nombre": "Avenida Alameda Perú", "categoria": "tertiary", "tipo": "concrete", "fuente": "OpenStreetMap (Overpass API)"}, "geometry": {"type": "LineString", "coordinates": [[-76.0031106, -9.3031609], [-76.0018343, -9.3012512]]}}, {"type": "Feature", "properties": {"codigo": "SIN-REF", "nombre": "Avenida Alameda Perú", "categoria": "tertiary", "tipo": "concrete", "fuente": "OpenStreetMap (Overpass API)"}, "geometry": {"type": "LineString", "coordinates": [[-75.9987254, -9.2955159], [-76.0021185, -9.3010771]]}}, {"type": "Feature", "properties": {"codigo": "SIN-REF", "nombre": "Jirón José Olaya", "categoria": "tertiary", "tipo": "tertiary", "fuente": "OpenStreetMap (Overpass API)"}, "geometry": {"type": "LineString", "coordinates": [[-76.0016013, -9.3026589], [-76.0031106, -9.3031609]]}}, {"type": "Feature", "properties": {"codigo": "SIN-REF", "nombre": "Avenida Sven Erickson", "categoria": "tertiary", "tipo": "tertiary", "fuente": "OpenStreetMap (Overpass API)"}, "geometry": {"type": "LineString", "coordinates": [[-76.0036612, -9.3023361], [-76.0045417, -9.3027323]]}}, {"type": "Feature", "properties": {"codigo": "PE-14A", "nombre": "Jirón Jorge Chávez", "categoria": "primary", "tipo": "primary", "fuente": "OpenStreetMap (Overpass API)"}, "geometry": {"type": "LineString", "coordinates": [[-76.0062296, -9.3022279], [-76.0050488, -9.3038991]]}}, {"type": "Feature", "properties": {"codigo": "SIN-REF", "nombre": "Jirón Callao", "categoria": "tertiary", "tipo": "tertiary", "fuente": "OpenStreetMap (Overpass API)"}, "geometry": {"type": "LineString", "coordinates": [[-76.0043165, -9.3010424], [-76.0023861, -9.3021943]]}}, {"type": "Feature", "properties": {"codigo": "HU-556", "nombre": "Avenida Unión", "categoria": "secondary", "tipo": "paved", "fuente": "OpenStreetMap (Overpass API)"}, "geometry": {"type": "LineString", "coordinates": [[-76.0069427, -9.3006445], [-76.0090445, -9.2845907], [-76.0077475, -9.2690606]]}}, {"type": "Feature", "properties": {"codigo": "SIN-REF", "nombre": "Vía sin nombre", "categoria": "tertiary", "tipo": "tertiary", "fuente": "OpenStreetMap (Overpass API)"}, "geometry": {"type": "LineString", "coordinates": [[-76.0028514, -9.3024422], [-76.0026777, -9.3025248]]}}, {"type": "Feature", "properties": {"codigo": "SIN-REF", "nombre": "Avenida Los Ángeles", "categoria": "tertiary", "tipo": "tertiary", "fuente": "OpenStreetMap (Overpass API)"}, "geometry": {"type": "LineString", "coordinates": [[-75.9936495, -9.288844], [-75.9909477, -9.2878481], [-75.9837795, -9.2896061], [-75.9808686, -9.2881885], [-75.9780786, -9.2902025], [-75.977068, -9.2894876], [-75.9757241, -9.2907158], [-75.974202, -9.2905504], [-75.9723446, -9.2925132], [-75.973143, -9.2934067]]}}, {"type": "Feature", "properties": {"codigo": "SIN-REF", "nombre": "Avenida Amazonas", "categoria": "tertiary", "tipo": "tertiary", "fuente": "OpenStreetMap (Overpass API)"}, "geometry": {"type": "LineString", "coordinates": [[-76.0007641, -9.3029784], [-76.0002636, -9.3022037]]}}, {"type": "Feature", "properties": {"codigo": "SIN-REF", "nombre": "Avenida Ucayali", "categoria": "tertiary", "tipo": "tertiary", "fuente": "OpenStreetMap (Overpass API)"}, "geometry": {"type": "LineString", "coordinates": [[-76.0010514, -9.3017308], [-76.0016013, -9.3026589]]}}, {"type": "Feature", "properties": {"codigo": "PE-18A", "nombre": "Carretera Interoceánica Centro", "categoria": "trunk", "tipo": "paved", "fuente": "OpenStreetMap (Overpass API)"}, "geometry": {"type": "LineString", "coordinates": [[-75.9935742, -9.2887355], [-75.9915234, -9.2834349], [-75.9900081, -9.281832], [-75.9887389, -9.2749445], [-75.9915078, -9.2497935], [-75.9893352, -9.2288131], [-75.9882402, -9.2253927]]}}, {"type": "Feature", "properties": {"codigo": "PE-18A", "nombre": "Avenida Pimentel", "categoria": "trunk", "tipo": "trunk", "fuente": "OpenStreetMap (Overpass API)"}, "geometry": {"type": "LineString", "coordinates": [[-76.0002333, -9.3095204], [-76.0038103, -9.304018]]}}, {"type": "Feature", "properties": {"codigo": "PE-18A", "nombre": "Avenida Raymondi", "categoria": "trunk", "tipo": "concrete", "fuente": "OpenStreetMap (Overpass API)"}, "geometry": {"type": "LineString", "coordinates": [[-76.0003105, -9.2946072], [-76.0037263, -9.3001143]]}}, {"type": "Feature", "properties": {"codigo": "PE-5N", "nombre": "Carretera Presidente Fernando Belaúnde Terry", "categoria": "trunk", "tipo": "asphalt", "fuente": "OpenStreetMap (Overpass API)"}, "geometry": {"type": "LineString", "coordinates": [[-75.9599757, -9.1865609], [-75.9601493, -9.186092]]}}, {"type": "Feature", "properties": {"codigo": "PE-5N", "nombre": "Carretera Federico Basadre", "categoria": "trunk", "tipo": "trunk", "fuente": "OpenStreetMap (Overpass API)"}, "geometry": {"type": "LineString", "coordinates": [[-75.957825, -9.1904537], [-75.9583534, -9.1905031]]}}, {"type": "Feature", "properties": {"codigo": "PE-18A", "nombre": "Carretera Interoceánica Centro", "categoria": "trunk", "tipo": "paved", "fuente": "OpenStreetMap (Overpass API)"}, "geometry": {"type": "LineString", "coordinates": [[-75.9612888, -9.1866556], [-75.9603243, -9.1869708]]}}, {"type": "Feature", "properties": {"codigo": "PE-14A", "nombre": "PE-14A", "categoria": "primary", "tipo": "asphalt", "fuente": "OpenStreetMap (Overpass API)"}, "geometry": {"type": "LineString", "coordinates": [[-76.0068722, -9.3014313], [-76.0096636, -9.3051838], [-76.0101348, -9.3090916], [-76.011857, -9.3121263], [-76.0120918, -9.3161743], [-76.010574, -9.318899], [-76.0124481, -9.3182195], [-76.0127208, -9.3198145], [-76.0139646, -9.3191093], [-76.0146446, -9.3199436], [-76.0171029, -9.318676], [-76.017686, -9.3201959], [-76.0196059, -9.3197457], [-76.0214545, -9.32164], [-76.0247358, -9.3222636], [-76.0287009, -9.3247442]]}}, {"type": "Feature", "properties": {"codigo": "PE-14A", "nombre": "Puente Monzón", "categoria": "primary", "tipo": "primary", "fuente": "OpenStreetMap (Overpass API)"}, "geometry": {"type": "LineString", "coordinates": [[-76.0287009, -9.3247442], [-76.0296972, -9.3251499]]}}, {"type": "Feature", "properties": {"codigo": "HU-650", "nombre": "HU-650", "categoria": "tertiary", "tipo": "tertiary", "fuente": "OpenStreetMap (Overpass API)"}, "geometry": {"type": "LineString", "coordinates": [[-76.0350622, -9.3232359], [-76.0401071, -9.3275552], [-76.0444952, -9.3337127], [-76.0439829, -9.3379681], [-76.0536747, -9.3507756]]}}, {"type": "Feature", "properties": {"codigo": "PE-14A", "nombre": "PE-14A", "categoria": "primary", "tipo": "primary", "fuente": "OpenStreetMap (Overpass API)"}, "geometry": {"type": "LineString", "coordinates": [[-76.0320538, -9.3228964], [-76.0329516, -9.3219571], [-76.0350622, -9.3232359], [-76.036101, -9.32279], [-76.038697, -9.318752], [-76.042233, -9.3158271], [-76.043525, -9.318351], [-76.0463288, -9.3177897], [-76.049811, -9.3129592], [-76.04978, -9.3107982], [-76.0525896, -9.3073811], [-76.0517366, -9.3044907], [-76.0546884, -9.2988156], [-76.0580822, -9.2988129], [-76.0693858, -9.3034787], [-76.0739976, -9.301534], [-76.0779379, -9.3037286], [-76.0796192, -9.3025896], [-76.0854813, -9.3050763], [-76.0881583, -9.3036609], [-76.0887712, -9.3013851], [-76.090351, -9.2998757]]}}, {"type": "Feature", "properties": {"codigo": "SIN-REF", "nombre": "Vía sin nombre", "categoria": "tertiary", "tipo": "tertiary", "fuente": "OpenStreetMap (Overpass API)"}, "geometry": {"type": "LineString", "coordinates": [[-76.0899528, -9.3004704], [-76.0948599, -9.2994198], [-76.0963764, -9.3001106], [-76.0975621, -9.3035934], [-76.0958883, -9.3060495], [-76.0974602, -9.3118665], [-76.0961066, -9.3146529], [-76.09708, -9.3163222], [-76.0984389, -9.3163737], [-76.0985074, -9.318209], [-76.1009679, -9.322021], [-76.1020158, -9.3257696], [-76.10139, -9.3282112], [-76.1022487, -9.3286565], [-76.1033034, -9.334056], [-76.1070907, -9.3349241], [-76.1095444, -9.3406206], [-76.1170175, -9.3444039], [-76.1192813, -9.3480351], [-76.1216631, -9.3496759], [-76.1231384, -9.3491943]]}}, {"type": "Feature", "properties": {"codigo": "PE-5N", "nombre": "Carretera Presidente Fernando Belaúnde Terry", "categoria": "trunk", "tipo": "asphalt", "fuente": "OpenStreetMap (Overpass API)"}, "geometry": {"type": "LineString", "coordinates": [[-76.110544, -8.9372821], [-76.1107691, -8.9368572]]}}, {"type": "Feature", "properties": {"codigo": "PE-5N", "nombre": "Carretera Presidente Fernando Belaúnde Terry", "categoria": "trunk", "tipo": "asphalt", "fuente": "OpenStreetMap (Overpass API)"}, "geometry": {"type": "LineString", "coordinates": [[-76.1107691, -8.9368572], [-76.1106096, -8.934731], [-76.0974273, -8.9238535]]}}, {"type": "Feature", "properties": {"codigo": "PE-5N", "nombre": "Carretera Presidente Fernando Belaúnde Terry", "categoria": "trunk", "tipo": "asphalt", "fuente": "OpenStreetMap (Overpass API)"}, "geometry": {"type": "LineString", "coordinates": [[-76.0936165, -8.9153982], [-76.0944302, -8.9120475], [-76.0933665, -8.9019166], [-76.0998387, -8.8884741], [-76.1013559, -8.8715438], [-76.1032037, -8.8631476], [-76.1067046, -8.8594119], [-76.1122406, -8.84238], [-76.1127363, -8.8344715], [-76.125198, -8.7969401], [-76.1292161, -8.7933467], [-76.1315614, -8.7887346], [-76.1313823, -8.7869412], [-76.1233157, -8.7727572], [-76.1252654, -8.756592], [-76.1179939, -8.7452193], [-76.1180369, -8.7438874]]}}, {"type": "Feature", "properties": {"codigo": "PE-5N", "nombre": "Carretera Presidente Fernando Belaúnde Terry", "categoria": "trunk", "tipo": "asphalt", "fuente": "OpenStreetMap (Overpass API)"}, "geometry": {"type": "LineString", "coordinates": [[-76.0934844, -8.9157853], [-76.0936165, -8.9153982]]}}, {"type": "Feature", "properties": {"codigo": "SIN-REF", "nombre": "Avenida Lima", "categoria": "tertiary", "tipo": "tertiary", "fuente": "OpenStreetMap (Overpass API)"}, "geometry": {"type": "LineString", "coordinates": [[-76.1111234, -8.9357735], [-76.1115129, -8.9357484]]}}, {"type": "Feature", "properties": {"codigo": "PE-14A", "nombre": "Jirón Garcilaso de la Vega", "categoria": "primary", "tipo": "primary", "fuente": "OpenStreetMap (Overpass API)"}, "geometry": {"type": "LineString", "coordinates": [[-76.0050488, -9.3038991], [-76.00422, -9.3033684]]}}, {"type": "Feature", "properties": {"codigo": "PE-5N", "nombre": "Carretera Federico Basadre", "categoria": "trunk", "tipo": "trunk", "fuente": "OpenStreetMap (Overpass API)"}, "geometry": {"type": "LineString", "coordinates": [[-75.9583534, -9.1905031], [-75.9596972, -9.1873404]]}}, {"type": "Feature", "properties": {"codigo": "PE-18A", "nombre": "Carretera Interoceánica Centro", "categoria": "trunk", "tipo": "paved", "fuente": "OpenStreetMap (Overpass API)"}, "geometry": {"type": "LineString", "coordinates": [[-75.9604177, -9.186541], [-75.9612888, -9.1866556]]}}, {"type": "Feature", "properties": {"codigo": "PE-5N", "nombre": "Carretera Federico Basadre", "categoria": "trunk", "tipo": "trunk", "fuente": "OpenStreetMap (Overpass API)"}, "geometry": {"type": "LineString", "coordinates": [[-75.9602061, -9.1869973], [-75.9596972, -9.1873404]]}}, {"type": "Feature", "properties": {"codigo": "SIN-REF", "nombre": "Vía sin nombre", "categoria": "trunk", "tipo": "trunk", "fuente": "OpenStreetMap (Overpass API)"}, "geometry": {"type": "LineString", "coordinates": [[-75.9603182, -9.1864677], [-75.9603182, -9.1864677]]}}, {"type": "Feature", "properties": {"codigo": "PE-5N", "nombre": "Carretera Federico Basadre", "categoria": "trunk", "tipo": "trunk", "fuente": "OpenStreetMap (Overpass API)"}, "geometry": {"type": "LineString", "coordinates": [[-75.7968064, -9.199564], [-75.7980162, -9.2012732]]}}, {"type": "Feature", "properties": {"codigo": "HU-562", "nombre": "HU-562", "categoria": "tertiary", "tipo": "tertiary", "fuente": "OpenStreetMap (Overpass API)"}, "geometry": {"type": "LineString", "coordinates": [[-76.0453376, -9.2452604], [-76.0446147, -9.2471762], [-76.0428235, -9.2467198], [-76.036551, -9.2488541], [-76.034623, -9.2478577], [-76.0336786, -9.2456462], [-76.0309494, -9.2454404], [-76.0298591, -9.2438436]]}}, {"type": "Feature", "properties": {"codigo": "SIN-REF", "nombre": "Avenida Alameda Perú", "categoria": "tertiary", "tipo": "tertiary", "fuente": "OpenStreetMap (Overpass API)"}, "geometry": {"type": "LineString", "coordinates": [[-76.0026779, -9.3020214], [-76.0038103, -9.304018]]}}, {"type": "Feature", "properties": {"codigo": "PE-18A", "nombre": "Avenida Raymondi", "categoria": "trunk", "tipo": "trunk", "fuente": "OpenStreetMap (Overpass API)"}, "geometry": {"type": "LineString", "coordinates": [[-75.9986396, -9.2918017], [-75.997598, -9.2908449]]}}, {"type": "Feature", "properties": {"codigo": "PE-18A", "nombre": "Avenida Pimentel", "categoria": "trunk", "tipo": "trunk", "fuente": "OpenStreetMap (Overpass API)"}, "geometry": {"type": "LineString", "coordinates": [[-76.0045479, -9.3015508], [-76.0038103, -9.304018]]}}, {"type": "Feature", "properties": {"codigo": "PE-14A", "nombre": "Avenida Sven Erickson", "categoria": "primary", "tipo": "primary", "fuente": "OpenStreetMap (Overpass API)"}, "geometry": {"type": "LineString", "coordinates": [[-76.0045417, -9.3027323], [-76.0055469, -9.3031691]]}}, {"type": "Feature", "properties": {"codigo": "PE-5N", "nombre": "Carretera Presidente Fernando Belaúnde Terry", "categoria": "trunk", "tipo": "asphalt", "fuente": "OpenStreetMap (Overpass API)"}, "geometry": {"type": "LineString", "coordinates": [[-76.0714308, -9.0039167], [-76.0740835, -9.0013388], [-76.0827856, -8.9860495]]}}, {"type": "Feature", "properties": {"codigo": "PE-5N", "nombre": "Carretera Presidente Fernando Belaúnde Terry", "categoria": "trunk", "tipo": "asphalt", "fuente": "OpenStreetMap (Overpass API)"}, "geometry": {"type": "LineString", "coordinates": [[-76.0643231, -9.0244312], [-76.0664051, -9.0232054], [-76.0724793, -9.0081666], [-76.0715018, -9.0041109]]}}, {"type": "Feature", "properties": {"codigo": "PE-5N", "nombre": "Carretera Presidente Fernando Belaúnde Terry", "categoria": "trunk", "tipo": "asphalt", "fuente": "OpenStreetMap (Overpass API)"}, "geometry": {"type": "LineString", "coordinates": [[-76.0642182, -9.0246931], [-76.0643231, -9.0244312]]}}, {"type": "Feature", "properties": {"codigo": "PE-5N", "nombre": "Carretera Presidente Fernando Belaúnde Terry", "categoria": "trunk", "tipo": "asphalt", "fuente": "OpenStreetMap (Overpass API)"}, "geometry": {"type": "LineString", "coordinates": [[-76.087791, -8.97718], [-76.110544, -8.9372821]]}}, {"type": "Feature", "properties": {"codigo": "PE-5N", "nombre": "Carretera Presidente Fernando Belaúnde Terry", "categoria": "trunk", "tipo": "asphalt", "fuente": "OpenStreetMap (Overpass API)"}, "geometry": {"type": "LineString", "coordinates": [[-76.0715018, -9.0041109], [-76.0714308, -9.0039167]]}}, {"type": "Feature", "properties": {"codigo": "PE-5N", "nombre": "Carretera Presidente Fernando Belaúnde Terry", "categoria": "trunk", "tipo": "asphalt", "fuente": "OpenStreetMap (Overpass API)"}, "geometry": {"type": "LineString", "coordinates": [[-76.0827856, -8.9860495], [-76.0829096, -8.9858307]]}}, {"type": "Feature", "properties": {"codigo": "PE-5N", "nombre": "Carretera Presidente Fernando Belaúnde Terry", "categoria": "trunk", "tipo": "asphalt", "fuente": "OpenStreetMap (Overpass API)"}, "geometry": {"type": "LineString", "coordinates": [[-76.0829096, -8.9858307], [-76.087791, -8.97718]]}}, {"type": "Feature", "properties": {"codigo": "PE-5N", "nombre": "Carretera Presidente Fernando Belaúnde Terry", "categoria": "trunk", "tipo": "asphalt", "fuente": "OpenStreetMap (Overpass API)"}, "geometry": {"type": "LineString", "coordinates": [[-75.9743783, -9.1515605], [-75.9818342, -9.1502156], [-75.986968, -9.1506935], [-75.9893833, -9.1494132], [-76.0064837, -9.1484705], [-76.0098445, -9.1463017], [-76.0157266, -9.1449299], [-76.0221975, -9.1405182], [-76.0293375, -9.133856], [-76.0363692, -9.1306277], [-76.0437449, -9.1217015], [-76.0571988, -9.0965011]]}}, {"type": "Feature", "properties": {"codigo": "HU-556", "nombre": "HU-556", "categoria": "secondary", "tipo": "secondary", "fuente": "OpenStreetMap (Overpass API)"}, "geometry": {"type": "LineString", "coordinates": [[-76.0077475, -9.2690606], [-76.0078648, -9.2669843], [-76.0113081, -9.2642751], [-76.0154115, -9.256918], [-76.0176939, -9.255699], [-76.018318, -9.2535367], [-76.0227388, -9.2491335], [-76.023404, -9.2468038], [-76.02261, -9.2448024], [-76.0254317, -9.2430446], [-76.0262364, -9.2444], [-76.0299346, -9.24374], [-76.0271483, -9.2434046], [-76.0288864, -9.2408737], [-76.029734, -9.2320525], [-76.0311502, -9.2307393], [-76.0326535, -9.2265709], [-76.0352915, -9.2258256], [-76.0376948, -9.2231251], [-76.0394459, -9.2240527], [-76.0407677, -9.220478], [-76.042076, -9.2211121], [-76.0461085, -9.2160359], [-76.0496919, -9.2155805], [-76.0506468, -9.2146591], [-76.050443, -9.2133777], [-76.0518806, -9.2111325], [-76.0511908, -9.2099194], [-76.0533043, -9.2077801], [-76.0530147, -9.2063927], [-76.0547742, -9.2028448], [-76.0559469, -9.2023952]]}}, {"type": "Feature", "properties": {"codigo": "HU-559", "nombre": "HU-559", "categoria": "tertiary", "tipo": "tertiary", "fuente": "OpenStreetMap (Overpass API)"}, "geometry": {"type": "LineString", "coordinates": [[-76.0636034, -9.1543943], [-76.0619014, -9.148463], [-76.0573094, -9.148516], [-76.0535007, -9.150465], [-76.0504108, -9.1501154], [-76.048108, -9.1519763]]}}, {"type": "Feature", "properties": {"codigo": "HU-556", "nombre": "HU-556", "categoria": "secondary", "tipo": "unpaved", "fuente": "OpenStreetMap (Overpass API)"}, "geometry": {"type": "LineString", "coordinates": [[-76.0954579, -9.0882557], [-76.0939249, -9.0961208], [-76.090579, -9.1016205], [-76.0881328, -9.1015782], [-76.0864672, -9.0999409], [-76.0856223, -9.1014404], [-76.084485, -9.1006671], [-76.0822105, -9.1028176], [-76.0800004, -9.1033367], [-76.0788417, -9.1052012], [-76.0761278, -9.1050847], [-76.0747867, -9.1064195], [-76.0746976, -9.1157359], [-76.0756235, -9.1202227], [-76.0743436, -9.1326107], [-76.0761782, -9.1341466], [-76.0771224, -9.1367842], [-76.0773187, -9.1375845], [-76.076146, -9.1370173], [-76.0756311, -9.1397608], [-76.0760979, -9.1408227], [-76.0771653, -9.1407459], [-76.0764604, -9.1424253], [-76.0749584, -9.1428384], [-76.0754934, -9.1435466], [-76.0730883, -9.1431928], [-76.071345, -9.147519], [-76.0722654, -9.1499494], [-76.0716324, -9.1524569], [-76.072834, -9.1553379], [-76.0703664, -9.1556345], [-76.0663431, -9.1533249], [-76.0636034, -9.1543943]]}}, {"type": "Feature", "properties": {"codigo": "HU-560", "nombre": "HU-560", "categoria": "tertiary", "tipo": "unpaved", "fuente": "OpenStreetMap (Overpass API)"}, "geometry": {"type": "LineString", "coordinates": [[-76.031056, -9.1585892], [-76.0308116, -9.1624411], [-76.0285331, -9.1642702], [-76.026257, -9.1691435], [-76.026096, -9.1728082], [-76.0288426, -9.1807307], [-76.0292123, -9.1845278], [-76.0336845, -9.1869748], [-76.0360095, -9.187096], [-76.037622, -9.1885952], [-76.0405939, -9.1884893], [-76.0431152, -9.1907346], [-76.0457867, -9.1955324], [-76.0497369, -9.1986952], [-76.0503571, -9.2014633], [-76.0547488, -9.2029087]]}}, {"type": "Feature", "properties": {"codigo": "HU-561", "nombre": "HU-561", "categoria": "tertiary", "tipo": "unpaved", "fuente": "OpenStreetMap (Overpass API)"}, "geometry": {"type": "LineString", "coordinates": [[-76.0227518, -9.1565767], [-76.0239288, -9.1557235], [-76.0280304, -9.1597119], [-76.0310623, -9.1583768]]}}, {"type": "Feature", "properties": {"codigo": "HU-556", "nombre": "HU-556", "categoria": "secondary", "tipo": "unpaved", "fuente": "OpenStreetMap (Overpass API)"}, "geometry": {"type": "LineString", "coordinates": [[-76.0559469, -9.2023952], [-76.0570412, -9.2014956], [-76.0602169, -9.2014532], [-76.0618981, -9.1994452], [-76.0639506, -9.2015167], [-76.0673409, -9.2015803], [-76.0705837, -9.2031575], [-76.0729362, -9.2004737], [-76.0738533, -9.1977353], [-76.0714715, -9.1937001], [-76.07145, -9.1907346], [-76.0697978, -9.1898979], [-76.0651629, -9.1812555], [-76.0672518, -9.1787395], [-76.0685854, -9.1716807], [-76.0713857, -9.168069], [-76.0701089, -9.1642559], [-76.0655599, -9.1605063], [-76.0636034, -9.1543943]]}}, {"type": "Feature", "properties": {"codigo": "HU-558", "nombre": "HU-558", "categoria": "tertiary", "tipo": "ground", "fuente": "OpenStreetMap (Overpass API)"}, "geometry": {"type": "LineString", "coordinates": [[-76.1023593, -9.1507616], [-76.1003422, -9.142849], [-76.1036145, -9.135074], [-76.1045372, -9.1293115], [-76.1041295, -9.1257841], [-76.1067152, -9.1176697], [-76.1064577, -9.1118328], [-76.1130023, -9.1052224], [-76.1140403, -9.1001316]]}}, {"type": "Feature", "properties": {"codigo": "HU-551", "nombre": "HU-551", "categoria": "secondary", "tipo": "unpaved", "fuente": "OpenStreetMap (Overpass API)"}, "geometry": {"type": "LineString", "coordinates": [[-76.1237486, -9.0639485], [-76.1225834, -9.0660512], [-76.1124623, -9.0707805], [-76.109206, -9.0766596], [-76.1059842, -9.077985], [-76.1008529, -9.0783425], [-76.0966974, -9.0846928]]}}, {"type": "Feature", "properties": {"codigo": "HU-557", "nombre": "HU-557", "categoria": "tertiary", "tipo": "ground", "fuente": "OpenStreetMap (Overpass API)"}, "geometry": {"type": "LineString", "coordinates": [[-76.1477716, -9.102435], [-76.1458116, -9.1039455]]}}, {"type": "Feature", "properties": {"codigo": "PE-5N", "nombre": "Carretera Federico Basadre", "categoria": "trunk", "tipo": "paved", "fuente": "OpenStreetMap (Overpass API)"}, "geometry": {"type": "LineString", "coordinates": [[-75.7980162, -9.2012732], [-75.7989638, -9.2035141], [-75.8039885, -9.2066379], [-75.810705, -9.2045601], [-75.8137591, -9.2021662], [-75.816059, -9.2027766], [-75.8201812, -9.201268], [-75.8221038, -9.2023055], [-75.8226291, -9.2003702], [-75.8255533, -9.1989685], [-75.8265395, -9.2002639], [-75.8252262, -9.2023582], [-75.8259581, -9.2076174], [-75.8294802, -9.2088761], [-75.8249811, -9.2120288], [-75.8247845, -9.2141828], [-75.8299894, -9.2156932], [-75.828327, -9.2176667]]}}, {"type": "Feature", "properties": {"codigo": "HU-556", "nombre": "Avenida José Abelardo Quiñones", "categoria": "secondary", "tipo": "paved", "fuente": "OpenStreetMap (Overpass API)"}, "geometry": {"type": "LineString", "coordinates": [[-76.0069427, -9.3006445], [-76.0068722, -9.3014313]]}}, {"type": "Feature", "properties": {"codigo": "PE-18A", "nombre": "Carretera Central", "categoria": "trunk", "tipo": "asphalt", "fuente": "OpenStreetMap (Overpass API)"}, "geometry": {"type": "LineString", "coordinates": [[-75.9756951, -9.3707248], [-75.9800363, -9.361707], [-75.9787542, -9.3574323], [-75.9788837, -9.3507167], [-75.9846253, -9.3428285], [-75.9933755, -9.3251566], [-75.993713, -9.3194237], [-75.9995106, -9.3106403]]}}, {"type": "Feature", "properties": {"codigo": "PE-18A", "nombre": "Carretera Central", "categoria": "trunk", "tipo": "asphalt", "fuente": "OpenStreetMap (Overpass API)"}, "geometry": {"type": "LineString", "coordinates": [[-75.9517197, -9.4959068], [-75.951832, -9.4954176]]}}, {"type": "Feature", "properties": {"codigo": "SIN-REF", "nombre": "Avenida Alameda Perú", "categoria": "tertiary", "tipo": "concrete", "fuente": "OpenStreetMap (Overpass API)"}, "geometry": {"type": "LineString", "coordinates": [[-76.0018343, -9.3012512], [-75.9984467, -9.2956814]]}}, {"type": "Feature", "properties": {"codigo": "PE-18A", "nombre": "Avenida Raymondi", "categoria": "trunk", "tipo": "concrete", "fuente": "OpenStreetMap (Overpass API)"}, "geometry": {"type": "LineString", "coordinates": [[-76.0037263, -9.3001143], [-76.0045479, -9.3015508]]}}, {"type": "Feature", "properties": {"codigo": "PE-14A", "nombre": "PE-14A", "categoria": "primary", "tipo": "primary", "fuente": "OpenStreetMap (Overpass API)"}, "geometry": {"type": "LineString", "coordinates": [[-76.0068126, -9.3015038], [-76.0062296, -9.3022279]]}}, {"type": "Feature", "properties": {"codigo": "PE-18A", "nombre": "Carretera Central", "categoria": "trunk", "tipo": "asphalt", "fuente": "OpenStreetMap (Overpass API)"}, "geometry": {"type": "LineString", "coordinates": [[-75.9995106, -9.3106403], [-76.0002333, -9.3095204]]}}, {"type": "Feature", "properties": {"codigo": "SIN-REF", "nombre": "Jirón San Alejandro", "categoria": "tertiary", "tipo": "tertiary", "fuente": "OpenStreetMap (Overpass API)"}, "geometry": {"type": "LineString", "coordinates": [[-75.9985791, -9.2956028], [-76.0003105, -9.2946072]]}}, {"type": "Feature", "properties": {"codigo": "SIN-REF", "nombre": "Avenida Amazonas", "categoria": "tertiary", "tipo": "tertiary", "fuente": "OpenStreetMap (Overpass API)"}, "geometry": {"type": "LineString", "coordinates": [[-76.0002636, -9.3022037], [-75.9951707, -9.2938778]]}}, {"type": "Feature", "properties": {"codigo": "SIN-REF", "nombre": "Avenida Lima", "categoria": "tertiary", "tipo": "tertiary", "fuente": "OpenStreetMap (Overpass API)"}, "geometry": {"type": "LineString", "coordinates": [[-76.1123807, -8.9349141], [-76.1164598, -8.9263803]]}}, {"type": "Feature", "properties": {"codigo": "SIN-REF", "nombre": "Avenida Lima", "categoria": "tertiary", "tipo": "tertiary", "fuente": "OpenStreetMap (Overpass API)"}, "geometry": {"type": "LineString", "coordinates": [[-76.1115867, -8.9356792], [-76.1123807, -8.9349141]]}}, {"type": "Feature", "properties": {"codigo": "PE-5N", "nombre": "Carretera Presidente Fernando Belaúnde Terry", "categoria": "trunk", "tipo": "asphalt", "fuente": "OpenStreetMap (Overpass API)"}, "geometry": {"type": "LineString", "coordinates": [[-76.1184128, -8.7435225], [-76.1347583, -8.7456801], [-76.1451566, -8.7444243], [-76.1636857, -8.747447]]}}, {"type": "Feature", "properties": {"codigo": "PE-5N", "nombre": "Carretera Presidente Fernando Belaúnde Terry", "categoria": "trunk", "tipo": "asphalt", "fuente": "OpenStreetMap (Overpass API)"}, "geometry": {"type": "LineString", "coordinates": [[-76.1180369, -8.7438874], [-76.1184128, -8.7435225]]}}, {"type": "Feature", "properties": {"codigo": "SIN-REF", "nombre": "Vía sin nombre", "categoria": "tertiary", "tipo": "tertiary", "fuente": "OpenStreetMap (Overpass API)"}, "geometry": {"type": "LineString", "coordinates": [[-76.1019506, -8.8685998], [-76.1134905, -8.8689539], [-76.1195684, -8.8649945], [-76.1222264, -8.8617083], [-76.1267951, -8.8590844]]}}, {"type": "Feature", "properties": {"codigo": "HU-544", "nombre": "HU-544", "categoria": "secondary", "tipo": "asphalt", "fuente": "OpenStreetMap (Overpass API)"}, "geometry": {"type": "LineString", "coordinates": [[-76.1259993, -8.915391], [-76.1219081, -8.9137128]]}}, {"type": "Feature", "properties": {"codigo": "SIN-REF", "nombre": "Vía sin nombre", "categoria": "tertiary", "tipo": "ground", "fuente": "OpenStreetMap (Overpass API)"}, "geometry": {"type": "LineString", "coordinates": [[-76.09626, -9.0086955], [-76.0914803, -9.0090981]]}}, {"type": "Feature", "properties": {"codigo": "SIN-REF", "nombre": "Vía sin nombre", "categoria": "tertiary", "tipo": "ground", "fuente": "OpenStreetMap (Overpass API)"}, "geometry": {"type": "LineString", "coordinates": [[-76.0916036, -8.9988618], [-76.0973436, -9.0034025], [-76.096217, -9.0060834], [-76.0966247, -9.0100147], [-76.1009216, -9.010428]]}}, {"type": "Feature", "properties": {"codigo": "SIN-REF", "nombre": "Vía sin nombre", "categoria": "tertiary", "tipo": "tertiary", "fuente": "OpenStreetMap (Overpass API)"}, "geometry": {"type": "LineString", "coordinates": [[-76.0914373, -8.998724], [-76.0916036, -8.9988618]]}}, {"type": "Feature", "properties": {"codigo": "SIN-REF", "nombre": "Vía sin nombre", "categoria": "tertiary", "tipo": "ground", "fuente": "OpenStreetMap (Overpass API)"}, "geometry": {"type": "LineString", "coordinates": [[-76.0792064, -8.9923547], [-76.0794586, -8.993219], [-76.0914373, -8.998724]]}}, {"type": "Feature", "properties": {"codigo": "PE-5N", "nombre": "Carretera Federico Basadre", "categoria": "trunk", "tipo": "paved", "fuente": "OpenStreetMap (Overpass API)"}, "geometry": {"type": "LineString", "coordinates": [[-75.9542586, -9.1862504], [-75.9562983, -9.1876256], [-75.957825, -9.1904537]]}}, {"type": "Feature", "properties": {"codigo": "PE-5N", "nombre": "Carretera Federico Basadre", "categoria": "trunk", "tipo": "paved", "fuente": "OpenStreetMap (Overpass API)"}, "geometry": {"type": "LineString", "coordinates": [[-75.9536621, -9.1867356], [-75.9533625, -9.1850644], [-75.9542586, -9.1862504]]}}, {"type": "Feature", "properties": {"codigo": "PE-5N", "nombre": "Carretera Federico Basadre", "categoria": "trunk", "tipo": "paved", "fuente": "OpenStreetMap (Overpass API)"}, "geometry": {"type": "LineString", "coordinates": [[-75.9054287, -9.1926671], [-75.9120955, -9.1954717], [-75.9180718, -9.1908132], [-75.9224728, -9.1885814], [-75.9244199, -9.1888009], [-75.9279232, -9.1859457], [-75.9344733, -9.1877371], [-75.9452756, -9.1870203], [-75.9490206, -9.1880721], [-75.9536621, -9.1867356]]}}, {"type": "Feature", "properties": {"codigo": "PE-5N", "nombre": "Carretera Federico Basadre", "categoria": "trunk", "tipo": "paved", "fuente": "OpenStreetMap (Overpass API)"}, "geometry": {"type": "LineString", "coordinates": [[-75.8979214, -9.1927293], [-75.9009966, -9.1920904], [-75.9054287, -9.1926671]]}}, {"type": "Feature", "properties": {"codigo": "PE-5N", "nombre": "Carretera Federico Basadre", "categoria": "trunk", "tipo": "paved", "fuente": "OpenStreetMap (Overpass API)"}, "geometry": {"type": "LineString", "coordinates": [[-75.8416952, -9.2213858], [-75.8445211, -9.2189809], [-75.8461332, -9.2139655], [-75.8536313, -9.2041289], [-75.8608521, -9.2019541], [-75.8630658, -9.1981975], [-75.8706286, -9.1953985], [-75.8742412, -9.192321], [-75.8763715, -9.1932683], [-75.8767488, -9.1952547], [-75.8796769, -9.1917773], [-75.8800079, -9.1941999], [-75.8821857, -9.1943075], [-75.882702, -9.1958185], [-75.8843727, -9.1961922], [-75.8861167, -9.1981092], [-75.8903009, -9.1957828], [-75.8919504, -9.1961989], [-75.896083, -9.1950993], [-75.8979214, -9.1927293]]}}, {"type": "Feature", "properties": {"codigo": "PE-5N", "nombre": "Carretera Federico Basadre", "categoria": "trunk", "tipo": "paved", "fuente": "OpenStreetMap (Overpass API)"}, "geometry": {"type": "LineString", "coordinates": [[-75.828327, -9.2176667], [-75.8273821, -9.2182488], [-75.8308267, -9.2190882], [-75.8315241, -9.2205097], [-75.8328284, -9.219857], [-75.8354012, -9.2209134], [-75.8358288, -9.22285], [-75.8371195, -9.2233271], [-75.8379417, -9.2223809], [-75.8377481, -9.219361], [-75.8389691, -9.2193117], [-75.8416952, -9.2213858]]}}, {"type": "Feature", "properties": {"codigo": "PE-18A", "nombre": "PE-18A", "categoria": "trunk", "tipo": "trunk", "fuente": "OpenStreetMap (Overpass API)"}, "geometry": {"type": "LineString", "coordinates": [[-76.0031106, -9.3031609], [-76.0036612, -9.3023361]]}}, {"type": "Feature", "properties": {"codigo": "PE-18A", "nombre": "PE-18A", "categoria": "trunk", "tipo": "trunk", "fuente": "OpenStreetMap (Overpass API)"}, "geometry": {"type": "LineString", "coordinates": [[-76.0036612, -9.3023361], [-76.0034636, -9.3015401]]}}, {"type": "Feature", "properties": {"codigo": "PE-18A", "nombre": "Jirón Julio Burga", "categoria": "trunk", "tipo": "trunk", "fuente": "OpenStreetMap (Overpass API)"}, "geometry": {"type": "LineString", "coordinates": [[-75.9978208, -9.2922349], [-75.9986396, -9.2918017]]}}, {"type": "Feature", "properties": {"codigo": "SIN-REF", "nombre": "Jirón San Alejandro", "categoria": "tertiary", "tipo": "tertiary", "fuente": "OpenStreetMap (Overpass API)"}, "geometry": {"type": "LineString", "coordinates": [[-75.9967962, -9.296753], [-75.9985791, -9.2956028]]}}, {"type": "Feature", "properties": {"codigo": "PE-5N", "nombre": "Carretera Presidente Fernando Belaúnde Terry", "categoria": "trunk", "tipo": "asphalt", "fuente": "OpenStreetMap (Overpass API)"}, "geometry": {"type": "LineString", "coordinates": [[-75.9601493, -9.186092], [-75.9603182, -9.1864677]]}}, {"type": "Feature", "properties": {"codigo": "PE-5N", "nombre": "Carretera Federico Basadre", "categoria": "trunk", "tipo": "trunk", "fuente": "OpenStreetMap (Overpass API)"}, "geometry": {"type": "LineString", "coordinates": [[-75.9596972, -9.1873404], [-75.9599346, -9.1866462]]}}, {"type": "Feature", "properties": {"codigo": "PE-18A", "nombre": "Avenida Raymondi", "categoria": "trunk", "tipo": "trunk", "fuente": "OpenStreetMap (Overpass API)"}, "geometry": {"type": "LineString", "coordinates": [[-75.9986396, -9.2918017], [-76.0003105, -9.2946072]]}}, {"type": "Feature", "properties": {"codigo": "PE-18A", "nombre": "Avenida Alameda Perú", "categoria": "trunk", "tipo": "trunk", "fuente": "OpenStreetMap (Overpass API)"}, "geometry": {"type": "LineString", "coordinates": [[-76.0037257, -9.3041475], [-76.0031106, -9.3031609]]}}, {"type": "Feature", "properties": {"codigo": "PE-5N", "nombre": "Carretera Presidente Fernando Belaúnde Terry", "categoria": "trunk", "tipo": "asphalt", "fuente": "OpenStreetMap (Overpass API)"}, "geometry": {"type": "LineString", "coordinates": [[-75.962947, -9.1773069], [-75.9627299, -9.1767937]]}}, {"type": "Feature", "properties": {"codigo": "PE-5N", "nombre": "Carretera Presidente Fernando Belaúnde Terry", "categoria": "trunk", "tipo": "asphalt", "fuente": "OpenStreetMap (Overpass API)"}, "geometry": {"type": "LineString", "coordinates": [[-75.9601493, -9.186092], [-75.959977, -9.1819209], [-75.962947, -9.1773069]]}}, {"type": "Feature", "properties": {"codigo": "PE-5N", "nombre": "Carretera Presidente Fernando Belaúnde Terry", "categoria": "trunk", "tipo": "asphalt", "fuente": "OpenStreetMap (Overpass API)"}, "geometry": {"type": "LineString", "coordinates": [[-75.973547, -9.1519894], [-75.9743783, -9.1515605]]}}, {"type": "Feature", "properties": {"codigo": "PE-5N", "nombre": "Carretera Presidente Fernando Belaúnde Terry", "categoria": "trunk", "tipo": "asphalt", "fuente": "OpenStreetMap (Overpass API)"}, "geometry": {"type": "LineString", "coordinates": [[-75.9627299, -9.1767937], [-75.9659101, -9.1704672], [-75.9641076, -9.1652613], [-75.9646123, -9.15939], [-75.9693631, -9.1544323], [-75.973547, -9.1519894]]}}, {"type": "Feature", "properties": {"codigo": "SIN-REF", "nombre": "Vía sin nombre", "categoria": "tertiary", "tipo": "ground", "fuente": "OpenStreetMap (Overpass API)"}, "geometry": {"type": "LineString", "coordinates": [[-76.1146197, -9.1003368], [-76.1136393, -9.0999875]]}}, {"type": "Feature", "properties": {"codigo": "SIN-REF", "nombre": "Vía sin nombre", "categoria": "tertiary", "tipo": "concrete", "fuente": "OpenStreetMap (Overpass API)"}, "geometry": {"type": "LineString", "coordinates": [[-76.114984, -9.1004659], [-76.1146197, -9.1003368]]}}, {"type": "Feature", "properties": {"codigo": "HU-557", "nombre": "HU-557", "categoria": "tertiary", "tipo": "concrete", "fuente": "OpenStreetMap (Overpass API)"}, "geometry": {"type": "LineString", "coordinates": [[-76.1477716, -9.102435], [-76.1479367, -9.1023111]]}}, {"type": "Feature", "properties": {"codigo": "HU-557", "nombre": "HU-557", "categoria": "tertiary", "tipo": "ground", "fuente": "OpenStreetMap (Overpass API)"}, "geometry": {"type": "LineString", "coordinates": [[-76.1627859, -9.1010482], [-76.1629298, -9.1009389]]}}, {"type": "Feature", "properties": {"codigo": "SIN-REF", "nombre": "Vía sin nombre", "categoria": "tertiary", "tipo": "concrete", "fuente": "OpenStreetMap (Overpass API)"}, "geometry": {"type": "LineString", "coordinates": [[-76.1136393, -9.0999875], [-76.113481, -9.0999307]]}}, {"type": "Feature", "properties": {"codigo": "HU-557", "nombre": "Santa Martha", "categoria": "tertiary", "tipo": "concrete", "fuente": "OpenStreetMap (Overpass API)"}, "geometry": {"type": "LineString", "coordinates": [[-76.162643, -9.1011567], [-76.1627859, -9.1010482]]}}, {"type": "Feature", "properties": {"codigo": "SIN-REF", "nombre": "Santa Martha", "categoria": "tertiary", "tipo": "concrete", "fuente": "OpenStreetMap (Overpass API)"}, "geometry": {"type": "LineString", "coordinates": [[-76.1629298, -9.1009389], [-76.163181, -9.1007481]]}}, {"type": "Feature", "properties": {"codigo": "HU-557", "nombre": "HU-557", "categoria": "tertiary", "tipo": "ground", "fuente": "OpenStreetMap (Overpass API)"}, "geometry": {"type": "LineString", "coordinates": [[-76.163181, -9.1007481], [-76.1727483, -9.0943627]]}}, {"type": "Feature", "properties": {"codigo": "SIN-REF", "nombre": "Vía sin nombre", "categoria": "tertiary", "tipo": "ground", "fuente": "OpenStreetMap (Overpass API)"}, "geometry": {"type": "LineString", "coordinates": [[-76.113481, -9.0999307], [-76.1092901, -9.0982729], [-76.1040947, -9.0917518], [-76.0974911, -9.0895747]]}}, {"type": "Feature", "properties": {"codigo": "HU-557", "nombre": "HU-557", "categoria": "tertiary", "tipo": "concrete", "fuente": "OpenStreetMap (Overpass API)"}, "geometry": {"type": "LineString", "coordinates": [[-76.1727483, -9.0943627], [-76.1728724, -9.0943683]]}}, {"type": "Feature", "properties": {"codigo": "SIN-REF", "nombre": "Vía sin nombre", "categoria": "tertiary", "tipo": "concrete", "fuente": "OpenStreetMap (Overpass API)"}, "geometry": {"type": "LineString", "coordinates": [[-76.1403323, -9.1036862], [-76.1401412, -9.1036773]]}}, {"type": "Feature", "properties": {"codigo": "SIN-REF", "nombre": "Vía sin nombre", "categoria": "tertiary", "tipo": "ground", "fuente": "OpenStreetMap (Overpass API)"}, "geometry": {"type": "LineString", "coordinates": [[-76.1401412, -9.1036773], [-76.1301453, -9.1032145]]}}, {"type": "Feature", "properties": {"codigo": "SIN-REF", "nombre": "Vía sin nombre", "categoria": "tertiary", "tipo": "concrete", "fuente": "OpenStreetMap (Overpass API)"}, "geometry": {"type": "LineString", "coordinates": [[-76.1301453, -9.1032145], [-76.1299266, -9.1032043]]}}, {"type": "Feature", "properties": {"codigo": "SIN-REF", "nombre": "Vía sin nombre", "categoria": "tertiary", "tipo": "ground", "fuente": "OpenStreetMap (Overpass API)"}, "geometry": {"type": "LineString", "coordinates": [[-76.1299266, -9.1032043], [-76.1210269, -9.1026063], [-76.114984, -9.1004659]]}}, {"type": "Feature", "properties": {"codigo": "HU-557", "nombre": "HU-557", "categoria": "tertiary", "tipo": "ground", "fuente": "OpenStreetMap (Overpass API)"}, "geometry": {"type": "LineString", "coordinates": [[-76.1728724, -9.0943683], [-76.1763938, -9.0951648], [-76.182293, -9.0997384], [-76.1885854, -9.1095852]]}}, {"type": "Feature", "properties": {"codigo": "HU-557", "nombre": "HU-557", "categoria": "tertiary", "tipo": "ground", "fuente": "OpenStreetMap (Overpass API)"}, "geometry": {"type": "LineString", "coordinates": [[-76.1479367, -9.1023111], [-76.1531493, -9.10395], [-76.162643, -9.1011567]]}}, {"type": "Feature", "properties": {"codigo": "HU-551", "nombre": "HU-551", "categoria": "secondary", "tipo": "unpaved", "fuente": "OpenStreetMap (Overpass API)"}, "geometry": {"type": "LineString", "coordinates": [[-76.0966974, -9.0846928], [-76.0965533, -9.0849068]]}}, {"type": "Feature", "properties": {"codigo": "HU-555", "nombre": "Avenida Huallaga", "categoria": "tertiary", "tipo": "ground", "fuente": "OpenStreetMap (Overpass API)"}, "geometry": {"type": "LineString", "coordinates": [[-76.0944065, -9.0880968], [-76.092183, -9.0874455]]}}, {"type": "Feature", "properties": {"codigo": "HU-551", "nombre": "HU-551", "categoria": "secondary", "tipo": "unpaved", "fuente": "OpenStreetMap (Overpass API)"}, "geometry": {"type": "LineString", "coordinates": [[-76.0965533, -9.0849068], [-76.0944065, -9.0880968]]}}, {"type": "Feature", "properties": {"codigo": "HU-556", "nombre": "HU-556", "categoria": "tertiary", "tipo": "ground", "fuente": "OpenStreetMap (Overpass API)"}, "geometry": {"type": "LineString", "coordinates": [[-76.1458116, -9.1039455], [-76.1489906, -9.1063829]]}}, {"type": "Feature", "properties": {"codigo": "HU-555", "nombre": "HU-555", "categoria": "tertiary", "tipo": "ground", "fuente": "OpenStreetMap (Overpass API)"}, "geometry": {"type": "LineString", "coordinates": [[-76.0694144, -9.0954778], [-76.0610096, -9.0894044]]}}, {"type": "Feature", "properties": {"codigo": "HU-540", "nombre": "HU-540", "categoria": "tertiary", "tipo": "tertiary", "fuente": "OpenStreetMap (Overpass API)"}, "geometry": {"type": "LineString", "coordinates": [[-76.1219081, -8.9137128], [-76.1277196, -8.8931302], [-76.1264804, -8.890801], [-76.1266333, -8.8868763], [-76.1282828, -8.8846742], [-76.1315605, -8.8832113], [-76.130493, -8.8682463], [-76.1266708, -8.8639133], [-76.1267621, -8.8610697]]}}, {"type": "Feature", "properties": {"codigo": "HU-540", "nombre": "HU-540", "categoria": "secondary", "tipo": "secondary", "fuente": "OpenStreetMap (Overpass API)"}, "geometry": {"type": "LineString", "coordinates": [[-76.1192036, -8.9208783], [-76.1123052, -8.9166386], [-76.1052991, -8.9176625], [-76.1019474, -8.9168587], [-76.0993147, -8.9122787], [-76.0970417, -8.9107237], [-76.094326, -8.9110405]]}}, {"type": "Feature", "properties": {"codigo": "HU-505", "nombre": "HU-505", "categoria": "tertiary", "tipo": "wood", "fuente": "OpenStreetMap (Overpass API)"}, "geometry": {"type": "LineString", "coordinates": [[-76.1526072, -8.9062759], [-76.1525059, -8.9061991]]}}, {"type": "Feature", "properties": {"codigo": "HU-505", "nombre": "HU-505", "categoria": "tertiary", "tipo": "wood", "fuente": "OpenStreetMap (Overpass API)"}, "geometry": {"type": "LineString", "coordinates": [[-76.1536129, -8.9070279], [-76.1535437, -8.9069844]]}}, {"type": "Feature", "properties": {"codigo": "HU-505", "nombre": "HU-505", "categoria": "tertiary", "tipo": "ground", "fuente": "OpenStreetMap (Overpass API)"}, "geometry": {"type": "LineString", "coordinates": [[-76.1525059, -8.9061991], [-76.1435479, -8.9028754]]}}, {"type": "Feature", "properties": {"codigo": "HU-552", "nombre": "HU-552", "categoria": "secondary", "tipo": "unpaved", "fuente": "OpenStreetMap (Overpass API)"}, "geometry": {"type": "LineString", "coordinates": [[-76.1325319, -8.9309752], [-76.1321876, -8.9331724], [-76.1343696, -8.9407059], [-76.1361416, -8.9428886], [-76.1354981, -8.944985], [-76.1360507, -8.9490106], [-76.1319717, -8.9538194], [-76.1266708, -8.9637954], [-76.1256892, -8.9681987], [-76.1263865, -8.9714734], [-76.1317724, -8.9758767], [-76.1337411, -8.9817004], [-76.1365628, -8.9857698], [-76.140216, -8.9862254]]}}, {"type": "Feature", "properties": {"codigo": "HU-550", "nombre": "HU-550", "categoria": "tertiary", "tipo": "ground", "fuente": "OpenStreetMap (Overpass API)"}, "geometry": {"type": "LineString", "coordinates": [[-76.1662929, -8.9202516], [-76.1660016, -8.9178491], [-76.1616638, -8.9145634], [-76.1582616, -8.9133552], [-76.1563799, -8.909088], [-76.1543685, -8.9075264]]}}, {"type": "Feature", "properties": {"codigo": "HU-505", "nombre": "HU-505", "categoria": "tertiary", "tipo": "ground", "fuente": "OpenStreetMap (Overpass API)"}, "geometry": {"type": "LineString", "coordinates": [[-76.1535437, -8.9069844], [-76.1526072, -8.9062759]]}}, {"type": "Feature", "properties": {"codigo": "HU-505", "nombre": "HU-505", "categoria": "tertiary", "tipo": "unpaved", "fuente": "OpenStreetMap (Overpass API)"}, "geometry": {"type": "LineString", "coordinates": [[-76.1580913, -8.8920135], [-76.1588757, -8.8898932], [-76.1564573, -8.881806], [-76.1577845, -8.872128], [-76.1614894, -8.8724568], [-76.1633693, -8.8638569], [-76.1691029, -8.8650021]]}}, {"type": "Feature", "properties": {"codigo": "HU-505", "nombre": "HU-505", "categoria": "tertiary", "tipo": "ground", "fuente": "OpenStreetMap (Overpass API)"}, "geometry": {"type": "LineString", "coordinates": [[-76.1543685, -8.9075264], [-76.1573088, -8.9038928], [-76.1562399, -8.895029], [-76.1580032, -8.8921398]]}}, {"type": "Feature", "properties": {"codigo": "HU-505", "nombre": "HU-505", "categoria": "tertiary", "tipo": "wood", "fuente": "OpenStreetMap (Overpass API)"}, "geometry": {"type": "LineString", "coordinates": [[-76.1580032, -8.8921398], [-76.1580913, -8.8920135]]}}, {"type": "Feature", "properties": {"codigo": "HU-550", "nombre": "HU-550", "categoria": "tertiary", "tipo": "ground", "fuente": "OpenStreetMap (Overpass API)"}, "geometry": {"type": "LineString", "coordinates": [[-76.1696074, -8.922144], [-76.1689868, -8.9218546]]}}, {"type": "Feature", "properties": {"codigo": "HU-550", "nombre": "HU-550", "categoria": "tertiary", "tipo": "ground", "fuente": "OpenStreetMap (Overpass API)"}, "geometry": {"type": "LineString", "coordinates": [[-76.1663007, -8.9203558], [-76.166906, -8.9214619], [-76.1689139, -8.9218297]]}}, {"type": "Feature", "properties": {"codigo": "HU-550", "nombre": "HU-550", "categoria": "tertiary", "tipo": "wood", "fuente": "OpenStreetMap (Overpass API)"}, "geometry": {"type": "LineString", "coordinates": [[-76.1698142, -8.9222274], [-76.1697329, -8.9221927]]}}, {"type": "Feature", "properties": {"codigo": "HU-551", "nombre": "HU-551", "categoria": "tertiary", "tipo": "ground", "fuente": "OpenStreetMap (Overpass API)"}, "geometry": {"type": "LineString", "coordinates": [[-76.1696074, -8.922144], [-76.1684737, -8.9283615], [-76.1662641, -8.9312073], [-76.165488, -8.936717], [-76.1721844, -8.9521204], [-76.1754217, -8.9537977], [-76.1803235, -8.9527813], [-76.1801378, -8.9547951], [-76.1820402, -8.9579085], [-76.1811186, -8.9604413], [-76.183199, -8.9620397], [-76.1833764, -8.9665416], [-76.1848701, -8.9682435], [-76.180941, -8.9721415]]}}, {"type": "Feature", "properties": {"codigo": "HU-550", "nombre": "HU-550", "categoria": "tertiary", "tipo": "wood", "fuente": "OpenStreetMap (Overpass API)"}, "geometry": {"type": "LineString", "coordinates": [[-76.1662929, -8.9202516], [-76.1663007, -8.9203558]]}}, {"type": "Feature", "properties": {"codigo": "HU-550", "nombre": "HU-550", "categoria": "tertiary", "tipo": "wood", "fuente": "OpenStreetMap (Overpass API)"}, "geometry": {"type": "LineString", "coordinates": [[-76.1689139, -8.9218297], [-76.1689868, -8.9218546]]}}, {"type": "Feature", "properties": {"codigo": "HU-550", "nombre": "HU-550", "categoria": "tertiary", "tipo": "ground", "fuente": "OpenStreetMap (Overpass API)"}, "geometry": {"type": "LineString", "coordinates": [[-76.1917332, -8.9036664], [-76.1869535, -8.9115868], [-76.1825922, -8.9139452], [-76.1786091, -8.9190089], [-76.1733114, -8.9233206], [-76.1698142, -8.9222274]]}}, {"type": "Feature", "properties": {"codigo": "HU-551", "nombre": "HU-551", "categoria": "tertiary", "tipo": "unpaved", "fuente": "OpenStreetMap (Overpass API)"}, "geometry": {"type": "LineString", "coordinates": [[-76.1760391, -8.9807914], [-76.1736934, -8.9804164], [-76.1741723, -8.9787253], [-76.173173, -8.9780461], [-76.1744051, -8.9779047], [-76.1764785, -8.9736442], [-76.180941, -8.9721415]]}}, {"type": "Feature", "properties": {"codigo": "HU-544", "nombre": "HU-544", "categoria": "secondary", "tipo": "asphalt", "fuente": "OpenStreetMap (Overpass API)"}, "geometry": {"type": "LineString", "coordinates": [[-76.1285977, -8.9163559], [-76.1336857, -8.9178701]]}}, {"type": "Feature", "properties": {"codigo": "HU-544", "nombre": "HU-544", "categoria": "secondary", "tipo": "secondary", "fuente": "OpenStreetMap (Overpass API)"}, "geometry": {"type": "LineString", "coordinates": [[-76.1336857, -8.9178701], [-76.1337576, -8.9178915]]}}, {"type": "Feature", "properties": {"codigo": "HU-544", "nombre": "HU-544", "categoria": "secondary", "tipo": "unpaved", "fuente": "OpenStreetMap (Overpass API)"}, "geometry": {"type": "LineString", "coordinates": [[-76.1337576, -8.9178915], [-76.1356181, -8.9184451]]}}, {"type": "Feature", "properties": {"codigo": "HU-556", "nombre": "HU-556", "categoria": "tertiary", "tipo": "ground", "fuente": "OpenStreetMap (Overpass API)"}, "geometry": {"type": "LineString", "coordinates": [[-76.1458116, -9.1039455], [-76.1403323, -9.1036862]]}}, {"type": "Feature", "properties": {"codigo": "PE-5N", "nombre": "Carretera Presidente Fernando Belaúnde Terry", "categoria": "trunk", "tipo": "concrete", "fuente": "OpenStreetMap (Overpass API)"}, "geometry": {"type": "LineString", "coordinates": [[-76.0748559, -9.0628792], [-76.0750397, -9.0626713]]}}, {"type": "Feature", "properties": {"codigo": "PE-5N", "nombre": "Carretera Presidente Fernando Belaúnde Terry", "categoria": "trunk", "tipo": "asphalt", "fuente": "OpenStreetMap (Overpass API)"}, "geometry": {"type": "LineString", "coordinates": [[-76.064111, -9.0816886], [-76.0631789, -9.0735494], [-76.068664, -9.0698281], [-76.0748559, -9.0628792]]}}, {"type": "Feature", "properties": {"codigo": "PE-5N", "nombre": "Carretera Presidente Fernando Belaúnde Terry", "categoria": "trunk", "tipo": "asphalt", "fuente": "OpenStreetMap (Overpass API)"}, "geometry": {"type": "LineString", "coordinates": [[-76.0641378, -9.0818237], [-76.064111, -9.0816886]]}}, {"type": "Feature", "properties": {"codigo": "PE-5N", "nombre": "Carretera Presidente Fernando Belaúnde Terry", "categoria": "trunk", "tipo": "asphalt", "fuente": "OpenStreetMap (Overpass API)"}, "geometry": {"type": "LineString", "coordinates": [[-76.0571988, -9.0965011], [-76.0641378, -9.0818237]]}}, {"type": "Feature", "properties": {"codigo": "PE-5N", "nombre": "Carretera Presidente Fernando Belaúnde Terry", "categoria": "trunk", "tipo": "asphalt", "fuente": "OpenStreetMap (Overpass API)"}, "geometry": {"type": "LineString", "coordinates": [[-76.0750397, -9.0626713], [-76.0779485, -9.0438798], [-76.0700558, -9.0357076], [-76.0642182, -9.0246931]]}}, {"type": "Feature", "properties": {"codigo": "PE-18A", "nombre": "Carretera Interoceánica Centro", "categoria": "trunk", "tipo": "paved", "fuente": "OpenStreetMap (Overpass API)"}, "geometry": {"type": "LineString", "coordinates": [[-75.9882035, -9.2251648], [-75.9872532, -9.2127441], [-75.987965, -9.2078002], [-75.985145, -9.2013708], [-75.979127, -9.1989239], [-75.97882, -9.1955987], [-75.9775544, -9.1945384], [-75.9743856, -9.1956368], [-75.9686488, -9.1867705], [-75.9659866, -9.1849544], [-75.9612888, -9.1866556]]}}, {"type": "Feature", "properties": {"codigo": "PE-18A", "nombre": "Carretera Interoceánica Centro", "categoria": "trunk", "tipo": "paved", "fuente": "OpenStreetMap (Overpass API)"}, "geometry": {"type": "LineString", "coordinates": [[-75.9882402, -9.2253927], [-75.9882035, -9.2251648]]}}, {"type": "Feature", "properties": {"codigo": "SIN-REF", "nombre": "Avenida Huallaga", "categoria": "tertiary", "tipo": "ground", "fuente": "OpenStreetMap (Overpass API)"}, "geometry": {"type": "LineString", "coordinates": [[-76.0974911, -9.0895747], [-76.0954579, -9.0882557]]}}, {"type": "Feature", "properties": {"codigo": "HU-555", "nombre": "HU-555", "categoria": "tertiary", "tipo": "ground", "fuente": "OpenStreetMap (Overpass API)"}, "geometry": {"type": "LineString", "coordinates": [[-76.092183, -9.0874455], [-76.088447, -9.0862873], [-76.0856867, -9.0894584], [-76.0782945, -9.0925254], [-76.0769268, -9.0921652], [-76.0752249, -9.0941405], [-76.0714741, -9.0957637]]}}, {"type": "Feature", "properties": {"codigo": "SIN-REF", "nombre": "Vía sin nombre", "categoria": "tertiary", "tipo": "unpaved", "fuente": "OpenStreetMap (Overpass API)"}, "geometry": {"type": "LineString", "coordinates": [[-75.945391, -9.4953129], [-75.9467134, -9.496342], [-75.9519983, -9.4949311]]}}, {"type": "Feature", "properties": {"codigo": "PE-18A", "nombre": "Carretera Central", "categoria": "trunk", "tipo": "asphalt", "fuente": "OpenStreetMap (Overpass API)"}, "geometry": {"type": "LineString", "coordinates": [[-75.9732498, -9.4432317], [-75.9731582, -9.4431631]]}}, {"type": "Feature", "properties": {"codigo": "PE-18A", "nombre": "Carretera Central", "categoria": "trunk", "tipo": "asphalt", "fuente": "OpenStreetMap (Overpass API)"}, "geometry": {"type": "LineString", "coordinates": [[-75.951832, -9.4954176], [-75.954514, -9.4933209], [-75.9511854, -9.487694], [-75.9511311, -9.4835433], [-75.9536397, -9.4817666], [-75.9587338, -9.4821351], [-75.9628185, -9.480155], [-75.9641662, -9.4649333], [-75.9665924, -9.4613401], [-75.9739814, -9.4555713], [-75.9772812, -9.4511811], [-75.9770049, -9.4474518], [-75.9732498, -9.4432317]]}}, {"type": "Feature", "properties": {"codigo": "HU-638", "nombre": "HU-638", "categoria": "tertiary", "tipo": "unpaved", "fuente": "OpenStreetMap (Overpass API)"}, "geometry": {"type": "LineString", "coordinates": [[-75.9718638, -9.4100472], [-75.9686887, -9.4101132]]}}, {"type": "Feature", "properties": {"codigo": "HU-524", "nombre": "HU-524", "categoria": "tertiary", "tipo": "unpaved", "fuente": "OpenStreetMap (Overpass API)"}, "geometry": {"type": "LineString", "coordinates": [[-76.1287837, -8.7435107], [-76.130798, -8.7368039], [-76.1323375, -8.7346321], [-76.1332693, -8.7292029], [-76.1287616, -8.7175588], [-76.126125, -8.7189608], [-76.1247042, -8.7184393], [-76.1230807, -8.6961708], [-76.1214446, -8.6926963], [-76.1218608, -8.692002], [-76.1232255, -8.692545]]}}, {"type": "Feature", "properties": {"codigo": "HU-524", "nombre": "HU-524", "categoria": "tertiary", "tipo": "unpaved", "fuente": "OpenStreetMap (Overpass API)"}, "geometry": {"type": "LineString", "coordinates": [[-76.1287569, -8.7436068], [-76.1287837, -8.7435107]]}}, {"type": "Feature", "properties": {"codigo": "HU-524", "nombre": "HU-524", "categoria": "tertiary", "tipo": "unpaved", "fuente": "OpenStreetMap (Overpass API)"}, "geometry": {"type": "LineString", "coordinates": [[-76.1284626, -8.7446824], [-76.1287569, -8.7436068]]}}, {"type": "Feature", "properties": {"codigo": "HU-524", "nombre": "HU-524", "categoria": "tertiary", "tipo": "unpaved", "fuente": "OpenStreetMap (Overpass API)"}, "geometry": {"type": "LineString", "coordinates": [[-76.1232101, -8.6923704], [-76.1240871, -8.6883902], [-76.1221004, -8.68751], [-76.1215357, -8.674051], [-76.1222227, -8.6727657], [-76.1208062, -8.665637]]}}, {"type": "Feature", "properties": {"codigo": "HU-524", "nombre": "HU-524", "categoria": "tertiary", "tipo": "unpaved", "fuente": "OpenStreetMap (Overpass API)"}, "geometry": {"type": "LineString", "coordinates": [[-76.1232255, -8.692545], [-76.1232101, -8.6923704]]}}, {"type": "Feature", "properties": {"codigo": "HU-524", "nombre": "HU-524", "categoria": "tertiary", "tipo": "unpaved", "fuente": "OpenStreetMap (Overpass API)"}, "geometry": {"type": "LineString", "coordinates": [[-76.1088348, -8.6594309], [-76.1087242, -8.6593938]]}}, {"type": "Feature", "properties": {"codigo": "HU-524", "nombre": "HU-524", "categoria": "tertiary", "tipo": "unpaved", "fuente": "OpenStreetMap (Overpass API)"}, "geometry": {"type": "LineString", "coordinates": [[-76.1208062, -8.665637], [-76.1173599, -8.6647105], [-76.1146465, -8.6656681], [-76.1115626, -8.6611047], [-76.1088348, -8.6594309]]}}, {"type": "Feature", "properties": {"codigo": "HU-524", "nombre": "HU-524", "categoria": "tertiary", "tipo": "unpaved", "fuente": "OpenStreetMap (Overpass API)"}, "geometry": {"type": "LineString", "coordinates": [[-76.1078612, -8.6576987], [-76.1079383, -8.6576211]]}}, {"type": "Feature", "properties": {"codigo": "HU-524", "nombre": "HU-524", "categoria": "tertiary", "tipo": "unpaved", "fuente": "OpenStreetMap (Overpass API)"}, "geometry": {"type": "LineString", "coordinates": [[-76.1087242, -8.6593938], [-76.1078612, -8.6576987]]}}, {"type": "Feature", "properties": {"codigo": "HU-524", "nombre": "HU-524", "categoria": "tertiary", "tipo": "unpaved", "fuente": "OpenStreetMap (Overpass API)"}, "geometry": {"type": "LineString", "coordinates": [[-76.1079383, -8.6576211], [-76.1039378, -8.6537439], [-76.1044769, -8.6498511], [-76.1062244, -8.6465576], [-76.1071216, -8.6379752], [-76.1086477, -8.6368104], [-76.1106688, -8.6245623], [-76.1121413, -8.6208723], [-76.1142848, -8.6193922], [-76.1145111, -8.6123911], [-76.1126895, -8.610399], [-76.1143523, -8.6104226], [-76.1172335, -8.6083218], [-76.1185045, -8.6047588]]}}, {"type": "Feature", "properties": {"codigo": "HU-524", "nombre": "HU-524", "categoria": "tertiary", "tipo": "unpaved", "fuente": "OpenStreetMap (Overpass API)"}, "geometry": {"type": "LineString", "coordinates": [[-76.1185045, -8.6047588], [-76.1185551, -8.6046687]]}}, {"type": "Feature", "properties": {"codigo": "HU-524", "nombre": "HU-524", "categoria": "tertiary", "tipo": "unpaved", "fuente": "OpenStreetMap (Overpass API)"}, "geometry": {"type": "LineString", "coordinates": [[-76.1185551, -8.6046687], [-76.118668, -8.6019832], [-76.1173549, -8.6000216], [-76.1187201, -8.5951438]]}}, {"type": "Feature", "properties": {"codigo": "HU-619", "nombre": "HU-619", "categoria": "tertiary", "tipo": "unpaved", "fuente": "OpenStreetMap (Overpass API)"}, "geometry": {"type": "LineString", "coordinates": [[-75.9084785, -9.2765037], [-75.9048311, -9.2779914], [-75.9027954, -9.2773233], [-75.9019793, -9.2787174], [-75.8977947, -9.2785125], [-75.8954691, -9.2796134], [-75.8943828, -9.2816927], [-75.8928841, -9.2807338], [-75.8923789, -9.2819944], [-75.8904411, -9.2823532], [-75.8861813, -9.2805147], [-75.8848757, -9.2809488], [-75.8844218, -9.279888], [-75.8843493, -9.2815199], [-75.882449, -9.2835152], [-75.8793993, -9.2847084], [-75.8781885, -9.2842827]]}}, {"type": "Feature", "properties": {"codigo": "HU-621", "nombre": "HU-621", "categoria": "tertiary", "tipo": "unpaved", "fuente": "OpenStreetMap (Overpass API)"}, "geometry": {"type": "LineString", "coordinates": [[-75.862256, -9.3110232], [-75.8608532, -9.3142365], [-75.8615854, -9.3192125], [-75.8596945, -9.3221875], [-75.8599493, -9.3237968], [-75.8579779, -9.3247456], [-75.8576453, -9.3259824]]}}, {"type": "Feature", "properties": {"codigo": "HU-621", "nombre": "HU-621", "categoria": "tertiary", "tipo": "unpaved", "fuente": "OpenStreetMap (Overpass API)"}, "geometry": {"type": "LineString", "coordinates": [[-75.8575829, -9.326071], [-75.8557899, -9.3264786], [-75.8566006, -9.326204], [-75.8558448, -9.3272495], [-75.8567534, -9.3267506], [-75.8554968, -9.3281216], [-75.8550569, -9.331835]]}}, {"type": "Feature", "properties": {"codigo": "HU-621", "nombre": "HU-621", "categoria": "tertiary", "tipo": "paved", "fuente": "OpenStreetMap (Overpass API)"}, "geometry": {"type": "LineString", "coordinates": [[-75.8576453, -9.3259824], [-75.8575829, -9.326071]]}}, {"type": "Feature", "properties": {"codigo": "HU-545", "nombre": "HU-545", "categoria": "tertiary", "tipo": "unpaved", "fuente": "OpenStreetMap (Overpass API)"}, "geometry": {"type": "LineString", "coordinates": [[-76.1932486, -8.8363027], [-76.1926305, -8.8331921], [-76.1902476, -8.8307124], [-76.1867765, -8.8184016], [-76.1845395, -8.81758], [-76.1812491, -8.8143452], [-76.1785609, -8.8136652], [-76.1776863, -8.8107591], [-76.1762407, -8.8105296], [-76.1751598, -8.8080645], [-76.1739429, -8.8077843], [-76.1720655, -8.8035498], [-76.1682571, -8.8012834], [-76.1688164, -8.793547], [-76.1715939, -8.7906872], [-76.1698279, -8.7862543], [-76.1717136, -8.7827551], [-76.1719567, -8.7788818], [-76.1736847, -8.7761812], [-76.1735456, -8.7731778], [-76.1753422, -8.7712621], [-76.1799797, -8.769372]]}}, {"type": "Feature", "properties": {"codigo": "HU-524", "nombre": "HU-524", "categoria": "tertiary", "tipo": "unpaved", "fuente": "OpenStreetMap (Overpass API)"}, "geometry": {"type": "LineString", "coordinates": [[-76.1187201, -8.5951438], [-76.1201757, -8.5872952], [-76.125062, -8.584351], [-76.1266172, -8.5786502], [-76.129581, -8.578669], [-76.1305099, -8.5757483], [-76.1330663, -8.5750912], [-76.1339301, -8.5738339], [-76.1328828, -8.5648638]]}}, {"type": "Feature", "properties": {"codigo": "HU-524", "nombre": "HU-524", "categoria": "tertiary", "tipo": "unpaved", "fuente": "OpenStreetMap (Overpass API)"}, "geometry": {"type": "LineString", "coordinates": [[-76.1322016, -8.5637922], [-76.1328828, -8.5648638]]}}, {"type": "Feature", "properties": {"codigo": "HU-632", "nombre": "HU-632", "categoria": "tertiary", "tipo": "compacted", "fuente": "OpenStreetMap (Overpass API)"}, "geometry": {"type": "LineString", "coordinates": [[-75.9579881, -9.382578], [-75.9543054, -9.3817391], [-75.9563988, -9.3864495], [-75.955094, -9.3887624], [-75.9533814, -9.386824], [-75.950781, -9.3859851]]}}, {"type": "Feature", "properties": {"codigo": "HU-634", "nombre": "HU-634", "categoria": "tertiary", "tipo": "compacted", "fuente": "OpenStreetMap (Overpass API)"}, "geometry": {"type": "LineString", "coordinates": [[-75.9552374, -9.3794751], [-75.9577802, -9.3800758], [-75.9600735, -9.3760904], [-75.9600896, -9.371798], [-75.962989, -9.3690378]]}}, {"type": "Feature", "properties": {"codigo": "HU-632", "nombre": "HU-632", "categoria": "tertiary", "tipo": "compacted", "fuente": "OpenStreetMap (Overpass API)"}, "geometry": {"type": "LineString", "coordinates": [[-75.9721141, -9.3964729], [-75.9648706, -9.3905499], [-75.9624177, -9.3872566], [-75.9613247, -9.3873082], [-75.9579881, -9.382578]]}}, {"type": "Feature", "properties": {"codigo": "PE-18A", "nombre": "Carretera Central", "categoria": "trunk", "tipo": "asphalt", "fuente": "OpenStreetMap (Overpass API)"}, "geometry": {"type": "LineString", "coordinates": [[-75.9718665, -9.409993], [-75.9718848, -9.409542]]}}, {"type": "Feature", "properties": {"codigo": "PE-18A", "nombre": "Carretera Central", "categoria": "trunk", "tipo": "asphalt", "fuente": "OpenStreetMap (Overpass API)"}, "geometry": {"type": "LineString", "coordinates": [[-75.9731582, -9.4431631], [-75.9682193, -9.4420742], [-75.9666809, -9.440361], [-75.967737, -9.4345931], [-75.9657402, -9.4288377], [-75.9670635, -9.4232531], [-75.9711939, -9.4155868], [-75.9718665, -9.409993]]}}, {"type": "Feature", "properties": {"codigo": "HU-552", "nombre": "HU-552", "categoria": "secondary", "tipo": "unpaved", "fuente": "OpenStreetMap (Overpass API)"}, "geometry": {"type": "LineString", "coordinates": [[-76.1536351, -9.0075934], [-76.1543982, -9.0037482], [-76.1538081, -9.0020822], [-76.1484265, -8.9976401], [-76.1470735, -8.9947573], [-76.1472528, -8.9932905], [-76.1484504, -8.9936362], [-76.1486095, -8.9904346], [-76.1455643, -8.9897683], [-76.1446725, -8.9885536], [-76.1461209, -8.9882238], [-76.1441816, -8.9868541], [-76.141317, -8.9857759], [-76.140216, -8.9862254]]}}, {"type": "Feature", "properties": {"codigo": "HU-505", "nombre": "HU-505", "categoria": "tertiary", "tipo": "unpaved", "fuente": "OpenStreetMap (Overpass API)"}, "geometry": {"type": "LineString", "coordinates": [[-76.1932486, -8.8363027], [-76.198487, -8.8309542], [-76.2027651, -8.8288948]]}}, {"type": "Feature", "properties": {"codigo": "HU-545", "nombre": "HU-545", "categoria": "tertiary", "tipo": "unpaved", "fuente": "OpenStreetMap (Overpass API)"}, "geometry": {"type": "LineString", "coordinates": [[-76.1799797, -8.769372], [-76.1811036, -8.7661751], [-76.1780915, -8.7607567], [-76.1801514, -8.7602927]]}}, {"type": "Feature", "properties": {"codigo": "HU-528", "nombre": "HU-528", "categoria": "tertiary", "tipo": "tertiary", "fuente": "OpenStreetMap (Overpass API)"}, "geometry": {"type": "LineString", "coordinates": [[-76.0989033, -8.6982375], [-76.102881, -8.7003215], [-76.1041792, -8.7037391], [-76.107772, -8.7081654], [-76.1093478, -8.7124684], [-76.1242429, -8.7125659]]}}, {"type": "Feature", "properties": {"codigo": "HU-527", "nombre": "HU-527", "categoria": "tertiary", "tipo": "tertiary", "fuente": "OpenStreetMap (Overpass API)"}, "geometry": {"type": "LineString", "coordinates": [[-76.1230651, -8.6961025], [-76.1300396, -8.6955207], [-76.1325433, -8.6941269], [-76.1330218, -8.695329], [-76.1344652, -8.6945433], [-76.1352822, -8.6951719], [-76.1428126, -8.6896789]]}}, {"type": "Feature", "properties": {"codigo": "HU-526", "nombre": "HU-526", "categoria": "tertiary", "tipo": "tertiary", "fuente": "OpenStreetMap (Overpass API)"}, "geometry": {"type": "LineString", "coordinates": [[-76.1213353, -8.6686859], [-76.1232678, -8.6677629], [-76.1261136, -8.6685967], [-76.1340545, -8.6640559]]}}, {"type": "Feature", "properties": {"codigo": "HU-525", "nombre": "HU-525", "categoria": "tertiary", "tipo": "tertiary", "fuente": "OpenStreetMap (Overpass API)"}, "geometry": {"type": "LineString", "coordinates": [[-76.1208062, -8.665637], [-76.1200525, -8.6610196], [-76.1208012, -8.6592097]]}}, {"type": "Feature", "properties": {"codigo": "HU-632", "nombre": "HU-632", "categoria": "tertiary", "tipo": "unpaved", "fuente": "OpenStreetMap (Overpass API)"}, "geometry": {"type": "LineString", "coordinates": [[-75.950781, -9.3859851], [-75.949932, -9.3864998], [-75.949865, -9.3883959], [-75.9510304, -9.3896793], [-75.9484461, -9.3905195], [-75.948725, -9.3893221], [-75.9457304, -9.3872103], [-75.9462279, -9.3862815], [-75.9455346, -9.3857469], [-75.94648, -9.3848498], [-75.9434974, -9.3843589], [-75.9420651, -9.381137], [-75.9395304, -9.3842597], [-75.9393883, -9.3822035], [-75.9383476, -9.3820976], [-75.9381571, -9.3811238], [-75.9365129, -9.381489], [-75.9359416, -9.3806025], [-75.9352148, -9.3812323], [-75.9339568, -9.3794989], [-75.9320095, -9.3793693], [-75.9328115, -9.3783822], [-75.931178, -9.3789459], [-75.9323931, -9.3770908], [-75.9320417, -9.3760693], [-75.9334311, -9.3760428], [-75.9317091, -9.3729439], [-75.9303653, -9.3667777]]}}, {"type": "Feature", "properties": {"codigo": "HU-633", "nombre": "HU-633", "categoria": "tertiary", "tipo": "unpaved", "fuente": "OpenStreetMap (Overpass API)"}, "geometry": {"type": "LineString", "coordinates": [[-75.9522682, -9.3736134], [-75.9515843, -9.372793], [-75.9514931, -9.3735446], [-75.9496477, -9.3690907], [-75.9466329, -9.36831], [-75.9468341, -9.3664998], [-75.9456539, -9.3653089], [-75.9399381, -9.3637263], [-75.9401232, -9.3620935]]}}, {"type": "Feature", "properties": {"codigo": "HU-633", "nombre": "HU-633", "categoria": "tertiary", "tipo": "unpaved", "fuente": "OpenStreetMap (Overpass API)"}, "geometry": {"type": "LineString", "coordinates": [[-75.9561011, -9.3774454], [-75.9539151, -9.3767441], [-75.9537408, -9.3742962], [-75.9522682, -9.3736134]]}}, {"type": "Feature", "properties": {"codigo": "HU-633", "nombre": "HU-633", "categoria": "tertiary", "tipo": "unpaved", "fuente": "OpenStreetMap (Overpass API)"}, "geometry": {"type": "LineString", "coordinates": [[-75.9552374, -9.3794751], [-75.9541941, -9.3791973], [-75.9542504, -9.378316], [-75.9566698, -9.3781281], [-75.9561011, -9.3774454]]}}, {"type": "Feature", "properties": {"codigo": "HU-636", "nombre": "HU-636", "categoria": "tertiary", "tipo": "unpaved", "fuente": "OpenStreetMap (Overpass API)"}, "geometry": {"type": "LineString", "coordinates": [[-75.927144, -9.395718], [-75.9274524, -9.3945087], [-75.9313819, -9.3945352], [-75.9342773, -9.3908397], [-75.9368858, -9.3894848], [-75.9371178, -9.3877131], [-75.9377266, -9.3883959], [-75.9415582, -9.3870714], [-75.9431541, -9.3856543], [-75.9423575, -9.3849213], [-75.9440419, -9.3857429], [-75.9461609, -9.3851396]]}}, {"type": "Feature", "properties": {"codigo": "HU-636", "nombre": "HU-636", "categoria": "tertiary", "tipo": "unpaved", "fuente": "OpenStreetMap (Overpass API)"}, "geometry": {"type": "LineString", "coordinates": [[-75.9187058, -9.40245], [-75.9197116, -9.4020967], [-75.919202, -9.4010541], [-75.9220869, -9.4008257], [-75.927144, -9.395718]]}}, {"type": "Feature", "properties": {"codigo": "HU-637", "nombre": "HU-637", "categoria": "tertiary", "tipo": "unpaved", "fuente": "OpenStreetMap (Overpass API)"}, "geometry": {"type": "LineString", "coordinates": [[-75.9308964, -9.3819389], [-75.9333935, -9.3794566]]}}, {"type": "Feature", "properties": {"codigo": "HU-637", "nombre": "HU-637", "categoria": "tertiary", "tipo": "unpaved", "fuente": "OpenStreetMap (Overpass API)"}, "geometry": {"type": "LineString", "coordinates": [[-75.9308025, -9.3817999], [-75.9308964, -9.3819389]]}}, {"type": "Feature", "properties": {"codigo": "HU-637", "nombre": "HU-637", "categoria": "tertiary", "tipo": "unpaved", "fuente": "OpenStreetMap (Overpass API)"}, "geometry": {"type": "LineString", "coordinates": [[-75.9240702, -9.3863106], [-75.9274632, -9.3844529], [-75.9286474, -9.3821373], [-75.9308025, -9.3817999]]}}, {"type": "Feature", "properties": {"codigo": "HU-633", "nombre": "HU-633", "categoria": "tertiary", "tipo": "unpaved", "fuente": "OpenStreetMap (Overpass API)"}, "geometry": {"type": "LineString", "coordinates": [[-75.940091, -9.3620683], [-75.9401232, -9.3620935]]}}, {"type": "Feature", "properties": {"codigo": "HU-633", "nombre": "HU-633", "categoria": "tertiary", "tipo": "unpaved", "fuente": "OpenStreetMap (Overpass API)"}, "geometry": {"type": "LineString", "coordinates": [[-75.9399878, -9.3619876], [-75.940091, -9.3620683]]}}, {"type": "Feature", "properties": {"codigo": "HU-638", "nombre": "HU-638", "categoria": "tertiary", "tipo": "tertiary", "fuente": "OpenStreetMap (Overpass API)"}, "geometry": {"type": "LineString", "coordinates": [[-75.9270541, -9.4156078], [-75.927038, -9.4153816]]}}, {"type": "Feature", "properties": {"codigo": "HU-638", "nombre": "HU-638", "categoria": "tertiary", "tipo": "tertiary", "fuente": "OpenStreetMap (Overpass API)"}, "geometry": {"type": "LineString", "coordinates": [[-75.9304619, -9.4110909], [-75.9305249, -9.4110129]]}}, {"type": "Feature", "properties": {"codigo": "HU-638", "nombre": "HU-638", "categoria": "tertiary", "tipo": "tertiary", "fuente": "OpenStreetMap (Overpass API)"}, "geometry": {"type": "LineString", "coordinates": [[-75.927038, -9.4153816], [-75.9304619, -9.4110909]]}}, {"type": "Feature", "properties": {"codigo": "HU-638", "nombre": "HU-638", "categoria": "tertiary", "tipo": "tertiary", "fuente": "OpenStreetMap (Overpass API)"}, "geometry": {"type": "LineString", "coordinates": [[-75.9560314, -9.4090243], [-75.9585165, -9.408032], [-75.9656753, -9.4091593], [-75.9673141, -9.4108779], [-75.9686887, -9.4101132]]}}, {"type": "Feature", "properties": {"codigo": "HU-638", "nombre": "HU-638", "categoria": "tertiary", "tipo": "tertiary", "fuente": "OpenStreetMap (Overpass API)"}, "geometry": {"type": "LineString", "coordinates": [[-75.9557712, -9.4091725], [-75.9560314, -9.4090243]]}}, {"type": "Feature", "properties": {"codigo": "HU-638", "nombre": "HU-638", "categoria": "tertiary", "tipo": "tertiary", "fuente": "OpenStreetMap (Overpass API)"}, "geometry": {"type": "LineString", "coordinates": [[-75.9305249, -9.4110129], [-75.9335706, -9.4122102], [-75.9352711, -9.4113053], [-75.9403834, -9.4133891], [-75.9442578, -9.4126601], [-75.947624, -9.4138561], [-75.9501144, -9.4121997], [-75.9523286, -9.4120938], [-75.9557712, -9.4091725]]}}, {"type": "Feature", "properties": {"codigo": "HU-635", "nombre": "HU-635", "categoria": "tertiary", "tipo": "unpaved", "fuente": "OpenStreetMap (Overpass API)"}, "geometry": {"type": "LineString", "coordinates": [[-75.9417312, -9.3945683], [-75.9428993, -9.3940086], [-75.9432708, -9.3924962], [-75.9464586, -9.3928535], [-75.9482932, -9.3912366], [-75.9483013, -9.3900815]]}}, {"type": "Feature", "properties": {"codigo": "HU-649", "nombre": "HU-649", "categoria": "tertiary", "tipo": "tertiary", "fuente": "OpenStreetMap (Overpass API)"}, "geometry": {"type": "LineString", "coordinates": [[-76.0310271, -9.3245778], [-76.0350734, -9.3269702], [-76.0369214, -9.3302019], [-76.0374867, -9.3340661]]}}, {"type": "Feature", "properties": {"codigo": "SIN-REF", "nombre": "Avenida Lima", "categoria": "tertiary", "tipo": "tertiary", "fuente": "OpenStreetMap (Overpass API)"}, "geometry": {"type": "LineString", "coordinates": [[-76.1115129, -8.9357484], [-76.1110897, -8.9362235]]}}, {"type": "Feature", "properties": {"codigo": "SIN-REF", "nombre": "Avenida Lima", "categoria": "tertiary", "tipo": "tertiary", "fuente": "OpenStreetMap (Overpass API)"}, "geometry": {"type": "LineString", "coordinates": [[-76.1115129, -8.9357484], [-76.1115867, -8.9356792]]}}, {"type": "Feature", "properties": {"codigo": "HU-640", "nombre": "HU-640", "categoria": "tertiary", "tipo": "tertiary", "fuente": "OpenStreetMap (Overpass API)"}, "geometry": {"type": "LineString", "coordinates": [[-75.9295902, -9.4756248], [-75.9317775, -9.4754396]]}}, {"type": "Feature", "properties": {"codigo": "HU-640", "nombre": "HU-640", "categoria": "tertiary", "tipo": "tertiary", "fuente": "OpenStreetMap (Overpass API)"}, "geometry": {"type": "LineString", "coordinates": [[-75.9317775, -9.4754396], [-75.9314731, -9.4761671], [-75.9327739, -9.4755534], [-75.9333842, -9.4765587], [-75.9326331, -9.4776857], [-75.934162, -9.4767915], [-75.9345509, -9.4742425], [-75.9357552, -9.4737226], [-75.9352456, -9.4726815], [-75.9371258, -9.4734898], [-75.9404158, -9.4685352], [-75.9410714, -9.4689393], [-75.9425077, -9.4668267], [-75.9433512, -9.466955], [-75.9440674, -9.46498], [-75.9446521, -9.4664484]]}}, {"type": "Feature", "properties": {"codigo": "HU-640", "nombre": "HU-640", "categoria": "tertiary", "tipo": "tertiary", "fuente": "OpenStreetMap (Overpass API)"}, "geometry": {"type": "LineString", "coordinates": [[-75.9295902, -9.4756248], [-75.9289424, -9.4769992]]}}, {"type": "Feature", "properties": {"codigo": "HU-619", "nombre": "HU-619", "categoria": "tertiary", "tipo": "tertiary", "fuente": "OpenStreetMap (Overpass API)"}, "geometry": {"type": "LineString", "coordinates": [[-75.8781885, -9.2842827], [-75.8769549, -9.282166], [-75.8756075, -9.2825473]]}}, {"type": "Feature", "properties": {"codigo": "HU-621", "nombre": "HU-621", "categoria": "tertiary", "tipo": "unpaved", "fuente": "OpenStreetMap (Overpass API)"}, "geometry": {"type": "LineString", "coordinates": [[-75.8781885, -9.2842827], [-75.877438, -9.2867049], [-75.8747457, -9.2876823], [-75.8722875, -9.2900726], [-75.8707868, -9.2899932], [-75.8684197, -9.2933112], [-75.8658676, -9.2940934], [-75.8673683, -9.295049], [-75.8667956, -9.2960906], [-75.8683822, -9.2961753], [-75.8665797, -9.3016227], [-75.8687469, -9.3030547], [-75.8655497, -9.3030918], [-75.862256, -9.3110232]]}}, {"type": "Feature", "properties": {"codigo": "HU-621", "nombre": "HU-621", "categoria": "tertiary", "tipo": "tertiary", "fuente": "OpenStreetMap (Overpass API)"}, "geometry": {"type": "LineString", "coordinates": [[-75.8519724, -9.335052], [-75.8547364, -9.3333197], [-75.8550569, -9.331835]]}}, {"type": "Feature", "properties": {"codigo": "HU-621", "nombre": "HU-621", "categoria": "tertiary", "tipo": "tertiary", "fuente": "OpenStreetMap (Overpass API)"}, "geometry": {"type": "LineString", "coordinates": [[-75.8518785, -9.3350758], [-75.8519724, -9.335052]]}}, {"type": "Feature", "properties": {"codigo": "HU-621", "nombre": "HU-621", "categoria": "tertiary", "tipo": "tertiary", "fuente": "OpenStreetMap (Overpass API)"}, "geometry": {"type": "LineString", "coordinates": [[-75.8319926, -9.3639394], [-75.8319283, -9.3622377], [-75.8345179, -9.3598836], [-75.8339868, -9.3587946], [-75.8352944, -9.3556188], [-75.8392869, -9.3519943], [-75.8400124, -9.3484823], [-75.8466938, -9.3443073], [-75.848051, -9.3361914], [-75.8518785, -9.3350758]]}}, {"type": "Feature", "properties": {"codigo": "HU-621", "nombre": "HU-621", "categoria": "tertiary", "tipo": "tertiary", "fuente": "OpenStreetMap (Overpass API)"}, "geometry": {"type": "LineString", "coordinates": [[-75.8319846, -9.3640492], [-75.8319926, -9.3639394]]}}, {"type": "Feature", "properties": {"codigo": "HU-621", "nombre": "HU-621", "categoria": "tertiary", "tipo": "tertiary", "fuente": "OpenStreetMap (Overpass API)"}, "geometry": {"type": "LineString", "coordinates": [[-75.8175503, -9.393515], [-75.819397, -9.3908159], [-75.8228691, -9.3886049], [-75.8221999, -9.386902], [-75.8244181, -9.3818343], [-75.8239956, -9.3785264], [-75.8228946, -9.3771953], [-75.8239259, -9.3744523], [-75.8254454, -9.3740249], [-75.8281839, -9.368482], [-75.8293721, -9.368789], [-75.8293238, -9.3672898], [-75.8319846, -9.3640492]]}}, {"type": "Feature", "properties": {"codigo": "HU-621", "nombre": "HU-621", "categoria": "tertiary", "tipo": "tertiary", "fuente": "OpenStreetMap (Overpass API)"}, "geometry": {"type": "LineString", "coordinates": [[-75.8174457, -9.3936738], [-75.8175503, -9.393515]]}}, {"type": "Feature", "properties": {"codigo": "HU-621", "nombre": "HU-621", "categoria": "tertiary", "tipo": "tertiary", "fuente": "OpenStreetMap (Overpass API)"}, "geometry": {"type": "LineString", "coordinates": [[-75.8172713, -9.3938644], [-75.8174457, -9.3936738]]}}, {"type": "Feature", "properties": {"codigo": "HU-650", "nombre": "HU-650", "categoria": "tertiary", "tipo": "tertiary", "fuente": "OpenStreetMap (Overpass API)"}, "geometry": {"type": "LineString", "coordinates": [[-76.0622507, -9.3704157], [-76.0621261, -9.3688555], [-76.0627331, -9.369386], [-76.0624399, -9.3682536], [-76.0639817, -9.3654972], [-76.0624399, -9.3641999], [-76.0625754, -9.3631188]]}}, {"type": "Feature", "properties": {"codigo": "HU-650", "nombre": "HU-650", "categoria": "tertiary", "tipo": "tertiary", "fuente": "OpenStreetMap (Overpass API)"}, "geometry": {"type": "LineString", "coordinates": [[-76.0598591, -9.359902], [-76.0589037, -9.3567116], [-76.0599017, -9.3551934], [-76.0580287, -9.3547765], [-76.0583819, -9.3533858], [-76.0568243, -9.352832], [-76.0555252, -9.3505049], [-76.0536747, -9.3507756]]}}, {"type": "Feature", "properties": {"codigo": "PE-14A", "nombre": "PE-14A", "categoria": "primary", "tipo": "primary", "fuente": "OpenStreetMap (Overpass API)"}, "geometry": {"type": "LineString", "coordinates": [[-76.0319133, -9.3231027], [-76.0320538, -9.3228964]]}}, {"type": "Feature", "properties": {"codigo": "PE-14A", "nombre": "PE-14A", "categoria": "primary", "tipo": "primary", "fuente": "OpenStreetMap (Overpass API)"}, "geometry": {"type": "LineString", "coordinates": [[-76.0296972, -9.3251499], [-76.0305844, -9.3252343], [-76.0319133, -9.3231027]]}}, {"type": "Feature", "properties": {"codigo": "HU-650", "nombre": "HU-650", "categoria": "tertiary", "tipo": "tertiary", "fuente": "OpenStreetMap (Overpass API)"}, "geometry": {"type": "LineString", "coordinates": [[-76.0598607, -9.3600093], [-76.0598591, -9.359902]]}}, {"type": "Feature", "properties": {"codigo": "HU-650", "nombre": "HU-650", "categoria": "tertiary", "tipo": "tertiary", "fuente": "OpenStreetMap (Overpass API)"}, "geometry": {"type": "LineString", "coordinates": [[-76.0625754, -9.3631188], [-76.0598607, -9.3600093]]}}, {"type": "Feature", "properties": {"codigo": "HU-651", "nombre": "HU-651", "categoria": "tertiary", "tipo": "tertiary", "fuente": "OpenStreetMap (Overpass API)"}, "geometry": {"type": "LineString", "coordinates": [[-76.0625754, -9.3631188], [-76.060857, -9.3623302], [-76.0602801, -9.3636049], [-76.0587949, -9.3627315], [-76.0568432, -9.3638982], [-76.0555473, -9.3662625], [-76.0546834, -9.3630146], [-76.0529618, -9.3618698], [-76.0521231, -9.3650243], [-76.0501682, -9.3648315], [-76.0508493, -9.3655812], [-76.0503132, -9.3662625], [-76.0478791, -9.3668816], [-76.0482638, -9.3705619], [-76.04629, -9.3696131], [-76.0447765, -9.3700082], [-76.0426986, -9.3684278], [-76.0427869, -9.3718094], [-76.0408446, -9.3724067], [-76.0419608, -9.3739124], [-76.0394037, -9.3757354], [-76.0418852, -9.3758474]]}}, {"type": "Feature", "properties": {"codigo": "SIN-REF", "nombre": "Vía sin nombre", "categoria": "tertiary", "tipo": "tertiary", "fuente": "OpenStreetMap (Overpass API)"}, "geometry": {"type": "LineString", "coordinates": [[-76.1267674, -8.8609557], [-76.1271, -8.8403789], [-76.129868, -8.8360854], [-76.1341255, -8.8328834]]}}, {"type": "Feature", "properties": {"codigo": "SIN-REF", "nombre": "Vía sin nombre", "categoria": "tertiary", "tipo": "tertiary", "fuente": "OpenStreetMap (Overpass API)"}, "geometry": {"type": "LineString", "coordinates": [[-76.1267621, -8.8610697], [-76.1267674, -8.8609557]]}}, {"type": "Feature", "properties": {"codigo": "HU-551", "nombre": "HU-551", "categoria": "secondary", "tipo": "unpaved", "fuente": "OpenStreetMap (Overpass API)"}, "geometry": {"type": "LineString", "coordinates": [[-76.1249107, -9.0613731], [-76.1237486, -9.0639485]]}}, {"type": "Feature", "properties": {"codigo": "HU-551", "nombre": "HU-551", "categoria": "secondary", "tipo": "unpaved", "fuente": "OpenStreetMap (Overpass API)"}, "geometry": {"type": "LineString", "coordinates": [[-76.1266971, -9.0620909], [-76.1249107, -9.0613731]]}}, {"type": "Feature", "properties": {"codigo": "HU-551", "nombre": "HU-551", "categoria": "secondary", "tipo": "unpaved", "fuente": "OpenStreetMap (Overpass API)"}, "geometry": {"type": "LineString", "coordinates": [[-76.1266971, -9.0620909], [-76.1290741, -9.0613641], [-76.1315726, -9.0562693], [-76.1353558, -9.0529278], [-76.1369933, -9.0484795], [-76.1399598, -9.0455446], [-76.139874, -9.0416345], [-76.1426541, -9.0406769], [-76.1440516, -9.0368996], [-76.141313, -9.0310348], [-76.143499, -9.030905], [-76.1388843, -9.0275978], [-76.1399438, -9.0261793], [-76.1415544, -9.0266614], [-76.1384726, -9.0217899], [-76.1393791, -9.0196097], [-76.1405137, -9.0189845], [-76.1413345, -9.0197342], [-76.1442822, -9.0174905], [-76.1449125, -9.0158825], [-76.1536351, -9.0075934]]}}, {"type": "Feature", "properties": {"codigo": "HU-551", "nombre": "HU-551", "categoria": "tertiary", "tipo": "unpaved", "fuente": "OpenStreetMap (Overpass API)"}, "geometry": {"type": "LineString", "coordinates": [[-76.1699027, -9.0055033], [-76.1661154, -9.0052728]]}}, {"type": "Feature", "properties": {"codigo": "HU-551", "nombre": "HU-551", "categoria": "tertiary", "tipo": "unpaved", "fuente": "OpenStreetMap (Overpass API)"}, "geometry": {"type": "LineString", "coordinates": [[-76.1711311, -8.9978578], [-76.1723542, -9.0043535], [-76.1699027, -9.0055033]]}}, {"type": "Feature", "properties": {"codigo": "HU-551", "nombre": "HU-551", "categoria": "tertiary", "tipo": "unpaved", "fuente": "OpenStreetMap (Overpass API)"}, "geometry": {"type": "LineString", "coordinates": [[-76.1711311, -8.9978578], [-76.1714128, -8.9944959], [-76.1744946, -8.9901962], [-76.1723247, -8.9857957], [-76.1731669, -8.9831597], [-76.1760391, -8.9807914]]}}, {"type": "Feature", "properties": {"codigo": "PE-5N", "nombre": "Carretera Presidente Fernando Belaúnde Terry", "categoria": "trunk", "tipo": "asphalt", "fuente": "OpenStreetMap (Overpass API)"}, "geometry": {"type": "LineString", "coordinates": [[-76.0973389, -8.923778], [-76.0931061, -8.9198227], [-76.0934844, -8.9157853]]}}, {"type": "Feature", "properties": {"codigo": "PE-5N", "nombre": "Carretera Presidente Fernando Belaúnde Terry", "categoria": "trunk", "tipo": "asphalt", "fuente": "OpenStreetMap (Overpass API)"}, "geometry": {"type": "LineString", "coordinates": [[-76.0974273, -8.9238535], [-76.0973389, -8.923778]]}}, {"type": "Feature", "properties": {"codigo": "HU-524", "nombre": "HU-524", "categoria": "tertiary", "tipo": "unpaved", "fuente": "OpenStreetMap (Overpass API)"}, "geometry": {"type": "LineString", "coordinates": [[-76.1298922, -8.5570978], [-76.1322016, -8.5637922]]}}, {"type": "Feature", "properties": {"codigo": "HU-527", "nombre": "HU-527", "categoria": "tertiary", "tipo": "unpaved", "fuente": "OpenStreetMap (Overpass API)"}, "geometry": {"type": "LineString", "coordinates": [[-76.144185, -8.690241], [-76.1428126, -8.6896789]]}}, {"type": "Feature", "properties": {"codigo": "HU-544", "nombre": "HU-544", "categoria": "secondary", "tipo": "paved", "fuente": "OpenStreetMap (Overpass API)"}, "geometry": {"type": "LineString", "coordinates": [[-76.1259993, -8.915391], [-76.1285977, -8.9163559]]}}, {"type": "Feature", "properties": {"codigo": "HU-544", "nombre": "HU-544", "categoria": "tertiary", "tipo": "unpaved", "fuente": "OpenStreetMap (Overpass API)"}, "geometry": {"type": "LineString", "coordinates": [[-76.1355124, -8.9183089], [-76.1353954, -8.9183788]]}}, {"type": "Feature", "properties": {"codigo": "HU-505", "nombre": "HU-505", "categoria": "tertiary", "tipo": "unpaved", "fuente": "OpenStreetMap (Overpass API)"}, "geometry": {"type": "LineString", "coordinates": [[-76.1435479, -8.9028754], [-76.1411407, -8.9094408], [-76.1348455, -8.9169281], [-76.1356181, -8.9184451]]}}, {"type": "Feature", "properties": {"codigo": "HU-633", "nombre": "HU-633", "categoria": "tertiary", "tipo": "unpaved", "fuente": "OpenStreetMap (Overpass API)"}, "geometry": {"type": "LineString", "coordinates": [[-75.9384951, -9.3620405], [-75.9399878, -9.3619876]]}}, {"type": "Feature", "properties": {"codigo": "HU-633", "nombre": "HU-633", "categoria": "tertiary", "tipo": "compacted", "fuente": "OpenStreetMap (Overpass API)"}, "geometry": {"type": "LineString", "coordinates": [[-75.9579881, -9.382578], [-75.9569956, -9.3805522], [-75.9552374, -9.3794751]]}}, {"type": "Feature", "properties": {"codigo": "HU-631", "nombre": "HU-631", "categoria": "tertiary", "tipo": "tertiary", "fuente": "OpenStreetMap (Overpass API)"}, "geometry": {"type": "LineString", "coordinates": [[-75.9767702, -9.3571101], [-75.9762968, -9.3562672], [-75.9706065, -9.354629], [-75.9693848, -9.3531668]]}}, {"type": "Feature", "properties": {"codigo": "SIN-REF", "nombre": "Jirón Callao", "categoria": "tertiary", "tipo": "tertiary", "fuente": "OpenStreetMap (Overpass API)"}, "geometry": {"type": "LineString", "coordinates": [[-76.0009811, -9.3030021], [-76.0008382, -9.3032039]]}}, {"type": "Feature", "properties": {"codigo": "SIN-REF", "nombre": "Jirón Callao", "categoria": "tertiary", "tipo": "tertiary", "fuente": "OpenStreetMap (Overpass API)"}, "geometry": {"type": "LineString", "coordinates": [[-76.0023861, -9.3021943], [-76.0007641, -9.3029784]]}}, {"type": "Feature", "properties": {"codigo": "SIN-REF", "nombre": "Avenida Ucayali", "categoria": "tertiary", "tipo": "tertiary", "fuente": "OpenStreetMap (Overpass API)"}, "geometry": {"type": "LineString", "coordinates": [[-75.9959571, -9.293356], [-75.9993508, -9.298949]]}}, {"type": "Feature", "properties": {"codigo": "SIN-REF", "nombre": "Avenida Ucayali", "categoria": "tertiary", "tipo": "tertiary", "fuente": "OpenStreetMap (Overpass API)"}, "geometry": {"type": "LineString", "coordinates": [[-75.9993508, -9.298949], [-76.0010514, -9.3017308]]}}, {"type": "Feature", "properties": {"codigo": "PE-18A", "nombre": "Carretera Central", "categoria": "trunk", "tipo": "asphalt", "fuente": "OpenStreetMap (Overpass API)"}, "geometry": {"type": "LineString", "coordinates": [[-75.9756721, -9.3708307], [-75.9756951, -9.3707248]]}}, {"type": "Feature", "properties": {"codigo": "PE-18A", "nombre": "Carretera Central", "categoria": "trunk", "tipo": "asphalt", "fuente": "OpenStreetMap (Overpass API)"}, "geometry": {"type": "LineString", "coordinates": [[-75.9718848, -9.409542], [-75.9710045, -9.4006291], [-75.9722352, -9.395484], [-75.9766097, -9.3865675], [-75.9744775, -9.3788078], [-75.9756721, -9.3708307]]}}, {"type": "Feature", "properties": {"codigo": "HU-540", "nombre": "HU-540", "categoria": "secondary", "tipo": "secondary", "fuente": "OpenStreetMap (Overpass API)"}, "geometry": {"type": "LineString", "coordinates": [[-76.1192036, -8.9208783], [-76.119928, -8.9208916], [-76.1219081, -8.9137128]]}}, {"type": "Feature", "properties": {"codigo": "HU-505", "nombre": "HU-505", "categoria": "tertiary", "tipo": "ground", "fuente": "OpenStreetMap (Overpass API)"}, "geometry": {"type": "LineString", "coordinates": [[-76.1543685, -8.9075264], [-76.1536129, -8.9070279]]}}, {"type": "Feature", "properties": {"codigo": "HU-505", "nombre": "HU-505", "categoria": "tertiary", "tipo": "unpaved", "fuente": "OpenStreetMap (Overpass API)"}, "geometry": {"type": "LineString", "coordinates": [[-76.1691029, -8.8650021], [-76.1725125, -8.8636801], [-76.1738777, -8.8611465], [-76.1760498, -8.8615023], [-76.182949, -8.8589468], [-76.1832555, -8.8520527], [-76.1875892, -8.847789], [-76.1932486, -8.8363027]]}}, {"type": "Feature", "properties": {"codigo": "HU-550", "nombre": "HU-550", "categoria": "tertiary", "tipo": "ground", "fuente": "OpenStreetMap (Overpass API)"}, "geometry": {"type": "LineString", "coordinates": [[-76.1697329, -8.9221927], [-76.1696074, -8.922144]]}}, {"type": "Feature", "properties": {"codigo": "HU-551", "nombre": "HU-551", "categoria": "tertiary", "tipo": "unpaved", "fuente": "OpenStreetMap (Overpass API)"}, "geometry": {"type": "LineString", "coordinates": [[-76.1661154, -9.0052728], [-76.163975, -9.0068358], [-76.1630523, -9.0059483], [-76.1629772, -9.0071987], [-76.1625561, -9.0064649], [-76.1608985, -9.0069947], [-76.1596298, -9.0086266], [-76.1536351, -9.0075934]]}}, {"type": "Feature", "properties": {"codigo": "HU-555", "nombre": "Avenida Huallaga", "categoria": "secondary", "tipo": "unpaved", "fuente": "OpenStreetMap (Overpass API)"}, "geometry": {"type": "LineString", "coordinates": [[-76.0954579, -9.0882557], [-76.0944065, -9.0880968]]}}, {"type": "Feature", "properties": {"codigo": "HU-560", "nombre": "HU-560", "categoria": "tertiary", "tipo": "unpaved", "fuente": "OpenStreetMap (Overpass API)"}, "geometry": {"type": "LineString", "coordinates": [[-76.048108, -9.1519763], [-76.0447352, -9.1535897], [-76.0431581, -9.1566402], [-76.0405617, -9.1574982], [-76.0341673, -9.1565131], [-76.031056, -9.1585892]]}}, {"type": "Feature", "properties": {"codigo": "HU-546", "nombre": "HU-546", "categoria": "tertiary", "tipo": "unpaved", "fuente": "OpenStreetMap (Overpass API)"}, "geometry": {"type": "LineString", "coordinates": [[-76.1799797, -8.769372], [-76.1817286, -8.7701636], [-76.1819083, -8.7720838], [-76.187378, -8.7758145], [-76.1915159, -8.775021], [-76.1951691, -8.7769401], [-76.1947507, -8.7805214]]}}, {"type": "Feature", "properties": {"codigo": "HU-505", "nombre": "HU-505", "categoria": "secondary", "tipo": "unpaved", "fuente": "OpenStreetMap (Overpass API)"}, "geometry": {"type": "LineString", "coordinates": [[-76.1356181, -8.9184451], [-76.1368447, -8.9203409], [-76.1327791, -8.9284663], [-76.1325319, -8.9309752]]}}, {"type": "Feature", "properties": {"codigo": "PE-18A", "nombre": "Carretera Interoceánica Centro", "categoria": "trunk", "tipo": "paved", "fuente": "OpenStreetMap (Overpass API)"}, "geometry": {"type": "LineString", "coordinates": [[-75.997598, -9.2908449], [-75.9935742, -9.2887355]]}}]}