{"type": "FeatureCollection", "name": "distritos_leoncio_prado", "crs": {"type": "name", "properties": {"name": "urn:ogc:def:crs:OGC:1.3:CRS84"}}, "features": [{"type": "Feature", "properties": {"ubigeo": "100601", "nombre": "RUPA-RUPA", "ubigeo_provincia": "1006", "nombre_provincia": "LEONCIO PRADO", "ubigeo_departamento": "10", "nombre_departamento": "HUANUCO", "fuente": "INEI", "ley_creacion": null, "fecha_creacion": null, "metodo": "publicado por el INEI (WFS Interoperabilidad)", "confianza": "oficial", "ubigeo_provisional": false, "ubigeo_fuente": null, "advertencia": null, "ccdd": "10", "ccpp": "06", "ccdi": "01", "nombdist": "RUPA-RUPA", "fuente_inei": "V Censo Nacional Economico", "periodo": 1, "ccdd_c": "100", "ccpp_c": "02", "ccdi_c": "00", "fec_reg": "2022-07-22T01:39:29Z"}, "geometry": {"type": "Polygon", "coordinates": [[[-76.0753432, -9.1326285], [-76.0786838, -9.1302115], [-76.0808257, -9.1301721], [-76.0834785, -9.1276016], [-76.0840705, -9.1304201], [-76.0822993, -9.1336986], [-76.0826385, -9.1430443], [-76.0839198, -9.1461721], [-76.0823747, -9.1500913], [-76.0867084, -9.1520509], [-76.0870702, -9.1556233], [-76.0897834, -9.1576206], [-76.0943658, -9.1589019], [-76.0933107, -9.1607861], [-76.0928585, -9.1667025], [-76.0938383, -9.1715638], [-76.096137, -9.1726566], [-76.0965138, -9.1762366], [-76.0956997, -9.1787892], [-76.0967568, -9.1815997], [-76.0958544, -9.184307], [-76.093582, -9.1848164], [-76.0917032, -9.1870143], [-76.0921673, -9.1892059], [-76.0903108, -9.193022], [-76.0867526, -9.1938471], [-76.077959, -9.1919824], [-76.0760523, -9.1944917], [-76.073418, -9.1963788], [-76.0696785, -9.1956777], [-76.0673837, -9.2012471], [-76.0674095, -9.204599], [-76.068905, -9.2072547], [-76.0655788, -9.2094928], [-76.0606283, -9.2117102], [-76.0580241, -9.2117102], [-76.0567092, -9.2156551], [-76.0545433, -9.2192649], [-76.0525976, -9.2212344], [-76.0519598, -9.2242515], [-76.0499486, -9.2270362], [-76.0514699, -9.229563], [-76.0494845, -9.2307491], [-76.048873, -9.2328496], [-76.0441543, -9.2351152], [-76.0431262, -9.2369939], [-76.039929, -9.2388762], [-76.0395938, -9.2424859], [-76.0420175, -9.243672], [-76.0454983, -9.2425375], [-76.0463492, -9.244033], [-76.050191, -9.2454253], [-76.0500878, -9.2503242], [-76.0474837, -9.2532378], [-76.0456272, -9.253573], [-76.0405478, -9.2567805], [-76.0389492, -9.261138], [-76.0374537, -9.263768], [-76.0355457, -9.2654182], [-76.0353681, -9.2679218], [-76.0341688, -9.2695385], [-76.0300371, -9.2715332], [-76.0282385, -9.2733287], [-76.0293398, -9.2764746], [-76.0291667, -9.2862929], [-76.0313326, -9.2907019], [-76.0283932, -9.292842], [-76.0281354, -9.2985145], [-76.0215347, -9.3027379], [-76.0202246, -9.3042832], [-76.0152615, -9.3054893], [-76.011711, -9.3069664], [-76.0083385, -9.3075853], [-76.00671, -9.3025245], [-76.0021838, -9.2952842], [-76.0007891, -9.29017], [-76.0017151, -9.2869981], [-75.9997735, -9.2814017], [-75.9997163, -9.2796123], [-76.00103, -9.2765598], [-75.9919961, -9.2734902], [-75.9898242, -9.2731503], [-75.9858789, -9.2706387], [-75.9829199, -9.2677735], [-75.9806797, -9.2667558], [-75.9781191, -9.2668125], [-75.9731347, -9.2637245], [-75.9696114, -9.2643653], [-75.9666289, -9.262502], [-75.9620976, -9.2622246], [-75.9583886, -9.260336], [-75.9535292, -9.2629961], [-75.9514907, -9.2671397], [-75.9507341, -9.2703864], [-75.951707, -9.2717402], [-75.9514185, -9.2739708], [-75.9533519, -9.2759695], [-75.953428, -9.2782832], [-75.9549272, -9.2817298], [-75.950782, -9.281886], [-75.9498064, -9.2810531], [-75.947308, -9.2859548], [-75.9475579, -9.2871921], [-75.9458804, -9.2894765], [-75.9428584, -9.2909755], [-75.9411095, -9.2969836], [-75.9415021, -9.2997557], [-75.9403719, -9.3032297], [-75.9391702, -9.3043005], [-75.9403481, -9.3082147], [-75.9390036, -9.3102967], [-75.936993, -9.311653], [-75.9348104, -9.3160287], [-75.9397129, -9.3162481], [-75.9424434, -9.3192891], [-75.9445879, -9.3197988], [-75.9477695, -9.3189297], [-75.9521797, -9.3194882], [-75.955543, -9.3217226], [-75.9586114, -9.3209726], [-75.9667207, -9.3211231], [-75.9694785, -9.3219472], [-75.9714112, -9.32131], [-75.9744082, -9.3217422], [-75.9809565, -9.3208267], [-75.9885097, -9.3202637], [-75.9935224, -9.32131], [-76.0005586, -9.3209238], [-76.0066947, -9.3174012], [-76.0089017, -9.3178398], [-76.0086369, -9.3203937], [-76.0050391, -9.3216721], [-76.0050914, -9.3230837], [-76.0129197, -9.3227743], [-76.0148502, -9.3239413], [-76.0204879, -9.3241286], [-76.0227594, -9.3265507], [-76.0271064, -9.3261076], [-76.0285612, -9.32523], [-76.0317866, -9.3201838], [-76.0339749, -9.3188615], [-76.0349001, -9.3140253], [-76.0389412, -9.3120516], [-76.0406362, -9.3095848], [-76.0428912, -9.3097956], [-76.0462976, -9.303397], [-76.0492509, -9.3001725], [-76.050023, -9.2973418], [-76.0488632, -9.2913298], [-76.0512395, -9.2884947], [-76.0529101, -9.2830995], [-76.0551006, -9.2809828], [-76.0572206, -9.2810871], [-76.0588066, -9.2768593], [-76.0633145, -9.2745957], [-76.0678584, -9.2742537], [-76.0715666, -9.2707396], [-76.0761509, -9.2701707], [-76.0768584, -9.2683883], [-76.0727651, -9.2656633], [-76.0727007, -9.2634813], [-76.0757094, -9.2580552], [-76.0735614, -9.2550181], [-76.0733051, -9.2531237], [-76.0753784, -9.2505716], [-76.07532, -9.2440443], [-76.074854, -9.2428781], [-76.0760756, -9.2390843], [-76.0782249, -9.2362448], [-76.0798695, -9.2321818], [-76.0824461, -9.2304896], [-76.084, -9.2283027], [-76.0853301, -9.2222307], [-76.0874605, -9.2195636], [-76.0900427, -9.2197663], [-76.0944481, -9.217249], [-76.0963146, -9.2141806], [-76.0989401, -9.2128231], [-76.1018066, -9.2146232], [-76.1041912, -9.2147595], [-76.1051905, -9.2108371], [-76.1043149, -9.2080546], [-76.1067247, -9.2070423], [-76.1078116, -9.208087], [-76.1088337, -9.2115293], [-76.1118115, -9.2119078], [-76.113617, -9.2071072], [-76.1136664, -9.2043937], [-76.1168135, -9.2035513], [-76.1198376, -9.2049345], [-76.1246086, -9.2049617], [-76.1333705, -9.2037858], [-76.1412599, -9.2009375], [-76.145495, -9.199967], [-76.1614844, -9.1999158], [-76.1718349, -9.198686], [-76.1754497, -9.1995356], [-76.17717, -9.2011677], [-76.1790994, -9.2053721], [-76.1829232, -9.2058713], [-76.1859827, -9.2074863], [-76.1899504, -9.2050761], [-76.1899479, -9.2016286], [-76.1906667, -9.2004501], [-76.1953235, -9.1987558], [-76.1990049, -9.1999197], [-76.2024819, -9.1994053], [-76.2058265, -9.2025365], [-76.209027, -9.2030913], [-76.2106414, -9.2022151], [-76.212454, -9.2038071], [-76.2156187, -9.2033535], [-76.222631, -9.1958581], [-76.2235637, -9.1931431], [-76.2234472, -9.1890457], [-76.2245465, -9.18753], [-76.2256125, -9.1828496], [-76.2289937, -9.1796183], [-76.2314255, -9.1739218], [-76.2345069, -9.1722396], [-76.2339406, -9.1694247], [-76.2312756, -9.1643445], [-76.231792, -9.1624457], [-76.2310254, -9.1584062], [-76.2292792, -9.1538163], [-76.2289725, -9.1497968], [-76.2328789, -9.1424336], [-76.2348632, -9.1402735], [-76.2325215, -9.1393906], [-76.2265625, -9.1382051], [-76.2166289, -9.139502], [-76.2154687, -9.139334], [-76.2139121, -9.1392812], [-76.2068379, -9.1365878], [-76.2039902, -9.1337402], [-76.1989414, -9.1271582], [-76.1935897, -9.1252812], [-76.1921329, -9.1227637], [-76.1922364, -9.1161113], [-76.1900579, -9.1129713], [-76.1874699, -9.1118636], [-76.1863435, -9.1104206], [-76.1864645, -9.1075906], [-76.1840031, -9.1046556], [-76.1837369, -9.1023402], [-76.1794546, -9.0981603], [-76.1767364, -9.0970432], [-76.1754051, -9.0952001], [-76.1719607, -9.094716], [-76.1698382, -9.0958423], [-76.1677436, -9.099231], [-76.1629121, -9.1012325], [-76.161404, -9.1000967], [-76.1569264, -9.1021727], [-76.1511174, -9.101009], [-76.1508567, -9.099352], [-76.1441931, -9.099607], [-76.1387145, -9.1017217], [-76.1324212, -9.0985447], [-76.1313965, -9.1003425], [-76.1232904, -9.0994535], [-76.1233051, -9.0979891], [-76.1192282, -9.0953313], [-76.1176425, -9.0963411], [-76.1132015, -9.0957326], [-76.1124535, -9.093658], [-76.109466, -9.0928871], [-76.1080741, -9.0908393], [-76.1059676, -9.0909271], [-76.106582, -9.0882553], [-76.1039196, -9.0887487], [-76.1011734, -9.0880971], [-76.1007172, -9.0864866], [-76.0980734, -9.0876875], [-76.0967016, -9.082314], [-76.0963121, -9.0771372], [-76.0936346, -9.076196], [-76.092028, -9.0770886], [-76.0904239, -9.074459], [-76.087123, -9.074502], [-76.0831202, -9.0725872], [-76.0795469, -9.0719141], [-76.0766446, -9.0721426], [-76.0735761, -9.076211], [-76.0755195, -9.0790371], [-76.0817167, -9.0814395], [-76.0834687, -9.0828672], [-76.0852011, -9.0861681], [-76.083916, -9.089162], [-76.0807579, -9.0893867], [-76.07875, -9.0880742], [-76.0757051, -9.0884902], [-76.0732812, -9.0925235], [-76.0702857, -9.0956172], [-76.0694022, -9.1045586], [-76.0695657, -9.1077025], [-76.0687279, -9.1109547], [-76.0663104, -9.1140628], [-76.0655566, -9.1189726], [-76.0654255, -9.1242012], [-76.0677149, -9.128959], [-76.0710195, -9.132166], [-76.0753432, -9.1326285]]]}}, {"type": "Feature", "properties": {"ubigeo": "100602", "nombre": "DANIEL ALOMIA ROBLES", "ubigeo_provincia": "1006", "nombre_provincia": "LEONCIO PRADO", "ubigeo_departamento": "10", "nombre_departamento": "HUANUCO", "fuente": "INEI", "ley_creacion": null, "fecha_creacion": null, "metodo": "publicado por el INEI (WFS Interoperabilidad)", "confianza": "oficial", "ubigeo_provisional": false, "ubigeo_fuente": null, "advertencia": null, "ccdd": "10", "ccpp": "06", "ccdi": "02", "nombdist": "DANIEL ALOMIA ROBLES", "fuente_inei": "V Censo Nacional Economico", "periodo": 1, "ccdd_c": "100", "ccpp_c": "02", "ccdi_c": "00", "fec_reg": "2022-07-22T01:39:29Z"}, "geometry": {"type": "Polygon", "coordinates": [[[-75.7138793, -9.3110529], [-75.7107775, -9.3140025], [-75.7115036, -9.3156522], [-75.7109315, -9.3186685], [-75.7079111, -9.3239817], [-75.7066143, -9.328225], [-75.7068409, -9.3331062], [-75.7056908, -9.3362672], [-75.7031657, -9.3385695], [-75.6983285, -9.341307], [-75.6985503, -9.3438192], [-75.697615, -9.3459747], [-75.6960251, -9.3461214], [-75.6924873, -9.3481384], [-75.6886227, -9.3493663], [-75.6903662, -9.3538139], [-75.6926825, -9.3554605], [-75.6940621, -9.3586165], [-75.693705, -9.3607709], [-75.6950104, -9.362922], [-75.6936449, -9.3669449], [-75.6902488, -9.3675976], [-75.6884447, -9.3691087], [-75.6856268, -9.3697603], [-75.683394, -9.3738566], [-75.6807223, -9.3753693], [-75.6783484, -9.3813323], [-75.6740858, -9.3825609], [-75.6711283, -9.3858688], [-75.6709263, -9.3935507], [-75.6719416, -9.3952717], [-75.671304, -9.4020211], [-75.6687083, -9.4055437], [-75.6685001, -9.4100668], [-75.6699506, -9.4125049], [-75.6704509, -9.4179358], [-75.6625207, -9.4180615], [-75.6555911, -9.4166213], [-75.6522704, -9.41469], [-75.6488555, -9.4145025], [-75.6434865, -9.4127685], [-75.6362682, -9.4133629], [-75.6326553, -9.4116256], [-75.6291775, -9.4108568], [-75.6286386, -9.4166304], [-75.6277167, -9.4193374], [-75.6287149, -9.4262358], [-75.6300586, -9.4308374], [-75.6298985, -9.4371676], [-75.6313535, -9.4437222], [-75.6336309, -9.4502222], [-75.6363614, -9.4551637], [-75.6410682, -9.4616578], [-75.649086, -9.4740699], [-75.6526875, -9.4806207], [-75.6558379, -9.4903374], [-75.6574024, -9.4920621], [-75.6607969, -9.4935953], [-75.6618829, -9.4967443], [-75.6609395, -9.5003691], [-75.663711, -9.5020506], [-75.668748, -9.5095937], [-75.6717226, -9.5173027], [-75.6724316, -9.5229277], [-75.6752774, -9.5309628], [-75.676918, -9.5394512], [-75.6781992, -9.5442148], [-75.6784355, -9.5471992], [-75.6776954, -9.5549512], [-75.6775899, -9.5600606], [-75.6790547, -9.5670039], [-75.681373, -9.5710801], [-75.6853711, -9.5750331], [-75.6870176, -9.5773809], [-75.6886524, -9.5782481], [-75.694041, -9.5791972], [-75.6962617, -9.578793], [-75.6990079, -9.5804082], [-75.7007226, -9.5843535], [-75.7039101, -9.5899725], [-75.7097695, -9.596627], [-75.7125546, -9.6036757], [-75.7129766, -9.6098242], [-75.7138829, -9.6125001], [-75.7179649, -9.6156113], [-75.720918, -9.6171093], [-75.7297597, -9.6150078], [-75.7383652, -9.6081601], [-75.7418066, -9.6031972], [-75.7430489, -9.5971211], [-75.7465467, -9.5945497], [-75.7499731, -9.5907236], [-75.7510439, -9.5858837], [-75.7507012, -9.5816578], [-75.7523289, -9.5787311], [-75.752386, -9.5763183], [-75.7537994, -9.5745337], [-75.753214, -9.5713357], [-75.755641, -9.5683661], [-75.757083, -9.5649397], [-75.7562406, -9.5587151], [-75.7572115, -9.5564594], [-75.7570545, -9.5535326], [-75.7546845, -9.5488926], [-75.7557839, -9.5446952], [-75.7598241, -9.5416115], [-75.7618205, -9.5370115], [-75.766934, -9.5351013], [-75.7671624, -9.5324601], [-75.7703604, -9.5306183], [-75.7723877, -9.5264638], [-75.7742151, -9.525436], [-75.7762281, -9.5223093], [-75.7756204, -9.5173263], [-75.7772216, -9.5151357], [-75.776888, -9.5111326], [-75.7759642, -9.5094262], [-75.7781859, -9.5079051], [-75.7785261, -9.5039221], [-75.7775151, -9.49877], [-75.7795765, -9.4940741], [-75.778186, -9.4909517], [-75.7802472, -9.4906223], [-75.7813206, -9.4879025], [-75.7833575, -9.4864511], [-75.7833764, -9.4834502], [-75.7845435, -9.4800327], [-75.7862281, -9.4777627], [-75.7852637, -9.4738077], [-75.7867421, -9.4738366], [-75.7890121, -9.470396], [-75.7881412, -9.469468], [-75.789883, -9.4670695], [-75.7917817, -9.4659273], [-75.7929952, -9.4619441], [-75.7924814, -9.4586747], [-75.790711, -9.4565475], [-75.789883, -9.453735], [-75.7923956, -9.4516362], [-75.7913677, -9.4496661], [-75.791482, -9.4462538], [-75.7898401, -9.444655], [-75.7913392, -9.4406717], [-75.7897116, -9.43202], [-75.7913106, -9.4301926], [-75.7899829, -9.4289505], [-75.7860996, -9.4233968], [-75.7872275, -9.419642], [-75.7856999, -9.4176861], [-75.7840866, -9.4140455], [-75.7850717, -9.4115756], [-75.7852572, -9.4080065], [-75.786328, -9.4049797], [-75.7919531, -9.4003112], [-75.7948799, -9.398384], [-75.7995484, -9.3996796], [-75.8031121, -9.3942935], [-75.8061351, -9.3938081], [-75.811528, -9.3905396], [-75.8135752, -9.3925002], [-75.8161981, -9.3919846], [-75.8200529, -9.388626], [-75.8212961, -9.3844833], [-75.8214981, -9.3730567], [-75.8243381, -9.3716982], [-75.8269315, -9.3642657], [-75.8287129, -9.3625097], [-75.830834, -9.3573307], [-75.8339089, -9.353495], [-75.8341601, -9.3518281], [-75.8363537, -9.3482248], [-75.8418652, -9.3444531], [-75.8450069, -9.3437771], [-75.8460547, -9.3422735], [-75.8453946, -9.3367125], [-75.8489665, -9.3336466], [-75.8539495, -9.3320373], [-75.8539775, -9.3302328], [-75.855459, -9.3254127], [-75.8590349, -9.3226327], [-75.8609159, -9.3191707], [-75.8607957, -9.3171664], [-75.8585629, -9.3123823], [-75.861747, -9.3101481], [-75.8624634, -9.3067897], [-75.8625846, -9.3009708], [-75.8618755, -9.2990083], [-75.8624042, -9.2967422], [-75.8603216, -9.2949693], [-75.8572782, -9.2937929], [-75.8604475, -9.2910676], [-75.863163, -9.2898036], [-75.8639621, -9.2883348], [-75.868715, -9.2852425], [-75.8711195, -9.2854667], [-75.8742444, -9.284072], [-75.8777282, -9.2782326], [-75.8801634, -9.2781763], [-75.8824726, -9.276936], [-75.8848587, -9.2717112], [-75.8848774, -9.2683362], [-75.8864165, -9.267594], [-75.8893894, -9.2687567], [-75.8901029, -9.2708655], [-75.8927212, -9.2718782], [-75.8917237, -9.2660373], [-75.8953242, -9.2629453], [-75.9009646, -9.2655476], [-75.9032917, -9.2656422], [-75.9063361, -9.263682], [-75.9070111, -9.2620651], [-75.909248, -9.260832], [-75.9135034, -9.2633265], [-75.916703, -9.2627798], [-75.9202399, -9.2584852], [-75.9212277, -9.2550362], [-75.9235484, -9.2525975], [-75.9244027, -9.2477066], [-75.9265712, -9.2452675], [-75.9301177, -9.2447988], [-75.9325451, -9.2418852], [-75.9359271, -9.2402206], [-75.9335991, -9.2364872], [-75.9339955, -9.235055], [-75.9373799, -9.2361991], [-75.9391166, -9.2346838], [-75.9352681, -9.2320401], [-75.9367342, -9.2303566], [-75.9396559, -9.2305477], [-75.939761, -9.2286788], [-75.9379175, -9.22766], [-75.936171, -9.2254083], [-75.9361642, -9.2228838], [-75.9372116, -9.2217381], [-75.9412929, -9.2216181], [-75.942361, -9.2207903], [-75.9429916, -9.213384], [-75.9468915, -9.2091198], [-75.9485406, -9.2088053], [-75.9497756, -9.206858], [-75.9476889, -9.1998628], [-75.948359, -9.1982819], [-75.9511847, -9.1959055], [-75.9535082, -9.1918287], [-75.9578769, -9.1908865], [-75.9589334, -9.1875901], [-75.9576987, -9.1801948], [-75.959466, -9.178276], [-75.9621772, -9.177637], [-75.961017, -9.1727074], [-75.9587418, -9.172738], [-75.9563973, -9.1707585], [-75.9535906, -9.172763], [-75.9517645, -9.1712078], [-75.9477774, -9.1713445], [-75.943299, -9.1670804], [-75.9419093, -9.1690598], [-75.9388769, -9.1676138], [-75.9359959, -9.1676638], [-75.9343394, -9.1664735], [-75.9337114, -9.164104], [-75.9290497, -9.1621668], [-75.925679, -9.1613439], [-75.9234763, -9.1621246], [-75.9214405, -9.1639638], [-75.9152569, -9.1651141], [-75.9125867, -9.1666439], [-75.9093603, -9.1670611], [-75.9009866, -9.1720359], [-75.9002137, -9.1744928], [-75.8971955, -9.1759107], [-75.8954967, -9.174914], [-75.8932646, -9.1751105], [-75.8896425, -9.1787185], [-75.8893899, -9.1829583], [-75.8900918, -9.1885739], [-75.8877874, -9.192233], [-75.888908, -9.1935138], [-75.8900107, -9.1975623], [-75.8940583, -9.2003428], [-75.8990859, -9.2102228], [-75.902213, -9.218027], [-75.9004945, -9.2202863], [-75.8957689, -9.2210144], [-75.8937559, -9.2204861], [-75.8920284, -9.2185589], [-75.8888304, -9.2171311], [-75.8858323, -9.2167029], [-75.8777944, -9.2168885], [-75.8728975, -9.2174881], [-75.872612, -9.2214855], [-75.8716698, -9.2215284], [-75.8683004, -9.2249691], [-75.868229, -9.2270106], [-75.8639745, -9.2303086], [-75.860748, -9.2361193], [-75.857935, -9.2419948], [-75.8607683, -9.246197], [-75.860823, -9.2508393], [-75.862189, -9.2523366], [-75.8637951, -9.2569468], [-75.8620105, -9.2612298], [-75.8606126, -9.262598], [-75.8598987, -9.2654533], [-75.861029, -9.2697958], [-75.8587102, -9.2707544], [-75.85642, -9.2701893], [-75.8530292, -9.2703975], [-75.8507688, -9.2675422], [-75.8483298, -9.2678991], [-75.8397923, -9.2660184], [-75.8375316, -9.2634222], [-75.8356245, -9.2601906], [-75.8312512, -9.2579053], [-75.8265399, -9.2566204], [-75.8246363, -9.2578577], [-75.8227803, -9.2633305], [-75.8178472, -9.26502], [-75.81364, -9.26346], [-75.81169, -9.26189], [-75.80731, -9.2604], [-75.8056687, -9.2592991], [-75.8034408, -9.2593711], [-75.802565, -9.2612201], [-75.801503, -9.2707193], [-75.7996939, -9.2749407], [-75.7982059, -9.2767885], [-75.7974064, -9.2798152], [-75.7974979, -9.2855102], [-75.7954278, -9.2874376], [-75.7937146, -9.2929341], [-75.7917158, -9.2971458], [-75.7901454, -9.3046411], [-75.7905737, -9.309281], [-75.78729, -9.3149203], [-75.7819553, -9.3157246], [-75.7784718, -9.3222919], [-75.7760566, -9.3236858], [-75.7718878, -9.3224294], [-75.7662342, -9.3195741], [-75.7605282, -9.3189388], [-75.7560073, -9.317749], [-75.7523786, -9.3179275], [-75.7476792, -9.3200095], [-75.7444074, -9.3198311], [-75.7397476, -9.317634], [-75.735881, -9.3163253], [-75.7288021, -9.3115069], [-75.7277908, -9.3099603], [-75.7255303, -9.3090085], [-75.7154647, -9.3087525], [-75.7138793, -9.3110529]]]}}, {"type": "Feature", "properties": {"ubigeo": "100603", "nombre": "HERMILIO VALDIZAN", "ubigeo_provincia": "1006", "nombre_provincia": "LEONCIO PRADO", "ubigeo_departamento": "10", "nombre_departamento": "HUANUCO", "fuente": "INEI", "ley_creacion": null, "fecha_creacion": null, "metodo": "publicado por el INEI (WFS Interoperabilidad)", "confianza": "oficial", "ubigeo_provisional": false, "ubigeo_fuente": null, "advertencia": null, "ccdd": "10", "ccpp": "06", "ccdi": "03", "nombdist": "HERMILIO VALDIZAN", "fuente_inei": "V Censo Nacional Economico", "periodo": 1, "ccdd_c": "100", "ccpp_c": "02", "ccdi_c": "00", "fec_reg": "2022-07-22T01:39:29Z"}, "geometry": {"type": "Polygon", "coordinates": [[[-75.7639628, -9.2378482], [-75.7595739, -9.238859], [-75.7548128, -9.242602], [-75.7497583, -9.2442638], [-75.7475243, -9.24714], [-75.7457917, -9.2479333], [-75.7434883, -9.2521736], [-75.7437848, -9.2556906], [-75.7429264, -9.2598561], [-75.7401887, -9.2638341], [-75.7361041, -9.2657876], [-75.7347364, -9.2670795], [-75.7304128, -9.2679462], [-75.7296948, -9.2701731], [-75.7303502, -9.2726126], [-75.725804, -9.2757805], [-75.7238525, -9.2756409], [-75.7202425, -9.2772275], [-75.7184462, -9.2823282], [-75.7170777, -9.2845564], [-75.7181684, -9.2878565], [-75.7164397, -9.2906597], [-75.7179734, -9.2985534], [-75.7153105, -9.3040148], [-75.7160412, -9.3079617], [-75.7154647, -9.3087525], [-75.7255303, -9.3090085], [-75.7277908, -9.3099603], [-75.7288021, -9.3115069], [-75.735881, -9.3163253], [-75.7397476, -9.317634], [-75.7444074, -9.3198311], [-75.7476792, -9.3200095], [-75.7523786, -9.3179275], [-75.7560073, -9.317749], [-75.7605282, -9.3189388], [-75.7662342, -9.3195741], [-75.7718878, -9.3224294], [-75.7760566, -9.3236858], [-75.7784718, -9.3222919], [-75.7819553, -9.3157246], [-75.78729, -9.3149203], [-75.7905737, -9.309281], [-75.7901454, -9.3046411], [-75.7917158, -9.2971458], [-75.7937146, -9.2929341], [-75.7954278, -9.2874376], [-75.7974979, -9.2855102], [-75.7974064, -9.2798152], [-75.7982059, -9.2767885], [-75.7996939, -9.2749407], [-75.801503, -9.2707193], [-75.802565, -9.2612201], [-75.8034408, -9.2593711], [-75.8056687, -9.2592991], [-75.80731, -9.2604], [-75.81169, -9.26189], [-75.81364, -9.26346], [-75.8178472, -9.26502], [-75.8227803, -9.2633305], [-75.8246363, -9.2578577], [-75.8265399, -9.2566204], [-75.8312512, -9.2579053], [-75.8356245, -9.2601906], [-75.8375316, -9.2634222], [-75.8397923, -9.2660184], [-75.8483298, -9.2678991], [-75.8507688, -9.2675422], [-75.8530292, -9.2703975], [-75.85642, -9.2701893], [-75.8587102, -9.2707544], [-75.861029, -9.2697958], [-75.8598987, -9.2654533], [-75.8606126, -9.262598], [-75.8620105, -9.2612298], [-75.8637951, -9.2569468], [-75.862189, -9.2523366], [-75.860823, -9.2508393], [-75.8607683, -9.246197], [-75.857935, -9.2419948], [-75.860748, -9.2361193], [-75.8639745, -9.2303086], [-75.868229, -9.2270106], [-75.8683004, -9.2249691], [-75.8716698, -9.2215284], [-75.872612, -9.2214855], [-75.8728975, -9.2174881], [-75.8777944, -9.2168885], [-75.8858323, -9.2167029], [-75.8888304, -9.2171311], [-75.8920284, -9.2185589], [-75.8937559, -9.2204861], [-75.8957689, -9.2210144], [-75.9004945, -9.2202863], [-75.902213, -9.218027], [-75.8990859, -9.2102228], [-75.8940583, -9.2003428], [-75.8900107, -9.1975623], [-75.888908, -9.1935138], [-75.8877874, -9.192233], [-75.8900918, -9.1885739], [-75.8893899, -9.1829583], [-75.8896425, -9.1787185], [-75.8932646, -9.1751105], [-75.8954967, -9.174914], [-75.8971955, -9.1759107], [-75.9002137, -9.1744928], [-75.9009866, -9.1720359], [-75.9093603, -9.1670611], [-75.9125867, -9.1666439], [-75.9152569, -9.1651141], [-75.9214405, -9.1639638], [-75.9234763, -9.1621246], [-75.925679, -9.1613439], [-75.9290497, -9.1621668], [-75.9337114, -9.164104], [-75.9343394, -9.1664735], [-75.9359959, -9.1676638], [-75.9388769, -9.1676138], [-75.9419093, -9.1690598], [-75.943299, -9.1670804], [-75.9477774, -9.1713445], [-75.9517645, -9.1712078], [-75.9535906, -9.172763], [-75.9563973, -9.1707585], [-75.9587418, -9.172738], [-75.961017, -9.1727074], [-75.9621772, -9.177637], [-75.9651836, -9.1769225], [-75.9688457, -9.1788437], [-75.9699162, -9.177194], [-75.9683055, -9.1737286], [-75.9695739, -9.1719785], [-75.9681609, -9.1659105], [-75.969123, -9.1644297], [-75.9719864, -9.1625412], [-75.9736261, -9.1623215], [-75.9784607, -9.1669296], [-75.9796931, -9.1663311], [-75.9813425, -9.1630215], [-75.9830587, -9.1626888], [-75.9853899, -9.1653983], [-75.9860456, -9.1674185], [-75.9881766, -9.1674007], [-75.989943, -9.1661516], [-75.989402, -9.1620972], [-75.9901291, -9.1594392], [-75.9942571, -9.1588776], [-75.9972881, -9.1578403], [-76.0003496, -9.1584336], [-75.9956757, -9.1560346], [-75.9923207, -9.1557668], [-75.9916784, -9.1539466], [-75.9894655, -9.1520015], [-75.9858071, -9.1533042], [-75.9839869, -9.1527153], [-75.9823807, -9.1538038], [-75.9809352, -9.1522156], [-75.9779372, -9.1530901], [-75.9756887, -9.1550173], [-75.9746715, -9.1520371], [-75.9729584, -9.151127], [-75.9694962, -9.1478613], [-75.9661414, -9.1480932], [-75.9661414, -9.1463266], [-75.9646907, -9.1436898], [-75.9647875, -9.1418233], [-75.9613507, -9.1384821], [-75.959622, -9.1391307], [-75.9569509, -9.1380087], [-75.9564084, -9.1363668], [-75.9528507, -9.1369981], [-75.9500289, -9.1351391], [-75.9467461, -9.1352051], [-75.9420722, -9.133545], [-75.9398047, -9.1332343], [-75.9375761, -9.131295], [-75.9353261, -9.1313007], [-75.9335735, -9.1326297], [-75.9301791, -9.1324473], [-75.9255886, -9.1334147], [-75.9231871, -9.1321841], [-75.9214621, -9.1278052], [-75.9203789, -9.1272695], [-75.9145166, -9.1286055], [-75.9153394, -9.1261256], [-75.9138702, -9.1244987], [-75.9101944, -9.124146], [-75.9089524, -9.1219758], [-75.9063967, -9.121619], [-75.9038841, -9.1222328], [-75.9019281, -9.1196631], [-75.899858, -9.1198343], [-75.8972026, -9.1167363], [-75.8969599, -9.1150945], [-75.894647, -9.1113111], [-75.8936619, -9.1081846], [-75.8921344, -9.1063143], [-75.8903211, -9.1062857], [-75.8885509, -9.1026451], [-75.886752, -9.1027022], [-75.8831971, -9.0974056], [-75.8797992, -9.0966346], [-75.8744026, -9.0936222], [-75.8728607, -9.0910096], [-75.8697735, -9.0902168], [-75.8654922, -9.0903457], [-75.8557579, -9.0866875], [-75.8512422, -9.083125], [-75.848633, -9.0823906], [-75.8477011, -9.080836], [-75.8424101, -9.0765663], [-75.8396192, -9.0765409], [-75.8378736, -9.0848927], [-75.836416, -9.0861802], [-75.8342254, -9.0862969], [-75.8308628, -9.0897105], [-75.8250172, -9.0900509], [-75.824444, -9.0920622], [-75.8218551, -9.0969495], [-75.8220031, -9.0987973], [-75.8201298, -9.1005908], [-75.8194631, -9.1038467], [-75.8195685, -9.1078666], [-75.8215989, -9.1113078], [-75.8209326, -9.1147552], [-75.8215179, -9.1180082], [-75.8161387, -9.124242], [-75.8144142, -9.128266], [-75.8099931, -9.1323917], [-75.8077853, -9.135651], [-75.8066364, -9.1387166], [-75.8058071, -9.1443331], [-75.804588, -9.1489438], [-75.8024519, -9.1517756], [-75.8017967, -9.1568997], [-75.7996284, -9.1617313], [-75.801111, -9.1649397], [-75.8009474, -9.1702811], [-75.7995115, -9.172274], [-75.7990319, -9.1777209], [-75.7982282, -9.1796426], [-75.7958093, -9.1819519], [-75.795222, -9.1855151], [-75.796751, -9.190824], [-75.7956755, -9.1944876], [-75.7956952, -9.2033175], [-75.7913649, -9.2054089], [-75.7894921, -9.2079974], [-75.7842901, -9.2080087], [-75.7814065, -9.2109583], [-75.7795341, -9.2137621], [-75.7759295, -9.2174311], [-75.7750675, -9.2197302], [-75.7708058, -9.2203136], [-75.7678391, -9.2183099], [-75.7637903, -9.2170981], [-75.7635079, -9.2201856], [-75.761922, -9.2219119], [-75.7618556, -9.22464], [-75.7600546, -9.2271564], [-75.7602076, -9.2311045], [-75.7593703, -9.2318802], [-75.7639628, -9.2378482]]]}}, {"type": "Feature", "properties": {"ubigeo": "100604", "nombre": "JOSE CRESPO Y CASTILLO", "ubigeo_provincia": "1006", "nombre_provincia": "LEONCIO PRADO", "ubigeo_departamento": "10", "nombre_departamento": "HUANUCO", "fuente": "INEI", "ley_creacion": null, "fecha_creacion": null, "metodo": "publicado por el INEI (WFS Interoperabilidad)", "confianza": "oficial", "ubigeo_provisional": false, "ubigeo_fuente": null, "advertencia": null, "ccdd": "10", "ccpp": "06", "ccdi": "04", "nombdist": "JOSE CRESPO Y CASTILLO", "fuente_inei": "V Censo Nacional Economico", "periodo": 1, "ccdd_c": "100", "ccpp_c": "02", "ccdi_c": "00", "fec_reg": "2022-07-22T01:39:29Z"}, "geometry": {"type": "Polygon", "coordinates": [[[-76.0989199, -9.026346], [-76.1012684, -9.0265063], [-76.1037579, -9.025402], [-76.104853, -9.0226768], [-76.1073826, -9.0213285], [-76.1072086, -9.0178758], [-76.1116597, -9.0168061], [-76.113504, -9.0149827], [-76.1145203, -9.0172581], [-76.1169281, -9.0175499], [-76.1192381, -9.0197083], [-76.1217956, -9.0248114], [-76.1235946, -9.027505], [-76.1274123, -9.0291586], [-76.1275924, -9.0313402], [-76.1334898, -9.0329874], [-76.135151, -9.0285031], [-76.136762, -9.0264308], [-76.1403965, -9.0249264], [-76.1411537, -9.026934], [-76.1437005, -9.028534], [-76.1453846, -9.0313426], [-76.147699, -9.0325413], [-76.1498527, -9.0377028], [-76.1555738, -9.0419687], [-76.1552323, -9.0435777], [-76.1594666, -9.0489623], [-76.1603429, -9.0520031], [-76.1589062, -9.054362], [-76.1598482, -9.0598718], [-76.1580056, -9.0617727], [-76.1587119, -9.0658476], [-76.1603989, -9.0694601], [-76.1645035, -9.0703084], [-76.1682525, -9.0684014], [-76.1705009, -9.0705304], [-76.1744855, -9.0700008], [-76.1787054, -9.0707912], [-76.1805528, -9.0703833], [-76.1824629, -9.0714681], [-76.1867393, -9.0718563], [-76.1909685, -9.0754603], [-76.1905241, -9.0808596], [-76.1886824, -9.0829903], [-76.1897039, -9.0861583], [-76.1964945, -9.093749], [-76.1978359, -9.0975346], [-76.1976695, -9.0996024], [-76.1988896, -9.1016657], [-76.1987911, -9.1067767], [-76.2004776, -9.1100444], [-76.2041818, -9.1119845], [-76.2056601, -9.1220518], [-76.2084337, -9.1221], [-76.2104637, -9.1243902], [-76.2116887, -9.1278316], [-76.2120476, -9.1314481], [-76.211712, -9.1347223], [-76.2122964, -9.1366728], [-76.2154687, -9.139334], [-76.2166289, -9.139502], [-76.2265625, -9.1382051], [-76.2325215, -9.1393906], [-76.2348632, -9.1402735], [-76.2407989, -9.1440137], [-76.2441641, -9.1469882], [-76.2468945, -9.1514043], [-76.2500937, -9.1592968], [-76.2517891, -9.1622168], [-76.2527187, -9.1656797], [-76.254498, -9.1781268], [-76.2562051, -9.1831308], [-76.257246, -9.1894218], [-76.2590332, -9.1936485], [-76.263002, -9.198086], [-76.2640976, -9.2017637], [-76.2667559, -9.2053808], [-76.2720305, -9.2138279], [-76.2747454, -9.2082896], [-76.2748454, -9.2015772], [-76.2756449, -9.1989955], [-76.2780932, -9.1950312], [-76.2851056, -9.1917167], [-76.2929506, -9.1838716], [-76.2969815, -9.1838216], [-76.29933, -9.181623], [-76.3000296, -9.1796576], [-76.3022947, -9.1776921], [-76.3080911, -9.1763263], [-76.311589, -9.1760765], [-76.3149202, -9.1769926], [-76.3203501, -9.1803072], [-76.3283285, -9.1845545], [-76.3324426, -9.185354], [-76.3382056, -9.1846211], [-76.3425362, -9.187636], [-76.3445684, -9.1882188], [-76.3464837, -9.1909006], [-76.3494985, -9.193299], [-76.3523967, -9.1931825], [-76.3591591, -9.1970633], [-76.3618907, -9.1967136], [-76.3626404, -9.1952311], [-76.3672375, -9.192433], [-76.3699857, -9.1916501], [-76.374866, -9.1872028], [-76.3789967, -9.187003], [-76.3816617, -9.1851541], [-76.3850096, -9.1846877], [-76.3866252, -9.1859703], [-76.3896567, -9.18642], [-76.3941206, -9.185404], [-76.3984512, -9.1858371], [-76.4014992, -9.1880856], [-76.4061464, -9.1882188], [-76.4088946, -9.1855706], [-76.4104104, -9.1790746], [-76.4128589, -9.1772257], [-76.4154239, -9.1775256], [-76.4198211, -9.1791746], [-76.4230025, -9.1793245], [-76.4298149, -9.1786748], [-76.4332794, -9.1802406], [-76.44299, -9.1811233], [-76.4473705, -9.1797242], [-76.4501687, -9.1776422], [-76.4534834, -9.1770092], [-76.4577807, -9.1719623], [-76.4626942, -9.169514], [-76.4652594, -9.1692975], [-76.4720884, -9.1702801], [-76.4741037, -9.1701468], [-76.4804292, -9.1718117], [-76.4801517, -9.1704202], [-76.4745684, -9.0397715], [-76.473443, -9.0139555], [-76.4740697, -9.0124158], [-76.4717136, -9.009237], [-76.4671664, -9.007638], [-76.4607189, -8.9999888], [-76.45872, -8.99866], [-76.45823, -8.99671], [-76.45551, -8.99471], [-76.45238, -8.9961], [-76.45033, -8.99586], [-76.44722, -8.99419], [-76.44568, -8.99155], [-76.4432577, -8.9899927], [-76.4398282, -8.9866696], [-76.4373, -8.9856], [-76.43276, -8.98626], [-76.42372, -8.98682], [-76.41923, -8.9864], [-76.41621, -8.98834], [-76.41311, -8.99196], [-76.40755, -8.99662], [-76.40306, -8.99892], [-76.4006444, -9.0012328], [-76.398741, -9.001885], [-76.3963971, -9.0042112], [-76.3948286, -9.0080532], [-76.3932776, -9.009939], [-76.3891185, -9.0130936], [-76.3864221, -9.0126882], [-76.3845892, -9.0137103], [-76.381699, -9.0128468], [-76.3811879, -9.0178872], [-76.3762709, -9.019068], [-76.3739145, -9.0205383], [-76.37116, -9.0238792], [-76.3706665, -9.025342], [-76.3661549, -9.026047], [-76.3601276, -9.0252891], [-76.3569377, -9.0244256], [-76.3530429, -9.0241788], [-76.3470566, -9.0209882], [-76.3429445, -9.0207422], [-76.3393846, -9.0189093], [-76.3367057, -9.0188212], [-76.3302026, -9.0164421], [-76.3280526, -9.0163187], [-76.3261845, -9.0125825], [-76.3236114, -9.0120361], [-76.3199105, -9.0124415], [-76.3178661, -9.0117894], [-76.3146939, -9.008811], [-76.3112925, -9.0083], [-76.3087724, -9.0093045], [-76.3039259, -9.005392], [-76.3011765, -9.0053743], [-76.2990617, -9.0041231], [-76.2996785, -9.0015501], [-76.2941032, -8.9970647], [-76.2919879, -8.9989136], [-76.28854, -8.998164], [-76.2858084, -8.9959821], [-76.282244, -8.9952658], [-76.2801786, -8.9967482], [-76.2783631, -8.9963318], [-76.2755481, -8.9933337], [-76.2727332, -8.9895195], [-76.2725966, -8.9860858], [-76.270035, -8.9853054], [-76.2673366, -8.9808415], [-76.2668702, -8.979126], [-76.2675199, -8.9758447], [-76.2649049, -8.9747121], [-76.262623, -8.9750951], [-76.2602245, -8.9776602], [-76.2587254, -8.9780932], [-76.2560604, -8.9771106], [-76.2527457, -8.9770772], [-76.25128, -8.9748453], [-76.2527125, -8.9707978], [-76.2501474, -8.9718472], [-76.247016, -8.9703481], [-76.2435682, -8.9708977], [-76.2417194, -8.9703647], [-76.2409844, -8.9678516], [-76.2436507, -8.9660461], [-76.2431186, -8.9644153], [-76.2409385, -8.9639519], [-76.2393446, -8.9614537], [-76.2332319, -8.957706], [-76.2301671, -8.9575061], [-76.2292471, -8.9544858], [-76.2299839, -8.9505605], [-76.233465, -8.9475623], [-76.2360967, -8.9468961], [-76.2346476, -8.9438647], [-76.2317994, -8.943998], [-76.2290177, -8.9408], [-76.228618, -8.9378685], [-76.2253867, -8.9352535], [-76.2251202, -8.9332381], [-76.2263029, -8.9310061], [-76.2252369, -8.9298901], [-76.2221055, -8.9289407], [-76.2222221, -8.9272751], [-76.2193405, -8.9222116], [-76.2183245, -8.9248766], [-76.215926, -8.9246101], [-76.2162757, -8.9216952], [-76.2174917, -8.9203627], [-76.2176416, -8.9169982], [-76.2229716, -8.9169648], [-76.2239876, -8.915799], [-76.223388, -8.9137336], [-76.2209062, -8.9106522], [-76.2221221, -8.9074042], [-76.2243041, -8.9053555], [-76.2235212, -8.9024073], [-76.2193405, -8.9021742], [-76.2203399, -8.8954117], [-76.2182912, -8.8932797], [-76.2184744, -8.8912976], [-76.2227717, -8.8907813], [-76.2250204, -8.8866672], [-76.2226885, -8.885518], [-76.2220014, -8.8830923], [-76.2187909, -8.8824532], [-76.2199569, -8.880721], [-76.2252369, -8.8813706], [-76.2265194, -8.8762903], [-76.2235712, -8.8765736], [-76.2240376, -8.871177], [-76.2290011, -8.869961], [-76.2290511, -8.8661135], [-76.2257365, -8.8652973], [-76.220773, -8.8616996], [-76.2216557, -8.8597008], [-76.2266526, -8.8601672], [-76.2266026, -8.857852], [-76.2232547, -8.8567193], [-76.2222221, -8.8556534], [-76.2232547, -8.8507397], [-76.2224719, -8.8489242], [-76.2192072, -8.8474917], [-76.2192572, -8.8449101], [-76.216509, -8.8430612], [-76.2145435, -8.8408126], [-76.2116655, -8.840827], [-76.2096639, -8.8398401], [-76.2067764, -8.8396341], [-76.2061796, -8.8380856], [-76.2087145, -8.8363977], [-76.2081285, -8.8337437], [-76.2045936, -8.8341859], [-76.2017409, -8.8357455], [-76.2006642, -8.833093], [-76.2014682, -8.831784], [-76.204556, -8.8314582], [-76.2038625, -8.8268091], [-76.206628, -8.8250631], [-76.2066075, -8.8231825], [-76.2044566, -8.8231032], [-76.2021102, -8.8250058], [-76.199841, -8.8240081], [-76.2004519, -8.8210057], [-76.2002825, -8.81769], [-76.2021796, -8.815229], [-76.1979245, -8.8160322], [-76.1995891, -8.8130551], [-76.2033257, -8.8125981], [-76.2035, -8.8084773], [-76.1997052, -8.8087622], [-76.196816, -8.8079245], [-76.1956719, -8.8067077], [-76.1951275, -8.803465], [-76.1919052, -8.8022692], [-76.192591, -8.8000706], [-76.1950199, -8.801398], [-76.1966276, -8.7987226], [-76.1952382, -8.7975067], [-76.191327, -8.7974761], [-76.1896769, -8.7959452], [-76.1911869, -8.7942751], [-76.1958339, -8.7942317], [-76.1967676, -8.7928649], [-76.1966705, -8.789592], [-76.1985287, -8.788495], [-76.1984494, -8.7862843], [-76.1967291, -8.7853853], [-76.1972522, -8.78201], [-76.1989121, -8.7820621], [-76.2019795, -8.7845216], [-76.2043611, -8.7846576], [-76.205508, -8.78675], [-76.2077177, -8.7872741], [-76.2071795, -8.7903911], [-76.2099882, -8.7887167], [-76.214621, -8.7904247], [-76.2175828, -8.7904414], [-76.2185417, -8.7917486], [-76.2226186, -8.790911], [-76.2269939, -8.7926041], [-76.2316925, -8.7972253], [-76.2348263, -8.7958222], [-76.2371182, -8.7931093], [-76.236136, -8.789274], [-76.2334231, -8.7817435], [-76.2325345, -8.7807613], [-76.2302894, -8.7831396], [-76.2262641, -8.7858567], [-76.2231445, -8.7854542], [-76.2195217, -8.7836428], [-76.217593, -8.7787905], [-76.2161705, -8.7777423], [-76.2113354, -8.7775425], [-76.2089251, -8.7759711], [-76.2037955, -8.7739537], [-76.1998909, -8.7714058], [-76.1985867, -8.7697351], [-76.1983811, -8.7656203], [-76.2045162, -8.7587816], [-76.2045274, -8.7547378], [-76.2034165, -8.7533297], [-76.2006017, -8.7530993], [-76.1986139, -8.7556898], [-76.1979997, -8.7591851], [-76.1954107, -8.7618492], [-76.1914871, -8.7608567], [-76.1885416, -8.7573008], [-76.1861069, -8.7555378], [-76.1836534, -8.7554498], [-76.1788385, -8.758103], [-76.1750031, -8.7593988], [-76.1716738, -8.7572692], [-76.1708628, -8.7637838], [-76.1681207, -8.7698608], [-76.1660456, -8.780088], [-76.1646376, -8.7837193], [-76.1613767, -8.7878695], [-76.1607097, -8.7942429], [-76.1590793, -8.7962439], [-76.1584864, -8.8013575], [-76.1572266, -8.806471], [-76.1550774, -8.8101765], [-76.1499194, -8.8116291], [-76.1467859, -8.8153517], [-76.1419043, -8.8162766], [-76.1360122, -8.8199935], [-76.1341794, -8.8220489], [-76.1302673, -8.8278417], [-76.1269273, -8.8308563], [-76.1208364, -8.8381084], [-76.1176196, -8.8363725], [-76.111751, -8.8356335], [-76.1078962, -8.8320355], [-76.1076164, -8.8300768], [-76.1044686, -8.8301468], [-76.0984017, -8.8291092], [-76.097529, -8.8296281], [-76.0930155, -8.8282603], [-76.0914485, -8.829834], [-76.0857558, -8.8301045], [-76.0831213, -8.8287579], [-76.0817933, -8.823625], [-76.07594, -8.82045], [-76.07467, -8.82305], [-76.0745, -8.82543], [-76.06969, -8.82648], [-76.06827, -8.82782], [-76.06962, -8.83067], [-76.06645, -8.83267], [-76.06452, -8.8327], [-76.06073, -8.83146], [-76.05589, -8.8311], [-76.05201, -8.83366], [-76.05013, -8.83584], [-76.04367, -8.835], [-76.04103, -8.83375], [-76.03289, -8.83427], [-76.03016, -8.83609], [-76.0277, -8.83435], [-76.02415, -8.83533], [-76.02271, -8.83642], [-76.02221, -8.84191], [-76.01793, -8.84335], [-76.0189063, -8.8362949], [-76.0189717, -8.8325434], [-76.0201032, -8.8307567], [-76.0214512, -8.8243281], [-76.0215325, -8.8213471], [-76.0258204, -8.8171903], [-76.0275475, -8.8145699], [-76.0277262, -8.8118304], [-76.0263907, -8.8107539], [-76.0236765, -8.8048625], [-76.0239147, -8.7998599], [-76.0220685, -8.7949765], [-76.0224258, -8.7928325], [-76.0259991, -8.7821247], [-76.0262969, -8.7796829], [-76.0257609, -8.7736084], [-76.0234383, -8.7700947], [-76.0221281, -8.7612211], [-76.0221281, -8.7573501], [-76.0193945, -8.7498066], [-76.0186035, -8.744625], [-76.0192099, -8.7406629], [-76.0167086, -8.739055], [-76.0161726, -8.7342906], [-76.0131949, -8.7294667], [-76.0134903, -8.7247305], [-76.015458, -8.719402], [-76.0165117, -8.718082], [-76.0205796, -8.7167221], [-76.0212943, -8.7157097], [-76.0219494, -8.7090991], [-76.0215313, -8.7049199], [-76.0206392, -8.7026434], [-76.020334, -8.698082], [-76.0208774, -8.6955565], [-76.0207583, -8.6889459], [-76.0212347, -8.6869806], [-76.0230809, -8.6866829], [-76.0259219, -8.6824296], [-76.0259157, -8.6789765], [-76.0274453, -8.6721015], [-76.0288008, -8.6700801], [-76.0319307, -8.6694478], [-76.0318711, -8.6656959], [-76.0365164, -8.6658746], [-76.0380648, -8.6644453], [-76.0420549, -8.663552], [-76.0456282, -8.6598], [-76.0479508, -8.660336], [-76.0504521, -8.6620631], [-76.053668, -8.6580134], [-76.0561407, -8.6506406], [-76.057498, -8.6481171], [-76.0568244, -8.6443755], [-76.0575859, -8.6400918], [-76.0587897, -8.6365262], [-76.0621843, -8.6350969], [-76.0644474, -8.6334294], [-76.0667104, -8.6282482], [-76.0684971, -8.6194937], [-76.0702241, -8.6144316], [-76.0711835, -8.6132421], [-76.0717726, -8.6063917], [-76.0689139, -8.6031758], [-76.0676871, -8.5985544], [-76.0639352, -8.5952193], [-76.0595877, -8.5952193], [-76.0534536, -8.5960531], [-76.0517207, -8.5939726], [-76.0502377, -8.5897999], [-76.0502377, -8.5869413], [-76.0519998, -8.5808163], [-76.0544065, -8.5766384], [-76.0554189, -8.5713976], [-76.0550616, -8.5694918], [-76.0529176, -8.5650253], [-76.0531559, -8.5604396], [-76.0517327, -8.5565953], [-76.0515479, -8.553031], [-76.0561992, -8.5469785], [-76.0550567, -8.5448614], [-76.0557167, -8.5425495], [-76.0531559, -8.5408819], [-76.0491062, -8.5395122], [-76.0457324, -8.5394921], [-76.0427339, -8.5386784], [-76.0404727, -8.5395156], [-76.0364807, -8.5362605], [-76.035766, -8.5320322], [-76.0284317, -8.532416], [-76.0277857, -8.5294713], [-76.0238867, -8.5267539], [-76.0185548, -8.5245283], [-76.011706, -8.5203], [-76.0071204, -8.5216697], [-76.0015, -8.5195528], [-75.9981015, -8.5194883], [-75.9925585, -8.5167403], [-75.9899092, -8.5166076], [-75.9870367, -8.5141629], [-75.9838871, -8.5127313], [-75.9827418, -8.5101543], [-75.9824554, -8.5065275], [-75.9831235, -8.5020417], [-75.9829327, -8.4937382], [-75.9810547, -8.4885489], [-75.9749155, -8.4918293], [-75.9711113, -8.4949668], [-75.963086, -8.5045976], [-75.964916, -8.5051895], [-75.9678222, -8.5074492], [-75.9707266, -8.5124003], [-75.9709395, -8.517041], [-75.9684454, -8.5227656], [-75.9686816, -8.5287558], [-75.967875, -8.5330078], [-75.9675605, -8.5380547], [-75.965086, -8.5427148], [-75.9653847, -8.5460488], [-75.9696679, -8.5492538], [-75.9708867, -8.5519531], [-75.9698554, -8.554082], [-75.9709024, -8.5579863], [-75.9703301, -8.5605742], [-75.9678574, -8.5641426], [-75.9663145, -8.5687832], [-75.967123, -8.5734648], [-75.9667461, -8.5759922], [-75.9650235, -8.5799746], [-75.9659922, -8.5841718], [-75.9657774, -8.5890137], [-75.9663145, -8.5920273], [-75.9722342, -8.5995058], [-75.9727187, -8.6012285], [-75.9720196, -8.6079003], [-75.972287, -8.6105371], [-75.9737011, -8.6153301], [-75.9752735, -8.617625], [-75.9778829, -8.6234805], [-75.9796972, -8.6322676], [-75.9797597, -8.636002], [-75.9778145, -8.6422715], [-75.9775917, -8.6449726], [-75.9790136, -8.649707], [-75.9788516, -8.6548183], [-75.9771309, -8.6562168], [-75.9755156, -8.6607363], [-75.9703496, -8.6664412], [-75.967791, -8.6724082], [-75.9676289, -8.6784433], [-75.9663164, -8.6848261], [-75.9648965, -8.6957481], [-75.9632871, -8.698508], [-75.9606406, -8.7008145], [-75.9555059, -8.7027246], [-75.9491427, -8.7092051], [-75.9464649, -8.7135507], [-75.9460072, -8.7151914], [-75.9478237, -8.72067], [-75.947886, -8.7225076], [-75.9449523, -8.726535], [-75.9438786, -8.7310746], [-75.9400278, -8.737746], [-75.9389987, -8.7417112], [-75.9388382, -8.7467654], [-75.9375186, -8.7499848], [-75.9366066, -8.7546388], [-75.9314855, -8.7613134], [-75.9301718, -8.7669447], [-75.9259117, -8.7717219], [-75.9236162, -8.7755315], [-75.9216465, -8.7808085], [-75.9224194, -8.783561], [-75.9220796, -8.7862036], [-75.9232468, -8.791312], [-75.9250458, -8.7950405], [-75.9254588, -8.7986002], [-75.9272002, -8.8023863], [-75.9287731, -8.8080105], [-75.9275669, -8.8105404], [-75.9272854, -8.8134126], [-75.9292007, -8.8174279], [-75.9288211, -8.8272494], [-75.9274975, -8.8289755], [-75.9278549, -8.8333967], [-75.9268841, -8.8377064], [-75.9279936, -8.8426426], [-75.927598, -8.8460893], [-75.9252422, -8.850747], [-75.9224054, -8.8532171], [-75.921993, -8.8568966], [-75.9261265, -8.8580925], [-75.9322002, -8.8623272], [-75.9328964, -8.8636463], [-75.9352839, -8.8715656], [-75.9359866, -8.8754116], [-75.9359376, -8.8788575], [-75.9369275, -8.8820711], [-75.9387826, -8.8849379], [-75.9427126, -8.8861914], [-75.9446087, -8.8824537], [-75.9460512, -8.8819906], [-75.9484219, -8.8831906], [-75.9500448, -8.8855411], [-75.9536324, -8.888346], [-75.956291, -8.8892006], [-75.9593478, -8.887757], [-75.9699762, -8.8888781], [-75.9723504, -8.8897366], [-75.9720069, -8.8924908], [-75.9701794, -8.9002485], [-75.970077, -8.9051876], [-75.9677785, -8.9095582], [-75.9678466, -8.9135206], [-75.9719603, -8.9185636], [-75.9730074, -8.9214323], [-75.9736582, -8.9272883], [-75.9749916, -8.92918], [-75.9805374, -8.9297397], [-75.984183, -8.9324292], [-75.9864955, -8.9332845], [-75.9899587, -8.9325287], [-75.9927791, -8.929018], [-75.9961233, -8.926999], [-76.0006817, -8.9254936], [-76.0043222, -8.9262878], [-76.0079685, -8.9291493], [-76.0078653, -8.933629], [-76.0094877, -8.9355772], [-76.0120903, -8.9368909], [-76.0128579, -8.9429762], [-76.012601, -8.9545199], [-76.0143404, -8.9569271], [-76.0189701, -8.9601878], [-76.0243474, -8.9622978], [-76.0293791, -8.9646958], [-76.0308311, -8.9675631], [-76.0348272, -8.9713422], [-76.0372573, -8.9728285], [-76.0399235, -8.9760943], [-76.0442627, -8.9786089], [-76.0469273, -8.9813004], [-76.0573364, -8.9855204], [-76.0612751, -8.9892992], [-76.0629604, -8.9927974], [-76.0675224, -8.9923823], [-76.0709337, -8.9935209], [-76.0740617, -8.990809], [-76.079035, -8.992666], [-76.080043, -8.993704], [-76.090674, -8.998719], [-76.0971975, -9.003664], [-76.0995532, -9.0041725], [-76.1011853, -9.0075012], [-76.101134, -9.0096262], [-76.0998731, -9.0129032], [-76.098031, -9.0150335], [-76.0950313, -9.0163632], [-76.0935382, -9.0192964], [-76.0938353, -9.022052], [-76.0963389, -9.0289664], [-76.0989199, -9.026346]]]}}, {"type": "Feature", "properties": {"ubigeo": "100605", "nombre": "LUYANDO", "ubigeo_provincia": "1006", "nombre_provincia": "LEONCIO PRADO", "ubigeo_departamento": "10", "nombre_departamento": "HUANUCO", "fuente": "INEI", "ley_creacion": null, "fecha_creacion": null, "metodo": "publicado por el INEI (WFS Interoperabilidad)", "confianza": "oficial", "ubigeo_provisional": false, "ubigeo_fuente": null, "advertencia": null, "ccdd": "10", "ccpp": "06", "ccdi": "05", "nombdist": "LUYANDO", "fuente_inei": "V Censo Nacional Economico", "periodo": 1, "ccdd_c": "100", "ccpp_c": "02", "ccdi_c": "00", "fec_reg": "2022-07-22T01:39:29Z"}, "geometry": {"type": "Polygon", "coordinates": [[[-75.9972881, -9.1578403], [-75.9942571, -9.1588776], [-75.9901291, -9.1594392], [-75.989402, -9.1620972], [-75.989943, -9.1661516], [-75.9881766, -9.1674007], [-75.9860456, -9.1674185], [-75.9853899, -9.1653983], [-75.9830587, -9.1626888], [-75.9813425, -9.1630215], [-75.9796931, -9.1663311], [-75.9784607, -9.1669296], [-75.9736261, -9.1623215], [-75.9719864, -9.1625412], [-75.969123, -9.1644297], [-75.9681609, -9.1659105], [-75.9695739, -9.1719785], [-75.9683055, -9.1737286], [-75.9699162, -9.177194], [-75.9688457, -9.1788437], [-75.9651836, -9.1769225], [-75.9621772, -9.177637], [-75.959466, -9.178276], [-75.9576987, -9.1801948], [-75.9589334, -9.1875901], [-75.9578769, -9.1908865], [-75.9535082, -9.1918287], [-75.9511847, -9.1959055], [-75.948359, -9.1982819], [-75.9476889, -9.1998628], [-75.9497756, -9.206858], [-75.9485406, -9.2088053], [-75.9468915, -9.2091198], [-75.9429916, -9.213384], [-75.942361, -9.2207903], [-75.9412929, -9.2216181], [-75.9372116, -9.2217381], [-75.9361642, -9.2228838], [-75.936171, -9.2254083], [-75.9379175, -9.22766], [-75.939761, -9.2286788], [-75.9396559, -9.2305477], [-75.9367342, -9.2303566], [-75.9352681, -9.2320401], [-75.9391166, -9.2346838], [-75.9373799, -9.2361991], [-75.9339955, -9.235055], [-75.9335991, -9.2364872], [-75.9359271, -9.2402206], [-75.9325451, -9.2418852], [-75.9301177, -9.2447988], [-75.9265712, -9.2452675], [-75.9244027, -9.2477066], [-75.9235484, -9.2525975], [-75.9212277, -9.2550362], [-75.9202399, -9.2584852], [-75.916703, -9.2627798], [-75.9135034, -9.2633265], [-75.909248, -9.260832], [-75.9070111, -9.2620651], [-75.9063361, -9.263682], [-75.9032917, -9.2656422], [-75.9009646, -9.2655476], [-75.8953242, -9.2629453], [-75.8917237, -9.2660373], [-75.8927212, -9.2718782], [-75.8901029, -9.2708655], [-75.8893894, -9.2687567], [-75.8864165, -9.267594], [-75.8848774, -9.2683362], [-75.8848587, -9.2717112], [-75.8824726, -9.276936], [-75.8801634, -9.2781763], [-75.8777282, -9.2782326], [-75.8742444, -9.284072], [-75.8711195, -9.2854667], [-75.868715, -9.2852425], [-75.8639621, -9.2883348], [-75.863163, -9.2898036], [-75.8604475, -9.2910676], [-75.8572782, -9.2937929], [-75.8603216, -9.2949693], [-75.8624042, -9.2967422], [-75.8618755, -9.2990083], [-75.8625846, -9.3009708], [-75.8624634, -9.3067897], [-75.861747, -9.3101481], [-75.8585629, -9.3123823], [-75.8607957, -9.3171664], [-75.8609159, -9.3191707], [-75.8590349, -9.3226327], [-75.855459, -9.3254127], [-75.8539775, -9.3302328], [-75.8591954, -9.3301836], [-75.8609395, -9.329209], [-75.8619141, -9.3267735], [-75.8656016, -9.3240878], [-75.8690117, -9.3228672], [-75.8717344, -9.3207891], [-75.8736954, -9.3178535], [-75.8760079, -9.3163476], [-75.8786699, -9.3158262], [-75.8810957, -9.3127715], [-75.8810879, -9.3099492], [-75.8831016, -9.3057481], [-75.8830332, -9.3025818], [-75.8847127, -9.3002793], [-75.8873594, -9.2935371], [-75.890998, -9.289334], [-75.8912207, -9.2867988], [-75.893707, -9.2843242], [-75.8989707, -9.2827558], [-75.9005957, -9.2835566], [-75.903084, -9.282918], [-75.9044121, -9.28142], [-75.9098574, -9.2815156], [-75.9129882, -9.2836426], [-75.9149102, -9.2866211], [-75.9191445, -9.2906992], [-75.9210664, -9.2945468], [-75.9231562, -9.2965566], [-75.924377, -9.2993125], [-75.9247011, -9.3046075], [-75.9237402, -9.3084785], [-75.9261816, -9.3128165], [-75.9296349, -9.3153086], [-75.9348104, -9.3160287], [-75.936993, -9.311653], [-75.9390036, -9.3102967], [-75.9403481, -9.3082147], [-75.9391702, -9.3043005], [-75.9403719, -9.3032297], [-75.9415021, -9.2997557], [-75.9411095, -9.2969836], [-75.9428584, -9.2909755], [-75.9458804, -9.2894765], [-75.9475579, -9.2871921], [-75.947308, -9.2859548], [-75.9498064, -9.2810531], [-75.950782, -9.281886], [-75.9549272, -9.2817298], [-75.953428, -9.2782832], [-75.9533519, -9.2759695], [-75.9514185, -9.2739708], [-75.951707, -9.2717402], [-75.9507341, -9.2703864], [-75.9514907, -9.2671397], [-75.9535292, -9.2629961], [-75.9583886, -9.260336], [-75.9620976, -9.2622246], [-75.9666289, -9.262502], [-75.9696114, -9.2643653], [-75.9731347, -9.2637245], [-75.9781191, -9.2668125], [-75.9806797, -9.2667558], [-75.9829199, -9.2677735], [-75.9858789, -9.2706387], [-75.9898242, -9.2731503], [-75.9919961, -9.2734902], [-76.00103, -9.2765598], [-76.0020879, -9.2716231], [-76.0017647, -9.2675954], [-76.0056454, -9.2603388], [-76.0061402, -9.2555559], [-76.0042435, -9.2514052], [-76.0036388, -9.2482166], [-76.0016047, -9.2419219], [-76.0007324, -9.2346856], [-75.9981119, -9.2321337], [-75.9950079, -9.2264024], [-75.9942929, -9.2241097], [-75.9956123, -9.2208936], [-75.9988058, -9.2154006], [-76.0004777, -9.2065174], [-76.0016322, -9.2036586], [-76.0049032, -9.1982985], [-76.0069099, -9.1929108], [-76.0067724, -9.1906293], [-76.008543, -9.1860976], [-76.0103246, -9.1843156], [-76.010864, -9.181762], [-76.0140554, -9.1750491], [-76.0150719, -9.1737779], [-76.0171246, -9.1684797], [-76.0191719, -9.1656139], [-76.0186737, -9.1602626], [-76.0189921, -9.15727], [-76.0175237, -9.1579285], [-76.0165336, -9.1620086], [-76.0136557, -9.1627057], [-76.0102587, -9.1577348], [-76.0072156, -9.1586406], [-76.005169, -9.1583498], [-76.0031451, -9.1592866], [-76.0003496, -9.1584336], [-75.9972881, -9.1578403]]]}}, {"type": "Feature", "properties": {"ubigeo": "100606", "nombre": "MARIANO DAMASO BERAUN", "ubigeo_provincia": "1006", "nombre_provincia": "LEONCIO PRADO", "ubigeo_departamento": "10", "nombre_departamento": "HUANUCO", "fuente": "INEI", "ley_creacion": null, "fecha_creacion": null, "metodo": "publicado por el INEI (WFS Interoperabilidad)", "confianza": "oficial", "ubigeo_provisional": false, "ubigeo_fuente": null, "advertencia": null, "ccdd": "10", "ccpp": "06", "ccdi": "06", "nombdist": "MARIANO DAMASO BERAUN", "fuente_inei": "V Censo Nacional Economico", "periodo": 1, "ccdd_c": "100", "ccpp_c": "02", "ccdi_c": "00", "fec_reg": "2022-07-22T01:39:29Z"}, "geometry": {"type": "Polygon", "coordinates": [[[-75.9296349, -9.3153086], [-75.9261816, -9.3128165], [-75.9237402, -9.3084785], [-75.9247011, -9.3046075], [-75.924377, -9.2993125], [-75.9231562, -9.2965566], [-75.9210664, -9.2945468], [-75.9191445, -9.2906992], [-75.9149102, -9.2866211], [-75.9129882, -9.2836426], [-75.9098574, -9.2815156], [-75.9044121, -9.28142], [-75.903084, -9.282918], [-75.9005957, -9.2835566], [-75.8989707, -9.2827558], [-75.893707, -9.2843242], [-75.8912207, -9.2867988], [-75.890998, -9.289334], [-75.8873594, -9.2935371], [-75.8847127, -9.3002793], [-75.8830332, -9.3025818], [-75.8831016, -9.3057481], [-75.8810879, -9.3099492], [-75.8810957, -9.3127715], [-75.8786699, -9.3158262], [-75.8760079, -9.3163476], [-75.8736954, -9.3178535], [-75.8717344, -9.3207891], [-75.8690117, -9.3228672], [-75.8656016, -9.3240878], [-75.8619141, -9.3267735], [-75.8609395, -9.329209], [-75.8591954, -9.3301836], [-75.8539775, -9.3302328], [-75.8539495, -9.3320373], [-75.8489665, -9.3336466], [-75.8453946, -9.3367125], [-75.8460547, -9.3422735], [-75.8450069, -9.3437771], [-75.8418652, -9.3444531], [-75.8363537, -9.3482248], [-75.8341601, -9.3518281], [-75.8339089, -9.353495], [-75.830834, -9.3573307], [-75.8287129, -9.3625097], [-75.8269315, -9.3642657], [-75.8243381, -9.3716982], [-75.8214981, -9.3730567], [-75.8212961, -9.3844833], [-75.8200529, -9.388626], [-75.8161981, -9.3919846], [-75.8185086, -9.3953308], [-75.8211486, -9.3963784], [-75.8212045, -9.3985435], [-75.8234812, -9.4007365], [-75.8255904, -9.4015746], [-75.8300881, -9.4064075], [-75.8325885, -9.4064494], [-75.8337757, -9.4084747], [-75.8373655, -9.4108912], [-75.8378964, -9.4134613], [-75.8394886, -9.4159896], [-75.8417934, -9.4173026], [-75.843707, -9.4211298], [-75.8459929, -9.4210704], [-75.8499647, -9.425027], [-75.8534289, -9.426759], [-75.8619912, -9.42282], [-75.8643937, -9.4230295], [-75.8672324, -9.4217031], [-75.8707656, -9.4215215], [-75.8745351, -9.4231857], [-75.8761602, -9.4231191], [-75.878541, -9.4246132], [-75.8833457, -9.4253437], [-75.8867715, -9.4277597], [-75.8924024, -9.4331523], [-75.8947364, -9.4386641], [-75.8978204, -9.442455], [-75.9014746, -9.4449805], [-75.9037401, -9.447793], [-75.9053125, -9.4510097], [-75.914459, -9.4650527], [-75.919008, -9.4684103], [-75.920894, -9.4705156], [-75.925004, -9.4734656], [-75.930974, -9.4784456], [-75.930364, -9.4809056], [-75.930964, -9.4828856], [-75.933744, -9.4852956], [-75.937674, -9.4861556], [-75.942324, -9.4879656], [-75.943104, -9.4905556], [-75.945214, -9.4928656], [-75.945664, -9.4961356], [-75.946644, -9.4970256], [-75.9530559, -9.4957748], [-75.9568977, -9.4930983], [-75.9606995, -9.4953427], [-75.9634651, -9.4949848], [-75.9648437, -9.495836], [-75.9700965, -9.4972938], [-75.9749927, -9.5005647], [-75.9774805, -9.501394], [-75.9802715, -9.5038816], [-75.9876942, -9.5049333], [-75.9910315, -9.5043063], [-75.997544, -9.5051558], [-76.0020076, -9.5051385], [-76.0070076, -9.5070388], [-76.0113475, -9.5080291], [-76.0192069, -9.5050993], [-76.0197284, -9.5012087], [-76.0228279, -9.5010681], [-76.025455, -9.4996851], [-76.0298689, -9.498819], [-76.0326172, -9.4967036], [-76.0381471, -9.4964537], [-76.0418947, -9.49184], [-76.0429274, -9.4876926], [-76.0454091, -9.4840615], [-76.0476245, -9.4821293], [-76.0484072, -9.4799141], [-76.0503227, -9.4781985], [-76.0560192, -9.4772657], [-76.0582011, -9.4754002], [-76.0639809, -9.4753836], [-76.0665126, -9.4734348], [-76.0692942, -9.4733348], [-76.072209, -9.4715027], [-76.0756902, -9.4723022], [-76.0779387, -9.4715693], [-76.0808702, -9.4725187], [-76.0830522, -9.4713695], [-76.0859505, -9.472119], [-76.0914136, -9.4706866], [-76.0949281, -9.4726187], [-76.0978596, -9.4729351], [-76.1011361, -9.4766613], [-76.1035346, -9.478327], [-76.1074821, -9.4795762], [-76.1091977, -9.477261], [-76.1110466, -9.477211], [-76.1138115, -9.4756953], [-76.1179756, -9.4755787], [-76.1201076, -9.4762782], [-76.1246047, -9.4808087], [-76.1312839, -9.4794596], [-76.1342321, -9.4770611], [-76.1350982, -9.4747458], [-76.1389957, -9.4707317], [-76.1431765, -9.4698823], [-76.1459247, -9.4732135], [-76.1476236, -9.4737132], [-76.1512214, -9.4711315], [-76.1569012, -9.4706817], [-76.1605156, -9.4692327], [-76.1651127, -9.4714313], [-76.1682107, -9.4711815], [-76.1699264, -9.4721142], [-76.175323, -9.4780272], [-76.1778214, -9.4798593], [-76.1809027, -9.4835737], [-76.1843506, -9.4836903], [-76.1861995, -9.4861721], [-76.1868324, -9.48957], [-76.1895307, -9.4915021], [-76.1925122, -9.4946167], [-76.1952937, -9.4945002], [-76.1977422, -9.4966155], [-76.2001574, -9.4976482], [-76.2020062, -9.4970818], [-76.2046926, -9.4988761], [-76.2032344, -9.4967441], [-76.2038535, -9.4921503], [-76.2021914, -9.4881445], [-76.200912, -9.4867656], [-76.2008105, -9.48275], [-76.1990411, -9.4744941], [-76.2014785, -9.466], [-76.2017324, -9.4608262], [-76.2009882, -9.4543086], [-76.2015292, -9.4515938], [-76.2040351, -9.446711], [-76.208959, -9.4410371], [-76.2142597, -9.4370292], [-76.2208516, -9.4344863], [-76.2252754, -9.4322305], [-76.2309101, -9.4260137], [-76.2338476, -9.4199375], [-76.2353457, -9.418209], [-76.2351524, -9.4143632], [-76.2323535, -9.4053555], [-76.2319492, -9.3995], [-76.2320274, -9.3919218], [-76.2280566, -9.3867656], [-76.2277011, -9.3800293], [-76.2266097, -9.3776792], [-76.2223077, -9.3750903], [-76.2206896, -9.3725396], [-76.2184435, -9.3727108], [-76.2137797, -9.3703695], [-76.2117619, -9.3687705], [-76.2065271, -9.3670002], [-76.2049091, -9.363707], [-76.2068316, -9.361518], [-76.208621, -9.3625268], [-76.21022, -9.3610611], [-76.2076692, -9.3594621], [-76.202739, -9.3544557], [-76.1994649, -9.3529708], [-76.1972186, -9.3508198], [-76.1958671, -9.3473174], [-76.1937922, -9.3462513], [-76.1932021, -9.3445381], [-76.1889001, -9.3434911], [-76.1870726, -9.3398933], [-76.1837604, -9.3383515], [-76.1799724, -9.3339924], [-76.1762414, -9.3317651], [-76.175537, -9.329519], [-76.1724912, -9.3291763], [-76.167504, -9.3264351], [-76.1645915, -9.3254072], [-76.1572437, -9.3200011], [-76.1538934, -9.3153755], [-76.1495532, -9.3124248], [-76.1460484, -9.3066582], [-76.1417844, -9.3043597], [-76.140152, -9.3025275], [-76.1377702, -9.301828], [-76.134872, -9.3019945], [-76.128576, -9.3013116], [-76.1249616, -9.3024442], [-76.119465, -9.3029272], [-76.1132522, -9.3003955], [-76.1108537, -9.2980137], [-76.1077556, -9.2975473], [-76.1054239, -9.2963814], [-76.1024924, -9.2977472], [-76.0987114, -9.2978305], [-76.0958299, -9.2969976], [-76.0928317, -9.29868], [-76.0886676, -9.2998958], [-76.086036, -9.3027273], [-76.0831877, -9.3032271], [-76.0789904, -9.3013616], [-76.0771749, -9.2978805], [-76.0755759, -9.297031], [-76.0769916, -9.2947157], [-76.0757091, -9.2923838], [-76.0733201, -9.2916273], [-76.0703791, -9.2923672], [-76.0693464, -9.2899353], [-76.0691965, -9.286954], [-76.0665149, -9.2864876], [-76.0669534, -9.2829557], [-76.0633692, -9.282077], [-76.0592004, -9.2839235], [-76.0572206, -9.2810871], [-76.0551006, -9.2809828], [-76.0529101, -9.2830995], [-76.0512395, -9.2884947], [-76.0488632, -9.2913298], [-76.050023, -9.2973418], [-76.0492509, -9.3001725], [-76.0462976, -9.303397], [-76.0428912, -9.3097956], [-76.0406362, -9.3095848], [-76.0389412, -9.3120516], [-76.0349001, -9.3140253], [-76.0339749, -9.3188615], [-76.0317866, -9.3201838], [-76.0285612, -9.32523], [-76.0271064, -9.3261076], [-76.0227594, -9.3265507], [-76.0204879, -9.3241286], [-76.0148502, -9.3239413], [-76.0129197, -9.3227743], [-76.0050914, -9.3230837], [-76.0050391, -9.3216721], [-76.0086369, -9.3203937], [-76.0089017, -9.3178398], [-76.0066947, -9.3174012], [-76.0005586, -9.3209238], [-75.9935224, -9.32131], [-75.9885097, -9.3202637], [-75.9809565, -9.3208267], [-75.9744082, -9.3217422], [-75.9714112, -9.32131], [-75.9694785, -9.3219472], [-75.9667207, -9.3211231], [-75.9586114, -9.3209726], [-75.955543, -9.3217226], [-75.9521797, -9.3194882], [-75.9477695, -9.3189297], [-75.9445879, -9.3197988], [-75.9424434, -9.3192891], [-75.9397129, -9.3162481], [-75.9348104, -9.3160287], [-75.9296349, -9.3153086]]]}}, {"type": "Feature", "properties": {"ubigeo": "100607", "nombre": "PUCAYACU", "ubigeo_provincia": "1006", "nombre_provincia": "LEONCIO PRADO", "ubigeo_departamento": "10", "nombre_departamento": "HUANUCO", "fuente": "INEI", "ley_creacion": null, "fecha_creacion": null, "metodo": "publicado por el INEI (WFS Interoperabilidad)", "confianza": "oficial", "ubigeo_provisional": false, "ubigeo_fuente": null, "advertencia": null, "ccdd": "10", "ccpp": "06", "ccdi": "07", "nombdist": "PUCAYACU", "fuente_inei": "V Censo Nacional Economico", "periodo": 1, "ccdd_c": "100", "ccpp_c": "02", "ccdi_c": "00", "fec_reg": "2022-07-22T01:39:29Z"}, "geometry": {"type": "Polygon", "coordinates": [[[-75.9860048, -8.3248138], [-75.9852017, -8.3309475], [-75.9839796, -8.3313926], [-75.9770744, -8.337463], [-75.9748739, -8.340043], [-75.9736348, -8.342875], [-75.9695622, -8.3442923], [-75.9675893, -8.3458099], [-75.9670581, -8.348314], [-75.9683481, -8.3562056], [-75.9679509, -8.358171], [-75.9640794, -8.365177], [-75.9604002, -8.373532], [-75.9576835, -8.3765], [-75.9551266, -8.3818819], [-75.9520605, -8.3852546], [-75.9500931, -8.388755], [-75.9507063, -8.3926335], [-75.948623, -8.3947246], [-75.9463372, -8.3991233], [-75.9471804, -8.4021894], [-75.946976, -8.4089449], [-75.9463117, -8.4142594], [-75.9477425, -8.4195228], [-75.9471658, -8.422399], [-75.9497403, -8.4248616], [-75.9524267, -8.4303464], [-75.9529864, -8.4334806], [-75.9553847, -8.4394121], [-75.9576875, -8.4423398], [-75.9587011, -8.4458906], [-75.962877, -8.4502597], [-75.9649062, -8.4517422], [-75.9647891, -8.4556836], [-75.9654511, -8.4579472], [-75.967334, -8.4602285], [-75.9649922, -8.4615507], [-75.9634082, -8.4706367], [-75.9619024, -8.4756503], [-75.9609882, -8.476834], [-75.9574902, -8.4787168], [-75.9566836, -8.4826992], [-75.9554472, -8.4844746], [-75.956791, -8.4863575], [-75.955375, -8.4888125], [-75.9549629, -8.4917382], [-75.9553379, -8.4948593], [-75.9545312, -8.4978183], [-75.9549082, -8.5020156], [-75.9583516, -8.504543], [-75.963086, -8.5045976], [-75.9711113, -8.4949668], [-75.9749155, -8.4918293], [-75.9810547, -8.4885489], [-75.9829327, -8.4937382], [-75.9831235, -8.5020417], [-75.9824554, -8.5065275], [-75.9827418, -8.5101543], [-75.9838871, -8.5127313], [-75.9870367, -8.5141629], [-75.9899092, -8.5166076], [-75.9925585, -8.5167403], [-75.9981015, -8.5194883], [-76.0015, -8.5195528], [-76.0071204, -8.5216697], [-76.011706, -8.5203], [-76.0185548, -8.5245283], [-76.0238867, -8.5267539], [-76.0277857, -8.5294713], [-76.0284317, -8.532416], [-76.035766, -8.5320322], [-76.0364807, -8.5362605], [-76.0404727, -8.5395156], [-76.0427339, -8.5386784], [-76.0457324, -8.5394921], [-76.0491062, -8.5395122], [-76.0531559, -8.5408819], [-76.0557167, -8.5425495], [-76.0550567, -8.5448614], [-76.0561992, -8.5469785], [-76.0515479, -8.553031], [-76.0517327, -8.5565953], [-76.0531559, -8.5604396], [-76.0529176, -8.5650253], [-76.0550616, -8.5694918], [-76.0554189, -8.5713976], [-76.0544065, -8.5766384], [-76.0519998, -8.5808163], [-76.0502377, -8.5869413], [-76.0502377, -8.5897999], [-76.0517207, -8.5939726], [-76.0534536, -8.5960531], [-76.0595877, -8.5952193], [-76.0639352, -8.5952193], [-76.0676871, -8.5985544], [-76.0689139, -8.6031758], [-76.0717726, -8.6063917], [-76.0711835, -8.6132421], [-76.0702241, -8.6144316], [-76.0684971, -8.6194937], [-76.0667104, -8.6282482], [-76.0644474, -8.6334294], [-76.0621843, -8.6350969], [-76.0587897, -8.6365262], [-76.0575859, -8.6400918], [-76.0568244, -8.6443755], [-76.057498, -8.6481171], [-76.0561407, -8.6506406], [-76.053668, -8.6580134], [-76.0504521, -8.6620631], [-76.0479508, -8.660336], [-76.0456282, -8.6598], [-76.0420549, -8.663552], [-76.0380648, -8.6644453], [-76.0365164, -8.6658746], [-76.0318711, -8.6656959], [-76.0319307, -8.6694478], [-76.0288008, -8.6700801], [-76.0274453, -8.6721015], [-76.0259157, -8.6789765], [-76.0259219, -8.6824296], [-76.0230809, -8.6866829], [-76.0212347, -8.6869806], [-76.0207583, -8.6889459], [-76.0208774, -8.6955565], [-76.020334, -8.698082], [-76.0206392, -8.7026434], [-76.0215313, -8.7049199], [-76.0219494, -8.7090991], [-76.0212943, -8.7157097], [-76.0205796, -8.7167221], [-76.0165117, -8.718082], [-76.015458, -8.719402], [-76.0134903, -8.7247305], [-76.0131949, -8.7294667], [-76.0161726, -8.7342906], [-76.0167086, -8.739055], [-76.0192099, -8.7406629], [-76.0186035, -8.744625], [-76.0193945, -8.7498066], [-76.0221281, -8.7573501], [-76.0221281, -8.7612211], [-76.0234383, -8.7700947], [-76.0257609, -8.7736084], [-76.0262969, -8.7796829], [-76.0259991, -8.7821247], [-76.0224258, -8.7928325], [-76.0220685, -8.7949765], [-76.0239147, -8.7998599], [-76.0236765, -8.8048625], [-76.0263907, -8.8107539], [-76.0277262, -8.8118304], [-76.0275475, -8.8145699], [-76.0258204, -8.8171903], [-76.0215325, -8.8213471], [-76.0214512, -8.8243281], [-76.0201032, -8.8307567], [-76.0189717, -8.8325434], [-76.0189063, -8.8362949], [-76.01793, -8.84335], [-76.02221, -8.84191], [-76.02271, -8.83642], [-76.02415, -8.83533], [-76.0277, -8.83435], [-76.03016, -8.83609], [-76.03289, -8.83427], [-76.04103, -8.83375], [-76.04367, -8.835], [-76.05013, -8.83584], [-76.05201, -8.83366], [-76.05589, -8.8311], [-76.06073, -8.83146], [-76.06452, -8.8327], [-76.06645, -8.83267], [-76.06962, -8.83067], [-76.06827, -8.82782], [-76.06969, -8.82648], [-76.0745, -8.82543], [-76.07467, -8.82305], [-76.07594, -8.82045], [-76.0817933, -8.823625], [-76.0831213, -8.8287579], [-76.0857558, -8.8301045], [-76.0914485, -8.829834], [-76.0930155, -8.8282603], [-76.097529, -8.8296281], [-76.0984017, -8.8291092], [-76.1044686, -8.8301468], [-76.1076164, -8.8300768], [-76.1078962, -8.8320355], [-76.111751, -8.8356335], [-76.1176196, -8.8363725], [-76.1208364, -8.8381084], [-76.1269273, -8.8308563], [-76.1302673, -8.8278417], [-76.1341794, -8.8220489], [-76.1360122, -8.8199935], [-76.1419043, -8.8162766], [-76.1467859, -8.8153517], [-76.1499194, -8.8116291], [-76.1550774, -8.8101765], [-76.1572266, -8.806471], [-76.1584864, -8.8013575], [-76.1590793, -8.7962439], [-76.1607097, -8.7942429], [-76.1613767, -8.7878695], [-76.1646376, -8.7837193], [-76.1660456, -8.780088], [-76.1681207, -8.7698608], [-76.1708628, -8.7637838], [-76.1716738, -8.7572692], [-76.1692075, -8.7558783], [-76.166848, -8.7563207], [-76.1671757, -8.7533713], [-76.1659304, -8.7515853], [-76.1660942, -8.7471121], [-76.1633415, -8.7441791], [-76.1665364, -8.7412657], [-76.1638822, -8.7391816], [-76.163276, -8.7364943], [-76.1646196, -8.7318408], [-76.1618012, -8.7294813], [-76.1601136, -8.7320375], [-76.1570167, -8.7337252], [-76.1545752, -8.7296452], [-76.1535382, -8.7232951], [-76.1521431, -8.7214608], [-76.1518061, -8.7188143], [-76.1500529, -8.7175035], [-76.148, -8.71764], [-76.14527, -8.71144], [-76.1457, -8.71045], [-76.15025, -8.70974], [-76.15009, -8.70757], [-76.14721, -8.70663], [-76.14654, -8.70502], [-76.14735, -8.70247], [-76.14738, -8.69679], [-76.14437, -8.69037], [-76.14542, -8.68787], [-76.14397, -8.68566], [-76.14249, -8.68174], [-76.14082, -8.68215], [-76.13936, -8.67782], [-76.13772, -8.67658], [-76.13653, -8.67405], [-76.13818, -8.6724], [-76.13985, -8.66928], [-76.13971, -8.66715], [-76.13756, -8.66521], [-76.13627, -8.66581], [-76.13325, -8.66337], [-76.13175, -8.6646], [-76.13021, -8.66311], [-76.13006, -8.6612], [-76.13122, -8.6592], [-76.13126, -8.65679], [-76.1297, -8.65522], [-76.12813, -8.65648], [-76.12594, -8.65637], [-76.12385, -8.65292], [-76.12279, -8.65393], [-76.11828, -8.65373], [-76.1185, -8.65536], [-76.11593, -8.65757], [-76.11309, -8.65601], [-76.11334, -8.65306], [-76.10974, -8.65406], [-76.10928, -8.65193], [-76.10751, -8.64986], [-76.107, -8.64245], [-76.10762, -8.64046], [-76.11037, -8.63829], [-76.11215, -8.63893], [-76.11399, -8.63541], [-76.11641, -8.637], [-76.11988, -8.63537], [-76.12135, -8.63161], [-76.12052, -8.62832], [-76.12377, -8.62576], [-76.12173, -8.62399], [-76.12167, -8.62148], [-76.12029, -8.61906], [-76.12209, -8.61748], [-76.12336, -8.61502], [-76.12165, -8.61283], [-76.12113, -8.60876], [-76.12363, -8.60867], [-76.12451, -8.6045], [-76.12307, -8.59974], [-76.12287, -8.59397], [-76.12018, -8.58993], [-76.12369, -8.58883], [-76.1249, -8.58626], [-76.12689, -8.58409], [-76.12743, -8.58132], [-76.13054, -8.57937], [-76.13388, -8.57474], [-76.13468, -8.57256], [-76.13404, -8.56951], [-76.13499, -8.56642], [-76.13198, -8.5616], [-76.13036, -8.5559], [-76.13172, -8.55382], [-76.12919, -8.55204], [-76.12739, -8.5469], [-76.1264, -8.54542], [-76.1273, -8.5426], [-76.12722, -8.53711], [-76.12842, -8.53242], [-76.13096, -8.53013], [-76.13115, -8.52771], [-76.12828, -8.52522], [-76.12756, -8.52348], [-76.12742, -8.51931], [-76.12609, -8.51694], [-76.12659, -8.51295], [-76.12613, -8.51045], [-76.12707, -8.50432], [-76.1259049, -8.4994685], [-76.1262102, -8.4966687], [-76.1282501, -8.4942996], [-76.1292461, -8.4847812], [-76.130211, -8.4803652], [-76.1305195, -8.4742422], [-76.1304412, -8.4672111], [-76.1277187, -8.4649512], [-76.1286465, -8.4571016], [-76.1264121, -8.4536562], [-76.1259765, -8.4518808], [-76.1225586, -8.447582], [-76.1177597, -8.4437461], [-76.1169316, -8.4421777], [-76.1186445, -8.4340117], [-76.1188204, -8.4304122], [-76.1181172, -8.4285215], [-76.1150507, -8.4237012], [-76.1094101, -8.4177871], [-76.1085976, -8.4139629], [-76.1103945, -8.4048651], [-76.109584, -8.402084], [-76.1080194, -8.4006933], [-76.1079024, -8.3977382], [-76.1099882, -8.3915391], [-76.1121914, -8.387832], [-76.1132344, -8.3842382], [-76.109166, -8.3796132], [-76.1122204, -8.3765524], [-76.1136135, -8.3742117], [-76.1160655, -8.3731251], [-76.1189236, -8.3730616], [-76.1206302, -8.3715763], [-76.1230819, -8.3668018], [-76.1265699, -8.3631226], [-76.1282261, -8.3605277], [-76.1275034, -8.3575258], [-76.1246759, -8.3550057], [-76.1212813, -8.350375], [-76.1176074, -8.3492279], [-76.1145742, -8.3468926], [-76.1118085, -8.3406993], [-76.1123554, -8.3374101], [-76.1091866, -8.3345991], [-76.1069738, -8.3317717], [-76.1010731, -8.3322634], [-76.0944963, -8.3310956], [-76.0927658, -8.3296768], [-76.0894519, -8.3285241], [-76.0857988, -8.3280333], [-76.0805185, -8.329965], [-76.0783572, -8.3318381], [-76.0736348, -8.333418], [-76.0681271, -8.3335671], [-76.0644239, -8.3326601], [-76.059209, -8.3299375], [-76.0563476, -8.329291], [-76.0539472, -8.3303535], [-76.0509941, -8.3343691], [-76.0486172, -8.3396933], [-76.0464434, -8.341332], [-76.0425957, -8.3415918], [-76.0414062, -8.340832], [-76.0416465, -8.3361738], [-76.039625, -8.3319277], [-76.0359805, -8.3294101], [-76.0330625, -8.3292812], [-76.0285505, -8.3274919], [-76.0247969, -8.324457], [-76.0223438, -8.3235098], [-76.0196068, -8.3205188], [-76.0161708, -8.3201146], [-76.0101073, -8.3169313], [-76.0086925, -8.3148596], [-76.0079278, -8.3113535], [-76.0063477, -8.3088535], [-76.0055596, -8.3060674], [-76.0024942, -8.3052265], [-75.9975019, -8.3051601], [-75.9960096, -8.3066738], [-75.9943926, -8.3141016], [-75.994125, -8.3192343], [-75.9901504, -8.3217148], [-75.9856524, -8.3222226], [-75.9860048, -8.3248138]]]}}, {"type": "Feature", "properties": {"ubigeo": "100608", "nombre": "CASTILLO GRANDE", "ubigeo_provincia": "1006", "nombre_provincia": "LEONCIO PRADO", "ubigeo_departamento": "10", "nombre_departamento": "HUANUCO", "fuente": "INEI", "ley_creacion": null, "fecha_creacion": null, "metodo": "publicado por el INEI (WFS Interoperabilidad)", "confianza": "oficial", "ubigeo_provisional": false, "ubigeo_fuente": null, "advertencia": null, "ccdd": "10", "ccpp": "06", "ccdi": "08", "nombdist": "CASTILLO GRANDE", "fuente_inei": "V Censo Nacional Economico", "periodo": 1, "ccdd_c": "100", "ccpp_c": "02", "ccdi_c": "00", "fec_reg": "2022-07-22T01:39:29Z"}, "geometry": {"type": "Polygon", "coordinates": [[[-76.0727954, -9.1365183], [-76.0730112, -9.138856], [-76.0716445, -9.141985], [-76.0688393, -9.143999], [-76.0658182, -9.1446104], [-76.0616103, -9.1427402], [-76.0557121, -9.1415894], [-76.0480398, -9.1429274], [-76.0426209, -9.1443946], [-76.0380174, -9.1469122], [-76.0299874, -9.1481145], [-76.0257175, -9.1523788], [-76.0214736, -9.1545007], [-76.0189921, -9.15727], [-76.0186737, -9.1602626], [-76.0191719, -9.1656139], [-76.0171246, -9.1684797], [-76.0150719, -9.1737779], [-76.0140554, -9.1750491], [-76.010864, -9.181762], [-76.0103246, -9.1843156], [-76.008543, -9.1860976], [-76.0067724, -9.1906293], [-76.0069099, -9.1929108], [-76.0049032, -9.1982985], [-76.0016322, -9.2036586], [-76.0004777, -9.2065174], [-75.9988058, -9.2154006], [-75.9956123, -9.2208936], [-75.9942929, -9.2241097], [-75.9950079, -9.2264024], [-75.9981119, -9.2321337], [-76.0007324, -9.2346856], [-76.0016047, -9.2419219], [-76.0036388, -9.2482166], [-76.0042435, -9.2514052], [-76.0061402, -9.2555559], [-76.0056454, -9.2603388], [-76.0017647, -9.2675954], [-76.0020879, -9.2716231], [-76.00103, -9.2765598], [-75.9997163, -9.2796123], [-75.9997735, -9.2814017], [-76.0017151, -9.2869981], [-76.0007891, -9.29017], [-76.0021838, -9.2952842], [-76.00671, -9.3025245], [-76.0083385, -9.3075853], [-76.011711, -9.3069664], [-76.0152615, -9.3054893], [-76.0202246, -9.3042832], [-76.0215347, -9.3027379], [-76.0281354, -9.2985145], [-76.0283932, -9.292842], [-76.0313326, -9.2907019], [-76.0291667, -9.2862929], [-76.0293398, -9.2764746], [-76.0282385, -9.2733287], [-76.0300371, -9.2715332], [-76.0341688, -9.2695385], [-76.0353681, -9.2679218], [-76.0355457, -9.2654182], [-76.0374537, -9.263768], [-76.0389492, -9.261138], [-76.0405478, -9.2567805], [-76.0456272, -9.253573], [-76.0474837, -9.2532378], [-76.0500878, -9.2503242], [-76.050191, -9.2454253], [-76.0463492, -9.244033], [-76.0454983, -9.2425375], [-76.0420175, -9.243672], [-76.0395938, -9.2424859], [-76.039929, -9.2388762], [-76.0431262, -9.2369939], [-76.0441543, -9.2351152], [-76.048873, -9.2328496], [-76.0494845, -9.2307491], [-76.0514699, -9.229563], [-76.0499486, -9.2270362], [-76.0519598, -9.2242515], [-76.0525976, -9.2212344], [-76.0545433, -9.2192649], [-76.0567092, -9.2156551], [-76.0580241, -9.2117102], [-76.0606283, -9.2117102], [-76.0655788, -9.2094928], [-76.068905, -9.2072547], [-76.0674095, -9.204599], [-76.0673837, -9.2012471], [-76.0696785, -9.1956777], [-76.073418, -9.1963788], [-76.0760523, -9.1944917], [-76.077959, -9.1919824], [-76.0867526, -9.1938471], [-76.0903108, -9.193022], [-76.0921673, -9.1892059], [-76.0917032, -9.1870143], [-76.093582, -9.1848164], [-76.0958544, -9.184307], [-76.0967568, -9.1815997], [-76.0956997, -9.1787892], [-76.0965138, -9.1762366], [-76.096137, -9.1726566], [-76.0938383, -9.1715638], [-76.0928585, -9.1667025], [-76.0933107, -9.1607861], [-76.0943658, -9.1589019], [-76.0897834, -9.1576206], [-76.0870702, -9.1556233], [-76.0867084, -9.1520509], [-76.0823747, -9.1500913], [-76.0839198, -9.1461721], [-76.0826385, -9.1430443], [-76.0822993, -9.1336986], [-76.0840705, -9.1304201], [-76.0834785, -9.1276016], [-76.0808257, -9.1301721], [-76.0786838, -9.1302115], [-76.0753432, -9.1326285], [-76.0710195, -9.132166], [-76.0727954, -9.1365183]]]}}, {"type": "Feature", "properties": {"ubigeo": "100609", "nombre": "PUEBLO NUEVO", "ubigeo_provincia": "1006", "nombre_provincia": "LEONCIO PRADO", "ubigeo_departamento": "10", "nombre_departamento": "HUANUCO", "fuente": "INEI", "ley_creacion": null, "fecha_creacion": null, "metodo": "publicado por el INEI (WFS Interoperabilidad)", "confianza": "oficial", "ubigeo_provisional": false, "ubigeo_fuente": null, "advertencia": null, "ccdd": "10", "ccpp": "06", "ccdi": "09", "nombdist": "PUEBLO NUEVO", "fuente_inei": "V Censo Nacional Economico", "periodo": 1, "ccdd_c": "100", "ccpp_c": "02", "ccdi_c": "00", "fec_reg": "2022-07-22T01:39:29Z"}, "geometry": {"type": "Polygon", "coordinates": [[[-75.8424101, -9.0765663], [-75.8477011, -9.080836], [-75.848633, -9.0823906], [-75.8512422, -9.083125], [-75.8557579, -9.0866875], [-75.8654922, -9.0903457], [-75.8697735, -9.0902168], [-75.8728607, -9.0910096], [-75.8744026, -9.0936222], [-75.8797992, -9.0966346], [-75.8831971, -9.0974056], [-75.886752, -9.1027022], [-75.8885509, -9.1026451], [-75.8903211, -9.1062857], [-75.8921344, -9.1063143], [-75.8936619, -9.1081846], [-75.894647, -9.1113111], [-75.8969599, -9.1150945], [-75.8972026, -9.1167363], [-75.899858, -9.1198343], [-75.9019281, -9.1196631], [-75.9038841, -9.1222328], [-75.9063967, -9.121619], [-75.9089524, -9.1219758], [-75.9101944, -9.124146], [-75.9138702, -9.1244987], [-75.9153394, -9.1261256], [-75.9145166, -9.1286055], [-75.9203789, -9.1272695], [-75.9214621, -9.1278052], [-75.9231871, -9.1321841], [-75.9255886, -9.1334147], [-75.9301791, -9.1324473], [-75.9335735, -9.1326297], [-75.9353261, -9.1313007], [-75.9375761, -9.131295], [-75.9398047, -9.1332343], [-75.9420722, -9.133545], [-75.9467461, -9.1352051], [-75.9500289, -9.1351391], [-75.9528507, -9.1369981], [-75.9564084, -9.1363668], [-75.9569509, -9.1380087], [-75.959622, -9.1391307], [-75.9613507, -9.1384821], [-75.9647875, -9.1418233], [-75.9646907, -9.1436898], [-75.9661414, -9.1463266], [-75.9661414, -9.1480932], [-75.9694962, -9.1478613], [-75.9729584, -9.151127], [-75.9746715, -9.1520371], [-75.9756887, -9.1550173], [-75.9779372, -9.1530901], [-75.9809352, -9.1522156], [-75.9823807, -9.1538038], [-75.9839869, -9.1527153], [-75.9858071, -9.1533042], [-75.9894655, -9.1520015], [-75.9916784, -9.1539466], [-75.9923207, -9.1557668], [-75.9956757, -9.1560346], [-76.0003496, -9.1584336], [-76.0031451, -9.1592866], [-76.005169, -9.1583498], [-76.0072156, -9.1586406], [-76.0102587, -9.1577348], [-76.0136557, -9.1627057], [-76.0165336, -9.1620086], [-76.0175237, -9.1579285], [-76.0189921, -9.15727], [-76.0214736, -9.1545007], [-76.0257175, -9.1523788], [-76.0299874, -9.1481145], [-76.0380174, -9.1469122], [-76.0426209, -9.1443946], [-76.0480398, -9.1429274], [-76.0557121, -9.1415894], [-76.0616103, -9.1427402], [-76.0658182, -9.1446104], [-76.0688393, -9.143999], [-76.0716445, -9.141985], [-76.0730112, -9.138856], [-76.0727954, -9.1365183], [-76.0710195, -9.132166], [-76.0677149, -9.128959], [-76.0654255, -9.1242012], [-76.0655566, -9.1189726], [-76.0663104, -9.1140628], [-76.0687279, -9.1109547], [-76.0695657, -9.1077025], [-76.0694022, -9.1045586], [-76.0702857, -9.0956172], [-76.0732812, -9.0925235], [-76.0757051, -9.0884902], [-76.07875, -9.0880742], [-76.0807579, -9.0893867], [-76.083916, -9.089162], [-76.0852011, -9.0861681], [-76.0834687, -9.0828672], [-76.0817167, -9.0814395], [-76.0755195, -9.0790371], [-76.0735761, -9.076211], [-76.0766446, -9.0721426], [-76.0795469, -9.0719141], [-76.0831202, -9.0725872], [-76.087123, -9.074502], [-76.0904239, -9.074459], [-76.092028, -9.0770886], [-76.0936346, -9.076196], [-76.0963121, -9.0771372], [-76.0967016, -9.082314], [-76.0980734, -9.0876875], [-76.1007172, -9.0864866], [-76.1011734, -9.0880971], [-76.1039196, -9.0887487], [-76.106582, -9.0882553], [-76.1059676, -9.0909271], [-76.1080741, -9.0908393], [-76.109466, -9.0928871], [-76.1124535, -9.093658], [-76.1132015, -9.0957326], [-76.1176425, -9.0963411], [-76.1192282, -9.0953313], [-76.1233051, -9.0979891], [-76.1232904, -9.0994535], [-76.1313965, -9.1003425], [-76.1324212, -9.0985447], [-76.1387145, -9.1017217], [-76.1441931, -9.099607], [-76.1508567, -9.099352], [-76.1511174, -9.101009], [-76.1569264, -9.1021727], [-76.161404, -9.1000967], [-76.1629121, -9.1012325], [-76.1677436, -9.099231], [-76.1698382, -9.0958423], [-76.1719607, -9.094716], [-76.1754051, -9.0952001], [-76.1767364, -9.0970432], [-76.1794546, -9.0981603], [-76.1837369, -9.1023402], [-76.1840031, -9.1046556], [-76.1864645, -9.1075906], [-76.1863435, -9.1104206], [-76.1874699, -9.1118636], [-76.1900579, -9.1129713], [-76.1922364, -9.1161113], [-76.1921329, -9.1227637], [-76.1935897, -9.1252812], [-76.1989414, -9.1271582], [-76.2039902, -9.1337402], [-76.2068379, -9.1365878], [-76.2139121, -9.1392812], [-76.2154687, -9.139334], [-76.2122964, -9.1366728], [-76.211712, -9.1347223], [-76.2120476, -9.1314481], [-76.2116887, -9.1278316], [-76.2104637, -9.1243902], [-76.2084337, -9.1221], [-76.2056601, -9.1220518], [-76.2041818, -9.1119845], [-76.2004776, -9.1100444], [-76.1987911, -9.1067767], [-76.1988896, -9.1016657], [-76.1976695, -9.0996024], [-76.1978359, -9.0975346], [-76.1964945, -9.093749], [-76.1897039, -9.0861583], [-76.1886824, -9.0829903], [-76.1905241, -9.0808596], [-76.1909685, -9.0754603], [-76.1867393, -9.0718563], [-76.1824629, -9.0714681], [-76.1805528, -9.0703833], [-76.1787054, -9.0707912], [-76.1744855, -9.0700008], [-76.1705009, -9.0705304], [-76.1682525, -9.0684014], [-76.1645035, -9.0703084], [-76.1603989, -9.0694601], [-76.1587119, -9.0658476], [-76.1580056, -9.0617727], [-76.1598482, -9.0598718], [-76.1589062, -9.054362], [-76.1603429, -9.0520031], [-76.1594666, -9.0489623], [-76.1552323, -9.0435777], [-76.1555738, -9.0419687], [-76.1498527, -9.0377028], [-76.147699, -9.0325413], [-76.1453846, -9.0313426], [-76.1437005, -9.028534], [-76.1411537, -9.026934], [-76.1403965, -9.0249264], [-76.136762, -9.0264308], [-76.135151, -9.0285031], [-76.1334898, -9.0329874], [-76.1275924, -9.0313402], [-76.1274123, -9.0291586], [-76.1235946, -9.027505], [-76.1217956, -9.0248114], [-76.1192381, -9.0197083], [-76.1169281, -9.0175499], [-76.1145203, -9.0172581], [-76.113504, -9.0149827], [-76.1116597, -9.0168061], [-76.1072086, -9.0178758], [-76.1073826, -9.0213285], [-76.104853, -9.0226768], [-76.1037579, -9.025402], [-76.1012684, -9.0265063], [-76.0989199, -9.026346], [-76.0963389, -9.0289664], [-76.0948781, -9.0350162], [-76.093373, -9.0373364], [-76.093635, -9.0429013], [-76.0928287, -9.0466007], [-76.0897, -9.0470405], [-76.0872627, -9.0433725], [-76.0844932, -9.0445292], [-76.0839241, -9.0474022], [-76.0808119, -9.0498807], [-76.0790886, -9.0531591], [-76.0793289, -9.0562594], [-76.0810137, -9.0594129], [-76.0798636, -9.0611965], [-76.0758247, -9.0629312], [-76.0721627, -9.0624449], [-76.0685232, -9.06553], [-76.0655633, -9.0646536], [-76.062362, -9.0651008], [-76.0617003, -9.0668088], [-76.0581592, -9.0670144], [-76.0554587, -9.0698401], [-76.053849, -9.0696166], [-76.0518639, -9.0718521], [-76.0493064, -9.07187], [-76.0439842, -9.0744089], [-76.0409015, -9.0781338], [-76.0366598, -9.0780796], [-76.031001, -9.079771], [-76.0293558, -9.0810935], [-76.022513, -9.0799094], [-76.0209753, -9.0809243], [-76.0157933, -9.0807398], [-76.0139639, -9.0787861], [-76.0043837, -9.0811704], [-76.0036763, -9.0795711], [-76.0014928, -9.0797864], [-75.9969715, -9.0779715], [-75.9949824, -9.076237], [-75.9925, -9.0772713], [-75.9900629, -9.0757549], [-75.989605, -9.0730514], [-75.9880353, -9.0699993], [-75.9843399, -9.065519], [-75.9843727, -9.0638513], [-75.9867445, -9.0625961], [-75.9863954, -9.0581463], [-75.9848491, -9.0560735], [-75.9858537, -9.0537258], [-75.9896057, -9.0525193], [-75.9895051, -9.0509403], [-75.9874311, -9.049558], [-75.987186, -9.0479316], [-75.9884776, -9.0449131], [-75.9883734, -9.0419941], [-75.9867808, -9.0405627], [-75.9819654, -9.0401449], [-75.9806674, -9.0408184], [-75.977131, -9.0398157], [-75.9750838, -9.0304411], [-75.9735348, -9.0272867], [-75.9685216, -9.0248114], [-75.9631319, -9.0255913], [-75.9571544, -9.022544], [-75.9526116, -9.0241439], [-75.9522384, -9.0203554], [-75.9491492, -9.0172048], [-75.9470283, -9.0161574], [-75.9418188, -9.0121507], [-75.9391221, -9.0117747], [-75.9367218, -9.0143652], [-75.9350969, -9.0189636], [-75.9325037, -9.0214588], [-75.9292324, -9.0223285], [-75.92557, -9.0209021], [-75.9244096, -9.0188949], [-75.9209381, -9.0167979], [-75.9139981, -9.0136566], [-75.9077414, -9.0142464], [-75.9006997, -9.0089036], [-75.8942415, -9.0058565], [-75.8907024, -9.0048695], [-75.8875567, -9.0101247], [-75.8842437, -9.010356], [-75.8830703, -9.0128713], [-75.8789819, -9.0176271], [-75.87647, -9.0240541], [-75.875753, -9.0294717], [-75.8747471, -9.0315959], [-75.8726173, -9.0334993], [-75.8665734, -9.0356912], [-75.8660187, -9.0385959], [-75.8631038, -9.0410595], [-75.8631665, -9.0437952], [-75.8604278, -9.0494968], [-75.8585228, -9.0515114], [-75.8534123, -9.0519141], [-75.8496471, -9.0511412], [-75.8485824, -9.0519292], [-75.8438231, -9.0586924], [-75.8404561, -9.060096], [-75.8378765, -9.0619445], [-75.8384972, -9.0631714], [-75.8389016, -9.0679723], [-75.8385702, -9.0704298], [-75.840822, -9.0739349], [-75.8396192, -9.0765409], [-75.8424101, -9.0765663]]]}}, {"type": "Feature", "properties": {"ubigeo": "100610", "nombre": "SANTO DOMINGO DE ANDA", "ubigeo_provincia": "1006", "nombre_provincia": "LEONCIO PRADO", "ubigeo_departamento": "10", "nombre_departamento": "HUANUCO", "fuente": "INEI", "ley_creacion": null, "fecha_creacion": null, "metodo": "publicado por el INEI (WFS Interoperabilidad)", "confianza": "oficial", "ubigeo_provisional": false, "ubigeo_fuente": null, "advertencia": null, "ccdd": "10", "ccpp": "06", "ccdi": "10", "nombdist": "SANTO DOMINGO DE ANDA", "fuente_inei": "V Censo Nacional Economico", "periodo": 1, "ccdd_c": "100", "ccpp_c": "02", "ccdi_c": "00", "fec_reg": "2022-07-22T01:39:29Z"}, "geometry": {"type": "Polygon", "coordinates": [[[-75.8844925, -8.9740469], [-75.8848683, -8.9801479], [-75.885713, -8.9811031], [-75.8901673, -8.9818102], [-75.8945042, -8.9837141], [-75.8934375, -8.9904168], [-75.8938021, -8.9918517], [-75.8920118, -8.9976523], [-75.8918614, -9.0020183], [-75.8907024, -9.0048695], [-75.8942415, -9.0058565], [-75.9006997, -9.0089036], [-75.9077414, -9.0142464], [-75.9139981, -9.0136566], [-75.9209381, -9.0167979], [-75.9244096, -9.0188949], [-75.92557, -9.0209021], [-75.9292324, -9.0223285], [-75.9325037, -9.0214588], [-75.9350969, -9.0189636], [-75.9367218, -9.0143652], [-75.9391221, -9.0117747], [-75.9418188, -9.0121507], [-75.9470283, -9.0161574], [-75.9491492, -9.0172048], [-75.9522384, -9.0203554], [-75.9526116, -9.0241439], [-75.9571544, -9.022544], [-75.9631319, -9.0255913], [-75.9685216, -9.0248114], [-75.9735348, -9.0272867], [-75.9750838, -9.0304411], [-75.977131, -9.0398157], [-75.9806674, -9.0408184], [-75.9819654, -9.0401449], [-75.9867808, -9.0405627], [-75.9883734, -9.0419941], [-75.9884776, -9.0449131], [-75.987186, -9.0479316], [-75.9874311, -9.049558], [-75.9895051, -9.0509403], [-75.9896057, -9.0525193], [-75.9858537, -9.0537258], [-75.9848491, -9.0560735], [-75.9863954, -9.0581463], [-75.9867445, -9.0625961], [-75.9843727, -9.0638513], [-75.9843399, -9.065519], [-75.9880353, -9.0699993], [-75.989605, -9.0730514], [-75.9900629, -9.0757549], [-75.9925, -9.0772713], [-75.9949824, -9.076237], [-75.9969715, -9.0779715], [-76.0014928, -9.0797864], [-76.0036763, -9.0795711], [-76.0043837, -9.0811704], [-76.0139639, -9.0787861], [-76.0157933, -9.0807398], [-76.0209753, -9.0809243], [-76.022513, -9.0799094], [-76.0293558, -9.0810935], [-76.031001, -9.079771], [-76.0366598, -9.0780796], [-76.0409015, -9.0781338], [-76.0439842, -9.0744089], [-76.0493064, -9.07187], [-76.0518639, -9.0718521], [-76.053849, -9.0696166], [-76.0554587, -9.0698401], [-76.0581592, -9.0670144], [-76.0617003, -9.0668088], [-76.062362, -9.0651008], [-76.0655633, -9.0646536], [-76.0685232, -9.06553], [-76.0721627, -9.0624449], [-76.0758247, -9.0629312], [-76.0798636, -9.0611965], [-76.0810137, -9.0594129], [-76.0793289, -9.0562594], [-76.0790886, -9.0531591], [-76.0808119, -9.0498807], [-76.0839241, -9.0474022], [-76.0844932, -9.0445292], [-76.0872627, -9.0433725], [-76.0897, -9.0470405], [-76.0928287, -9.0466007], [-76.093635, -9.0429013], [-76.093373, -9.0373364], [-76.0948781, -9.0350162], [-76.0963389, -9.0289664], [-76.0938353, -9.022052], [-76.0935382, -9.0192964], [-76.0950313, -9.0163632], [-76.098031, -9.0150335], [-76.0998731, -9.0129032], [-76.101134, -9.0096262], [-76.1011853, -9.0075012], [-76.0995532, -9.0041725], [-76.0971975, -9.003664], [-76.090674, -8.998719], [-76.080043, -8.993704], [-76.079035, -8.992666], [-76.0740617, -8.990809], [-76.0709337, -8.9935209], [-76.0675224, -8.9923823], [-76.0629604, -8.9927974], [-76.0612751, -8.9892992], [-76.0573364, -8.9855204], [-76.0469273, -8.9813004], [-76.0442627, -8.9786089], [-76.0399235, -8.9760943], [-76.0372573, -8.9728285], [-76.0348272, -8.9713422], [-76.0308311, -8.9675631], [-76.0293791, -8.9646958], [-76.0243474, -8.9622978], [-76.0189701, -8.9601878], [-76.0143404, -8.9569271], [-76.012601, -8.9545199], [-76.0128579, -8.9429762], [-76.0120903, -8.9368909], [-76.0094877, -8.9355772], [-76.0078653, -8.933629], [-76.0079685, -8.9291493], [-76.0043222, -8.9262878], [-76.0006817, -8.9254936], [-75.9961233, -8.926999], [-75.9927791, -8.929018], [-75.9899587, -8.9325287], [-75.9864955, -8.9332845], [-75.984183, -8.9324292], [-75.9805374, -8.9297397], [-75.9749916, -8.92918], [-75.9736582, -8.9272883], [-75.9730074, -8.9214323], [-75.9719603, -8.9185636], [-75.9678466, -8.9135206], [-75.9677785, -8.9095582], [-75.970077, -8.9051876], [-75.9701794, -8.9002485], [-75.9720069, -8.8924908], [-75.9723504, -8.8897366], [-75.9699762, -8.8888781], [-75.9593478, -8.887757], [-75.956291, -8.8892006], [-75.9536324, -8.888346], [-75.9500448, -8.8855411], [-75.9484219, -8.8831906], [-75.9460512, -8.8819906], [-75.9446087, -8.8824537], [-75.9427126, -8.8861914], [-75.9387826, -8.8849379], [-75.9369275, -8.8820711], [-75.9359376, -8.8788575], [-75.9359866, -8.8754116], [-75.9352839, -8.8715656], [-75.9328964, -8.8636463], [-75.9322002, -8.8623272], [-75.9261265, -8.8580925], [-75.921993, -8.8568966], [-75.9226678, -8.8603441], [-75.9217023, -8.866836], [-75.9184875, -8.8744247], [-75.91532, -8.8778782], [-75.9130183, -8.8811574], [-75.9111796, -8.8848948], [-75.9120563, -8.8891425], [-75.9107973, -8.8924698], [-75.9110873, -8.8942561], [-75.9098796, -8.8967861], [-75.9068781, -8.8969081], [-75.9060149, -8.8981163], [-75.9012735, -8.8981511], [-75.902724, -8.9008994], [-75.9026218, -8.9083177], [-75.9003446, -8.9119126], [-75.9031207, -8.9154953], [-75.9025224, -8.9168128], [-75.8990381, -8.9188552], [-75.8971247, -8.9236457], [-75.8949616, -8.9247277], [-75.8964104, -8.9267582], [-75.895699, -8.9310672], [-75.8925887, -8.9384927], [-75.8924768, -8.9419627], [-75.8910457, -8.9472305], [-75.8893669, -8.9496275], [-75.8898631, -8.9557282], [-75.8880637, -8.9580058], [-75.8884363, -8.9627907], [-75.8853195, -8.9677037], [-75.8847277, -8.9717731], [-75.8837673, -8.9727325], [-75.8844925, -8.9740469]]]}}]}